{"type":"FeatureCollection","generated":"2026-08-11","features":[{"type":"Feature","geometry":{"type":"Polygon","coordinates":[[[-77.45375,39.07256],[-77.45698,39.07337],[-77.45832,39.07019],[-77.46283,39.06556],[-77.46439,39.06571],[-77.46572,39.06713],[-77.46698,39.06763],[-77.46726,39.06637],[-77.46838,39.0649],[-77.43538,39.04864],[-77.4282,39.04387],[-77.37131,39.01426],[-77.32831,39.05767],[-77.33124,39.06057],[-77.3401,39.0629],[-77.35191,39.06226],[-77.35734,39.0626],[-77.3623,39.06253],[-77.36962,39.0615],[-77.3744,39.06175],[-77.37965,39.06258],[-77.38603,39.0621],[-77.39042,39.06275],[-77.39837,39.06461],[-77.40509,39.06446],[-77.41571,39.06636],[-77.42073,39.06633],[-77.42789,39.06788],[-77.43088,39.06926],[-77.43546,39.07029],[-77.44168,39.07126],[-77.44545,39.07123],[-77.44957,39.07225],[-77.45375,39.07256]]]},"properties":{"name":"Algonkian","population_2020":51613,"housing_units_2020":18031}},{"type":"Feature","geometry":{"type":"Polygon","coordinates":[[[-77.39751,39.02806],[-77.4282,39.04387],[-77.43066,39.04543],[-77.43115,39.04097],[-77.43125,39.02761],[-77.44843,39.02795],[-77.44857,39.02544],[-77.44739,39.02216],[-77.44768,39.02073],[-77.44892,39.01945],[-77.45284,39.01791],[-77.45416,39.01693],[-77.45497,39.01566],[-77.45575,39.01291],[-77.45859,39.00959],[-77.46118,39.00885],[-77.46819,39.0091],[-77.47135,39.00797],[-77.47287,39.00683],[-77.47401,39.00546],[-77.47589,39.00089],[-77.47737,38.9987],[-77.47934,38.99673],[-77.48249,38.9953],[-77.48482,38.9947],[-77.49859,38.99374],[-77.49991,38.99299],[-77.50376,38.98877],[-77.50663,38.98952],[-77.51781,38.98877],[-77.51726,38.98751],[-77.5137,38.9844],[-77.51294,38.98324],[-77.51475,38.98216],[-77.51545,38.98096],[-77.5156,38.97258],[-77.51693,38.96626],[-77.51514,38.96577],[-77.5147,38.96526],[-77.51359,38.96485],[-77.51352,38.96443],[-77.51297,38.96407],[-77.51102,38.96337],[-77.51022,38.96193],[-77.50898,38.96272],[-77.50852,38.96141],[-77.50861,38.96064],[-77.50605,38.96034],[-77.50494,38.95968],[-77.50361,38.95824],[-77.50338,38.95724],[-77.50221,38.95774],[-77.49925,38.95905],[-77.49981,38.96016],[-77.49949,38.96213],[-77.50041,38.96345],[-77.50009,38.96368],[-77.49915,38.96409],[-77.49808,38.96406],[-77.4963,38.96324],[-77.49478,38.96295],[-77.49329,38.9678],[-77.49145,38.97151],[-77.49113,38.97443],[-77.4899,38.97607],[-77.48812,38.97699],[-77.47836,38.9798],[-77.47712,38.98065],[-77.47484,38.98303],[-77.4691,38.98755],[-77.46335,38.99027],[-77.46037,38.99052],[-77.45695,38.98991],[-77.45372,38.98846],[-77.44508,38.98019],[-77.44384,38.9794],[-77.44258,38.97916],[-77.42896,38.97899],[-77.42909,38.96769],[-77.42758,38.964],[-77.42736,38.96231],[-77.42767,38.96077],[-77.42909,38.95762],[-77.42938,38.95552],[-77.37131,39.01426],[-77.39751,39.02806]]]},"properties":{"name":"Sterling","population_2020":50383,"housing_units_2020":16611}},{"type":"Feature","geometry":{"type":"Polygon","coordinates":[[[-77.50668,39.10583],[-77.50688,39.10599],[-77.50765,39.10412],[-77.50909,39.10239],[-77.51258,39.0989],[-77.5145,39.09472],[-77.51568,39.09298],[-77.51569,39.09239],[-77.51849,39.0895],[-77.51819,39.08895],[-77.51121,39.08591],[-77.50979,39.08365],[-77.51059,39.07842],[-77.51198,39.07454],[-77.51207,39.07341],[-77.51235,39.07349],[-77.51307,39.07266],[-77.51566,39.07161],[-77.51693,39.07028],[-77.52115,39.06847],[-77.5239,39.06301],[-77.52446,39.06226],[-77.52594,39.06126],[-77.5263,39.05922],[-77.52557,39.05804],[-77.52486,39.05765],[-77.52484,39.05688],[-77.5251,39.05579],[-77.52648,39.05443],[-77.52747,39.05181],[-77.5298,39.0498],[-77.52857,39.04729],[-77.52863,39.04657],[-77.53026,39.04496],[-77.53147,39.04263],[-77.53307,39.04216],[-77.53536,39.04222],[-77.53598,39.04149],[-77.53597,39.04076],[-77.53515,39.03955],[-77.53249,39.03721],[-77.53245,39.03629],[-77.53293,39.03537],[-77.53441,39.0337],[-77.53546,39.03315],[-77.53789,39.03449],[-77.54028,39.03347],[-77.54499,39.0338],[-77.54661,39.03347],[-77.54711,39.03277],[-77.54707,39.03218],[-77.54574,39.03151],[-77.54043,39.03173],[-77.53913,39.03135],[-77.53902,39.03062],[-77.5395,39.02982],[-77.54164,39.02785],[-77.54448,39.02816],[-77.54888,39.02774],[-77.55231,39.02683],[-77.55875,39.02714],[-77.56138,39.02671],[-77.5617,39.02597],[-77.56135,39.02283],[-77.5606,39.01993],[-77.56102,39.01849],[-77.56187,39.01847],[-77.56504,39.02008],[-77.56947,39.02106],[-77.57148,39.02081],[-77.57341,39.02002],[-77.57426,39.01959],[-77.57555,39.01794],[-77.57598,39.01783],[-77.57585,39.01661],[-77.57443,39.01487],[-77.57376,39.01309],[-77.57461,39.00581],[-77.57442,39.00372],[-77.57373,39.00216],[-77.57231,39.00075],[-77.56841,38.99873],[-77.56564,38.99532],[-77.56402,38.99236],[-77.56117,38.98885],[-77.56061,38.98752],[-77.55746,38.98847],[-77.55581,38.99074],[-77.54904,38.98846],[-77.54828,38.98988],[-77.54818,38.99217],[-77.54727,38.99228],[-77.54686,38.99279],[-77.54578,38.99305],[-77.54531,38.9946],[-77.5443,38.99489],[-77.54425,38.99535],[-77.54255,38.99689],[-77.54164,38.99847],[-77.54013,38.99853],[-77.53966,38.99907],[-77.53964,38.9998],[-77.53807,39.00081],[-77.53795,39.0012],[-77.53734,39.00063],[-77.53649,38.9987],[-77.53562,38.99906],[-77.5358,38.99966],[-77.53673,39.00038],[-77.53656,39.00089],[-77.53707,39.00207],[-77.53665,39.00321],[-77.53035,39.00579],[-77.53165,39.01072],[-77.53197,39.02103],[-77.53092,39.0246],[-77.52936,39.02789],[-77.52671,39.0306],[-77.52522,39.0302],[-77.52367,39.03022],[-77.5197,39.03146],[-77.51682,39.03128],[-77.51447,39.03006],[-77.51253,39.02718],[-77.5094,39.0251],[-77.50789,39.02468],[-77.50355,39.02464],[-77.5019,39.02403],[-77.49778,39.01991],[-77.50121,39.02013],[-77.50271,39.01897],[-77.50344,39.0191],[-77.50465,39.01876],[-77.50579,39.0192],[-77.50568,39.0162],[-77.5046,39.01604],[-77.49938,39.01587],[-77.49505,39.01497],[-77.48918,39.01479],[-77.48857,39.01516],[-77.48733,39.01468],[-77.48458,39.01448],[-77.48369,39.01712],[-77.48135,39.02088],[-77.47901,39.02256],[-77.4781,39.02377],[-77.4855,39.02645],[-77.4873,39.02757],[-77.48507,39.02958],[-77.48478,39.03219],[-77.48523,39.03684],[-77.48667,39.03961],[-77.48749,39.04357],[-77.48736,39.04443],[-77.48567,39.04692],[-77.48544,39.0492],[-77.48312,39.05166],[-77.48202,39.05352],[-77.48104,39.05571],[-77.48064,39.05858],[-77.48074,39.05941],[-77.4817,39.06134],[-77.48123,39.06405],[-77.48416,39.06436],[-77.4828,39.07007],[-77.48169,39.07145],[-77.46838,39.0649],[-77.46726,39.06637],[-77.46698,39.06763],[-77.46572,39.06713],[-77.46439,39.06571],[-77.46283,39.06556],[-77.45832,39.07019],[-77.45698,39.07337],[-77.46069,39.07484],[-77.46246,39.0763],[-77.46429,39.0798],[-77.46905,39.08569],[-77.46915,39.0866],[-77.46837,39.08841],[-77.46863,39.08922],[-77.47325,39.09362],[-77.47729,39.10102],[-77.49275,39.10002],[-77.49677,39.09886],[-77.49741,39.09815],[-77.49746,39.09731],[-77.49818,39.09781],[-77.49851,39.09932],[-77.49954,39.09964],[-77.50016,39.10155],[-77.50202,39.10104],[-77.50293,39.10224],[-77.50342,39.10231],[-77.50352,39.10254],[-77.50325,39.10264],[-77.50489,39.10366],[-77.50502,39.10537],[-77.5058,39.10583],[-77.50668,39.10583]]]},"properties":{"name":"Ashburn","population_2020":50607,"housing_units_2020":17061}},{"type":"Feature","geometry":{"type":"Polygon","coordinates":[[[-77.46838,39.0649],[-77.48169,39.07145],[-77.48288,39.06987],[-77.48416,39.06436],[-77.48123,39.06405],[-77.4817,39.06134],[-77.48074,39.05941],[-77.48064,39.05858],[-77.48104,39.05571],[-77.48202,39.05352],[-77.48312,39.05166],[-77.48544,39.0492],[-77.48567,39.04692],[-77.48736,39.04443],[-77.48749,39.04357],[-77.48667,39.03961],[-77.48523,39.03684],[-77.48478,39.03219],[-77.48507,39.02958],[-77.4873,39.02757],[-77.4855,39.02645],[-77.4781,39.02377],[-77.47901,39.02256],[-77.48135,39.02088],[-77.48369,39.01712],[-77.48458,39.01448],[-77.48733,39.01468],[-77.48857,39.01516],[-77.48918,39.01479],[-77.49505,39.01497],[-77.49938,39.01587],[-77.50568,39.0162],[-77.50579,39.0192],[-77.50465,39.01876],[-77.50344,39.0191],[-77.50271,39.01897],[-77.50121,39.02013],[-77.49778,39.01991],[-77.50235,39.02429],[-77.5038,39.02466],[-77.50811,39.0247],[-77.50959,39.0252],[-77.51264,39.02728],[-77.51447,39.03006],[-77.51654,39.0312],[-77.5197,39.03146],[-77.52418,39.03019],[-77.52671,39.0306],[-77.52894,39.02851],[-77.53092,39.0246],[-77.53187,39.02164],[-77.5319,39.01725],[-77.53165,39.01072],[-77.53001,39.0039],[-77.52902,39.00134],[-77.52929,39.0],[-77.53031,38.99788],[-77.52899,38.9971],[-77.52835,38.99605],[-77.52781,38.9881],[-77.50687,38.98952],[-77.50376,38.98877],[-77.49991,38.99299],[-77.49859,38.99374],[-77.48447,38.99474],[-77.48159,38.99565],[-77.4791,38.9969],[-77.47684,38.99932],[-77.47577,39.00115],[-77.47401,39.00546],[-77.47287,39.00683],[-77.47135,39.00797],[-77.46987,39.00869],[-77.46784,39.00914],[-77.46049,39.00892],[-77.45917,39.00929],[-77.45785,39.01017],[-77.45562,39.01314],[-77.45497,39.01566],[-77.45416,39.01693],[-77.45284,39.01791],[-77.44892,39.01945],[-77.44768,39.02073],[-77.44739,39.02216],[-77.44857,39.02544],[-77.44843,39.02795],[-77.43125,39.02761],[-77.43115,39.04097],[-77.43066,39.04543],[-77.43538,39.04864],[-77.46838,39.0649]]]},"properties":{"name":"Broad Run","population_2020":52953,"housing_units_2020":20303}},{"type":"Feature","geometry":{"type":"Polygon","coordinates":[[[-77.43779,38.9791],[-77.44285,38.97918],[-77.44445,38.9797],[-77.45323,38.98812],[-77.45537,38.98933],[-77.45744,38.99005],[-77.46037,38.99052],[-77.46335,38.99027],[-77.46939,38.98735],[-77.47484,38.98303],[-77.47817,38.9799],[-77.48812,38.97699],[-77.49008,38.97592],[-77.49117,38.97431],[-77.49145,38.97151],[-77.49329,38.9678],[-77.49478,38.96295],[-77.4985,38.96412],[-77.49948,38.96401],[-77.50041,38.96345],[-77.49951,38.9623],[-77.49981,38.96016],[-77.49925,38.95905],[-77.50338,38.95724],[-77.50337,38.95772],[-77.50411,38.95884],[-77.506,38.96033],[-77.50872,38.9608],[-77.50936,38.96054],[-77.50885,38.95978],[-77.5099,38.95883],[-77.5095,38.95782],[-77.5097,38.9546],[-77.51503,38.95258],[-77.51658,38.95131],[-77.51885,38.94668],[-77.51856,38.94291],[-77.51971,38.94304],[-77.52303,38.94545],[-77.52459,38.94798],[-77.52544,38.94869],[-77.52955,38.95002],[-77.53606,38.95299],[-77.5377,38.95515],[-77.53927,38.95619],[-77.54335,38.95406],[-77.55078,38.95368],[-77.5523,38.94762],[-77.55211,38.9471],[-77.55744,38.94535],[-77.55746,38.94455],[-77.56513,38.94753],[-77.56516,38.94664],[-77.56421,38.9455],[-77.56356,38.9436],[-77.56904,38.94197],[-77.56801,38.93427],[-77.56658,38.92717],[-77.56671,38.92602],[-77.56815,38.92362],[-77.56953,38.92301],[-77.57173,38.92286],[-77.54443,38.90973],[-77.54407,38.90244],[-77.54332,38.90106],[-77.54112,38.89362],[-77.54074,38.89065],[-77.54131,38.88644],[-77.53991,38.87872],[-77.54076,38.87638],[-77.54194,38.87463],[-77.54199,38.87386],[-77.54171,38.87167],[-77.54022,38.86853],[-77.53985,38.86605],[-77.54024,38.86507],[-77.54089,38.8645],[-77.54347,38.86378],[-77.54454,38.86301],[-77.54743,38.85733],[-77.54741,38.85611],[-77.54583,38.85363],[-77.5459,38.8525],[-77.54659,38.85072],[-77.54605,38.84921],[-77.54518,38.85007],[-77.5441,38.85023],[-77.53954,38.84801],[-77.53599,38.84737],[-77.42938,38.95552],[-77.42909,38.95762],[-77.42767,38.96077],[-77.42736,38.96231],[-77.42758,38.964],[-77.42909,38.96769],[-77.42896,38.97899],[-77.43779,38.9791]]]},"properties":{"name":"Dulles","population_2020":53777,"housing_units_2020":16458}},{"type":"Feature","geometry":{"type":"Polygon","coordinates":[[[-77.54613,39.13393],[-77.54712,39.13629],[-77.54738,39.1378],[-77.54672,39.14035],[-77.55098,39.13342],[-77.55489,39.13494],[-77.55442,39.13524],[-77.55478,39.1357],[-77.55559,39.13585],[-77.55738,39.13717],[-77.56249,39.13051],[-77.5621,39.12949],[-77.57274,39.12664],[-77.57369,39.12879],[-77.57768,39.12911],[-77.58102,39.12519],[-77.58154,39.12532],[-77.5824,39.12395],[-77.58312,39.12234],[-77.58223,39.12117],[-77.58166,39.12089],[-77.58817,39.11042],[-77.58789,39.11044],[-77.5881,39.10864],[-77.58913,39.10892],[-77.59015,39.10719],[-77.59708,39.09947],[-77.59493,39.09755],[-77.59849,39.09183],[-77.5976,39.09141],[-77.59826,39.0904],[-77.59912,39.0909],[-77.60243,39.08556],[-77.59415,39.08591],[-77.59372,39.08654],[-77.58971,39.08681],[-77.58964,39.0862],[-77.57316,39.08711],[-77.57199,39.08693],[-77.57294,39.0823],[-77.56733,39.08171],[-77.56754,39.0865],[-77.56639,39.08672],[-77.56709,39.08279],[-77.56673,39.07646],[-77.56474,39.07169],[-77.56501,39.07027],[-77.56679,39.06646],[-77.56665,39.0649],[-77.56595,39.06366],[-77.56189,39.06014],[-77.5456,39.04935],[-77.54392,39.04871],[-77.5371,39.04767],[-77.53089,39.04357],[-77.53026,39.04496],[-77.52856,39.04677],[-77.52857,39.04729],[-77.52975,39.0493],[-77.52973,39.04995],[-77.52792,39.05119],[-77.52625,39.05481],[-77.5251,39.05579],[-77.52485,39.05761],[-77.5257,39.05819],[-77.52633,39.0594],[-77.52594,39.06126],[-77.52446,39.06226],[-77.5239,39.06301],[-77.52115,39.06847],[-77.51693,39.07028],[-77.51566,39.07161],[-77.51307,39.07266],[-77.51235,39.07349],[-77.51207,39.07341],[-77.51198,39.07454],[-77.51059,39.07842],[-77.50979,39.08365],[-77.51121,39.08591],[-77.51819,39.08895],[-77.51849,39.0895],[-77.51569,39.09239],[-77.51568,39.09298],[-77.5145,39.09472],[-77.51276,39.09862],[-77.50773,39.10399],[-77.50688,39.10599],[-77.50502,39.10537],[-77.50489,39.10366],[-77.50325,39.10264],[-77.50352,39.10254],[-77.50342,39.10231],[-77.50293,39.10224],[-77.50202,39.10104],[-77.50016,39.10155],[-77.49954,39.09964],[-77.49851,39.09932],[-77.49818,39.09781],[-77.49746,39.09731],[-77.49741,39.09815],[-77.49677,39.09886],[-77.49275,39.10002],[-77.47729,39.10102],[-77.48101,39.10561],[-77.48363,39.10787],[-77.48561,39.10934],[-77.48993,39.11144],[-77.49505,39.11319],[-77.49764,39.11379],[-77.49975,39.1139],[-77.50697,39.11598],[-77.51221,39.11804],[-77.51517,39.11843],[-77.51694,39.11906],[-77.52012,39.12089],[-77.52225,39.12344],[-77.52516,39.12924],[-77.5254,39.13107],[-77.52705,39.13637],[-77.52719,39.13829],[-77.5356,39.13846],[-77.53574,39.13116],[-77.53621,39.13066],[-77.54444,39.13008],[-77.54613,39.13393]]]},"properties":{"name":"Leesburg","population_2020":53780,"housing_units_2020":18690}},{"type":"Feature","geometry":{"type":"Polygon","coordinates":[[[-77.85262,39.0936],[-77.85148,39.09653],[-77.85039,39.09819],[-77.85406,39.09973],[-77.85578,39.0928],[-77.86282,39.08098],[-77.87395,39.08015],[-77.87759,39.07804],[-77.8878,39.06462],[-77.89328,39.05543],[-77.89908,39.05292],[-77.9068,39.04578],[-77.91765,39.03907],[-77.92681,39.0353],[-77.92992,39.03024],[-77.94122,39.02347],[-77.94788,39.02201],[-77.9564,39.02086],[-77.9622,39.01373],[-77.65353,38.94229],[-77.65165,38.94284],[-77.64972,38.94273],[-77.64765,38.94161],[-77.64671,38.94148],[-77.64584,38.94157],[-77.64546,38.9421],[-77.64448,38.94216],[-77.6442,38.94261],[-77.64355,38.94245],[-77.64184,38.94277],[-77.6405,38.94193],[-77.64002,38.94211],[-77.6374,38.94166],[-77.63571,38.9394],[-77.63504,38.93897],[-77.63436,38.93773],[-77.63307,38.93684],[-77.63144,38.93492],[-77.62987,38.93423],[-77.62939,38.93346],[-77.62833,38.93361],[-77.62615,38.93322],[-77.62565,38.9322],[-77.62351,38.93084],[-77.62309,38.93113],[-77.62098,38.93083],[-77.61987,38.93146],[-77.61781,38.93088],[-77.61694,38.92903],[-77.61734,38.92857],[-77.61706,38.9284],[-77.61696,38.92751],[-77.61601,38.92727],[-77.616,38.92651],[-77.61502,38.92549],[-77.61419,38.92535],[-77.61407,38.92483],[-77.61269,38.92413],[-77.61285,38.92301],[-77.61261,38.92224],[-77.61167,38.92123],[-77.61183,38.92067],[-77.61132,38.91985],[-77.61149,38.91885],[-77.6118,38.91868],[-77.61155,38.9177],[-77.61077,38.91671],[-77.61015,38.91662],[-77.61,38.91502],[-77.60953,38.91478],[-77.60895,38.91327],[-77.60784,38.91273],[-77.60725,38.91195],[-77.60438,38.91159],[-77.60312,38.91108],[-77.60194,38.9086],[-77.60116,38.90811],[-77.60067,38.9067],[-77.59975,38.90583],[-77.59958,38.90512],[-77.59871,38.90446],[-77.59825,38.90288],[-77.59733,38.90266],[-77.59699,38.90205],[-77.59576,38.90122],[-77.5939,38.90084],[-77.59151,38.89938],[-77.59122,38.89897],[-77.59156,38.89662],[-77.5879,38.89627],[-77.58582,38.8952],[-77.58463,38.89353],[-77.58267,38.89256],[-77.58154,38.89104],[-77.58035,38.89096],[-77.57905,38.89152],[-77.57504,38.8902],[-77.57462,38.89114],[-77.57312,38.89099],[-77.57213,38.8902],[-77.56933,38.8892],[-77.56822,38.88755],[-77.56696,38.88721],[-77.5664,38.88745],[-77.56618,38.88709],[-77.56462,38.88664],[-77.56423,38.88615],[-77.56167,38.88719],[-77.56043,38.88676],[-77.5593,38.88765],[-77.55678,38.88862],[-77.55584,38.88853],[-77.55518,38.88769],[-77.55305,38.88688],[-77.55263,38.88515],[-77.55169,38.88464],[-77.55196,38.88333],[-77.55149,38.88209],[-77.5498,38.87943],[-77.55,38.8775],[-77.55085,38.87709],[-77.55203,38.87533],[-77.55117,38.87442],[-77.5507,38.8733],[-77.55074,38.8726],[-77.55152,38.87167],[-77.55023,38.86929],[-77.55019,38.86845],[-77.54952,38.8678],[-77.54974,38.86731],[-77.55234,38.86547],[-77.55289,38.86435],[-77.55263,38.86404],[-77.55062,38.86429],[-77.54808,38.86276],[-77.54953,38.86065],[-77.55155,38.85888],[-77.55169,38.85771],[-77.5525,38.85651],[-77.55126,38.85559],[-77.54792,38.8542],[-77.54735,38.85352],[-77.5475,38.85261],[-77.55043,38.8489],[-77.54955,38.8468],[-77.54881,38.84652],[-77.54858,38.84689],[-77.54808,38.84695],[-77.54697,38.84621],[-77.54562,38.84684],[-77.54549,38.84771],[-77.54767,38.84832],[-77.54721,38.84907],[-77.54661,38.84877],[-77.54605,38.84921],[-77.54659,38.85072],[-77.5458,38.85322],[-77.546,38.85408],[-77.54741,38.85611],[-77.54747,38.85722],[-77.54454,38.86301],[-77.54347,38.86378],[-77.54089,38.8645],[-77.54024,38.86507],[-77.53985,38.86605],[-77.54022,38.86853],[-77.54171,38.87167],[-77.54201,38.87423],[-77.54056,38.87681],[-77.53991,38.87872],[-77.54131,38.88644],[-77.54077,38.89112],[-77.54132,38.89449],[-77.54332,38.90106],[-77.54407,38.90244],[-77.54443,38.90973],[-77.57173,38.92286],[-77.56953,38.92301],[-77.56815,38.92362],[-77.56689,38.92555],[-77.56659,38.92657],[-77.56758,38.93304],[-77.56801,38.93427],[-77.56902,38.94206],[-77.56356,38.9436],[-77.56421,38.9455],[-77.56516,38.94664],[-77.56513,38.94753],[-77.55746,38.94455],[-77.55744,38.94535],[-77.55211,38.9471],[-77.5523,38.94762],[-77.55078,38.95368],[-77.54335,38.95406],[-77.53927,38.95619],[-77.5377,38.95515],[-77.53606,38.95299],[-77.52955,38.95002],[-77.52544,38.94869],[-77.52459,38.94798],[-77.52303,38.94545],[-77.51971,38.94304],[-77.51856,38.94291],[-77.5189,38.94647],[-77.51683,38.95094],[-77.51503,38.95258],[-77.5097,38.9546],[-77.5095,38.95782],[-77.5099,38.95883],[-77.50897,38.95945],[-77.50885,38.95983],[-77.50938,38.9605],[-77.50873,38.96078],[-77.50852,38.96141],[-77.50898,38.96272],[-77.51022,38.96193],[-77.51102,38.96337],[-77.51297,38.96407],[-77.51352,38.96443],[-77.51359,38.96485],[-77.5147,38.96526],[-77.51514,38.96577],[-77.51693,38.96626],[-77.5156,38.97258],[-77.51545,38.98096],[-77.51447,38.9824],[-77.51296,38.98302],[-77.51312,38.98364],[-77.51718,38.98742],[-77.51781,38.98877],[-77.52781,38.9881],[-77.52835,38.99605],[-77.52899,38.9971],[-77.53031,38.99788],[-77.52929,39.0],[-77.52902,39.00134],[-77.53001,39.0039],[-77.53035,39.00579],[-77.53277,39.00464],[-77.53639,39.00348],[-77.53707,39.00204],[-77.53656,39.00089],[-77.53666,39.00024],[-77.5358,38.99966],[-77.53562,38.99906],[-77.53649,38.9987],[-77.53734,39.00063],[-77.53795,39.0012],[-77.53807,39.00081],[-77.53964,38.9998],[-77.53966,38.99907],[-77.54013,38.99853],[-77.54164,38.99847],[-77.54255,38.99689],[-77.54425,38.99535],[-77.5443,38.99489],[-77.54531,38.9946],[-77.54578,38.99305],[-77.54686,38.99279],[-77.54727,38.99228],[-77.54818,38.99217],[-77.54828,38.98988],[-77.54904,38.98846],[-77.55581,38.99074],[-77.55746,38.98847],[-77.56061,38.98752],[-77.56117,38.98885],[-77.56402,38.99236],[-77.56564,38.99532],[-77.56841,38.99873],[-77.57231,39.00075],[-77.57373,39.00216],[-77.57442,39.00372],[-77.57461,39.00581],[-77.57376,39.01309],[-77.57443,39.01487],[-77.57585,39.01661],[-77.57601,39.01751],[-77.57426,39.01959],[-77.57185,39.0207],[-77.56971,39.02105],[-77.56504,39.02008],[-77.56187,39.01847],[-77.56102,39.01849],[-77.56061,39.02002],[-77.56135,39.02283],[-77.5617,39.02597],[-77.56138,39.02671],[-77.56095,39.02689],[-77.55875,39.02714],[-77.55231,39.02683],[-77.54827,39.02781],[-77.54448,39.02816],[-77.54153,39.02789],[-77.53933,39.03005],[-77.53902,39.03062],[-77.53913,39.03135],[-77.54196,39.03176],[-77.54549,39.03145],[-77.54694,39.032],[-77.54705,39.0329],[-77.54645,39.03358],[-77.5453,39.03378],[-77.53978,39.03355],[-77.53796,39.03449],[-77.53593,39.03321],[-77.53495,39.03331],[-77.53278,39.03558],[-77.53237,39.03683],[-77.5326,39.03737],[-77.53555,39.04006],[-77.53597,39.04076],[-77.53594,39.04161],[-77.53521,39.04226],[-77.53199,39.04235],[-77.53128,39.04282],[-77.53089,39.04357],[-77.5371,39.04767],[-77.54371,39.04867],[-77.5454,39.04923],[-77.55632,39.05645],[-77.55802,39.05547],[-77.55874,39.05604],[-77.55934,39.05568],[-77.56058,39.05566],[-77.56057,39.05537],[-77.56171,39.05463],[-77.56481,39.05298],[-77.56616,39.05358],[-77.56999,39.05407],[-77.57056,39.0546],[-77.57513,39.05517],[-77.57744,39.056],[-77.57983,39.05631],[-77.58073,39.05738],[-77.5817,39.05746],[-77.58363,39.05694],[-77.58504,39.05724],[-77.5851,39.0579],[-77.58599,39.05848],[-77.58796,39.05912],[-77.59045,39.06065],[-77.59048,39.06112],[-77.58977,39.06153],[-77.59007,39.06227],[-77.59069,39.06201],[-77.59324,39.06471],[-77.59519,39.06547],[-77.59474,39.06609],[-77.59607,39.06718],[-77.59652,39.06865],[-77.59728,39.06877],[-77.5972,39.06835],[-77.59753,39.06803],[-77.59972,39.06893],[-77.60043,39.07018],[-77.60174,39.07036],[-77.60251,39.06997],[-77.60523,39.07079],[-77.60543,39.0701],[-77.6069,39.07064],[-77.60802,39.06956],[-77.6087,39.06967],[-77.60929,39.07053],[-77.60998,39.0692],[-77.61313,39.06586],[-77.61794,39.05479],[-77.61902,39.05073],[-77.62241,39.04433],[-77.62498,39.03498],[-77.62483,39.0341],[-77.62141,39.02675],[-77.62269,39.02742],[-77.62341,39.0299],[-77.62414,39.03103],[-77.62782,39.03194],[-77.63009,39.03305],[-77.63331,39.03524],[-77.63809,39.03631],[-77.64072,39.03784],[-77.64381,39.04074],[-77.64563,39.04029],[-77.64692,39.03937],[-77.64787,39.03815],[-77.64836,39.03817],[-77.65066,39.03941],[-77.654,39.04046],[-77.65386,39.0411],[-77.65494,39.04231],[-77.6573,39.0443],[-77.65862,39.04488],[-77.66049,39.04501],[-77.66163,39.04284],[-77.66155,39.04229],[-77.6623,39.04193],[-77.66331,39.04333],[-77.66484,39.04465],[-77.66692,39.04511],[-77.66714,39.04461],[-77.67067,39.04404],[-77.67505,39.046],[-77.67448,39.0476],[-77.67447,39.04876],[-77.67481,39.04924],[-77.67653,39.04943],[-77.67784,39.0505],[-77.68176,39.05143],[-77.68218,39.05085],[-77.68178,39.05006],[-77.68252,39.04935],[-77.68192,39.04834],[-77.6801,39.04785],[-77.67931,39.04679],[-77.68079,39.04638],[-77.68134,39.0452],[-77.68316,39.04377],[-77.68666,39.0428],[-77.688,39.04307],[-77.68837,39.04389],[-77.6899,39.04447],[-77.6907,39.04375],[-77.69202,39.04345],[-77.69412,39.0422],[-77.69615,39.04171],[-77.69816,39.04219],[-77.69945,39.03939],[-77.70185,39.03852],[-77.70271,39.03881],[-77.70321,39.03974],[-77.70393,39.03993],[-77.70565,39.04017],[-77.70888,39.03991],[-77.71111,39.04035],[-77.7131,39.03913],[-77.71321,39.03853],[-77.71063,39.03831],[-77.70857,39.03747],[-77.70814,39.03611],[-77.70818,39.03554],[-77.7085,39.03534],[-77.70973,39.03542],[-77.7115,39.03631],[-77.71402,39.03599],[-77.71765,39.03726],[-77.71855,39.03813],[-77.72033,39.03879],[-77.72125,39.03875],[-77.72246,39.0374],[-77.7235,39.03687],[-77.72421,39.03717],[-77.72521,39.03829],[-77.72658,39.03809],[-77.73099,39.03915],[-77.73319,39.04099],[-77.73406,39.04127],[-77.73488,39.04127],[-77.73737,39.04042],[-77.73961,39.04128],[-77.74241,39.04072],[-77.74346,39.04088],[-77.74494,39.04172],[-77.7445,39.04312],[-77.74484,39.04384],[-77.74569,39.044],[-77.7479,39.04366],[-77.75119,39.045],[-77.75106,39.04584],[-77.75158,39.0461],[-77.75126,39.04834],[-77.75169,39.04884],[-77.75087,39.0505],[-77.75148,39.05109],[-77.75292,39.05123],[-77.75177,39.05341],[-77.75186,39.05463],[-77.75025,39.05762],[-77.75049,39.05837],[-77.74988,39.05873],[-77.75092,39.05989],[-77.75128,39.06096],[-77.7537,39.06192],[-77.75612,39.06102],[-77.7564,39.0604],[-77.75729,39.06104],[-77.75769,39.06053],[-77.75818,39.06093],[-77.75825,39.06196],[-77.75923,39.06195],[-77.76008,39.06318],[-77.76065,39.06331],[-77.76081,39.06366],[-77.76033,39.06421],[-77.76033,39.0651],[-77.76129,39.06521],[-77.7614,39.0662],[-77.76416,39.06693],[-77.76574,39.06676],[-77.76544,39.06852],[-77.76487,39.06912],[-77.76496,39.06942],[-77.76397,39.06971],[-77.76139,39.07237],[-77.76131,39.07282],[-77.76193,39.0734],[-77.76216,39.07447],[-77.7639,39.07451],[-77.76619,39.07322],[-77.76768,39.07521],[-77.76825,39.07474],[-77.77017,39.07526],[-77.77083,39.07304],[-77.772,39.07252],[-77.77344,39.0733],[-77.77418,39.07303],[-77.77393,39.07213],[-77.77272,39.07138],[-77.77509,39.06966],[-77.7758,39.06965],[-77.77619,39.06975],[-77.77702,39.07229],[-77.77761,39.07301],[-77.78156,39.07414],[-77.78219,39.07383],[-77.78232,39.07441],[-77.78433,39.07694],[-77.78476,39.07714],[-77.78736,39.07639],[-77.78851,39.07672],[-77.78823,39.07862],[-77.78732,39.07953],[-77.78988,39.08056],[-77.79256,39.08094],[-77.79337,39.0805],[-77.79531,39.08055],[-77.79726,39.0802],[-77.80008,39.08094],[-77.80233,39.08188],[-77.80388,39.08312],[-77.80461,39.08318],[-77.80708,39.08586],[-77.80924,39.08652],[-77.81148,39.08522],[-77.81521,39.08554],[-77.81836,39.08461],[-77.82033,39.0833],[-77.82295,39.0835],[-77.82376,39.0833],[-77.82393,39.08289],[-77.82536,39.08294],[-77.82743,39.08235],[-77.82769,39.08241],[-77.82297,39.08694],[-77.8241,39.08794],[-77.82574,39.08872],[-77.82677,39.08906],[-77.83013,39.0888],[-77.83257,39.08905],[-77.83517,39.08993],[-77.83581,39.08957],[-77.83663,39.08971],[-77.83923,39.08912],[-77.84284,39.09176],[-77.84515,39.09181],[-77.84857,39.09318],[-77.85262,39.0936]]]},"properties":{"name":"Little River","population_2020":54858,"housing_units_2020":17151}},{"type":"Feature","geometry":{"type":"Polygon","coordinates":[[[-77.67647,39.32457],[-77.68182,39.32387],[-77.68533,39.32083],[-77.6869,39.31997],[-77.69014,39.31934],[-77.69289,39.31838],[-77.69616,39.31845],[-77.69911,39.31895],[-77.70779,39.32173],[-77.70917,39.32136],[-77.71023,39.32143],[-77.71063,39.32103],[-77.71325,39.32138],[-77.71578,39.32086],[-77.71948,39.32133],[-77.7208,39.31895],[-77.72366,39.31775],[-77.7259,39.31768],[-77.72907,39.31596],[-77.7307,39.3156],[-77.73261,39.31376],[-77.73422,39.31305],[-77.7355,39.3119],[-77.73693,39.30963],[-77.73908,39.30715],[-77.74226,39.30117],[-77.7483,39.29371],[-77.7529,39.28306],[-77.75328,39.28105],[-77.7532,39.27731],[-77.75352,39.27659],[-77.7569,39.27405],[-77.75785,39.27248],[-77.7589,39.26813],[-77.75811,39.26615],[-77.75838,39.26509],[-77.75959,39.26376],[-77.76109,39.2638],[-77.76176,39.26296],[-77.76235,39.26134],[-77.76311,39.26043],[-77.76272,39.25937],[-77.76293,39.25827],[-77.76373,39.25795],[-77.76762,39.25778],[-77.76837,39.25721],[-77.76875,39.25644],[-77.7701,39.25637],[-77.77067,39.25521],[-77.77088,39.25367],[-77.77059,39.25327],[-77.77059,39.25223],[-77.77094,39.24945],[-77.76728,39.24975],[-77.76723,39.24901],[-77.76825,39.24683],[-77.76805,39.24554],[-77.76878,39.24493],[-77.76993,39.24294],[-77.77047,39.2391],[-77.77113,39.23803],[-77.77098,39.23747],[-77.77137,39.23649],[-77.77326,39.23502],[-77.77368,39.23447],[-77.77369,39.23373],[-77.77668,39.23132],[-77.77742,39.2297],[-77.77889,39.22992],[-77.78063,39.22891],[-77.78166,39.2275],[-77.78125,39.2268],[-77.78235,39.2254],[-77.7847,39.22278],[-77.78632,39.22181],[-77.7865,39.22144],[-77.78623,39.22126],[-77.78593,39.21967],[-77.78832,39.21615],[-77.78884,39.21487],[-77.79266,39.21137],[-77.79311,39.2103],[-77.79263,39.209],[-77.79339,39.20817],[-77.79681,39.20225],[-77.79805,39.20101],[-77.79864,39.19748],[-77.79825,39.19653],[-77.79855,39.19487],[-77.79784,39.19407],[-77.79816,39.19252],[-77.79914,39.19179],[-77.80029,39.18855],[-77.80112,39.18779],[-77.80141,39.1854],[-77.80265,39.18357],[-77.80346,39.18088],[-77.8049,39.17905],[-77.80409,39.17855],[-77.80494,39.17694],[-77.80451,39.1762],[-77.80588,39.1731],[-77.80605,39.17172],[-77.80904,39.16934],[-77.81017,39.16761],[-77.81144,39.16704],[-77.81269,39.16424],[-77.81374,39.16437],[-77.81678,39.15784],[-77.81836,39.15604],[-77.81886,39.15471],[-77.82163,39.15187],[-77.82179,39.14959],[-77.82228,39.14921],[-77.82314,39.1475],[-77.82249,39.1471],[-77.82264,39.14627],[-77.82337,39.1456],[-77.82315,39.14444],[-77.82252,39.14394],[-77.82201,39.14233],[-77.8221,39.1401],[-77.82437,39.13801],[-77.82473,39.13672],[-77.82449,39.13615],[-77.82516,39.13537],[-77.82577,39.13574],[-77.82719,39.13524],[-77.82833,39.13234],[-77.83251,39.12752],[-77.83584,39.12572],[-77.83893,39.12182],[-77.84379,39.11975],[-77.85374,39.10102],[-77.85406,39.09973],[-77.85039,39.09819],[-77.85152,39.09644],[-77.8526,39.09348],[-77.84886,39.09323],[-77.84515,39.09181],[-77.84284,39.09176],[-77.83923,39.08912],[-77.83663,39.08971],[-77.83581,39.08957],[-77.83517,39.08993],[-77.83321,39.08918],[-77.83086,39.08886],[-77.82669,39.08904],[-77.8241,39.08794],[-77.82297,39.08694],[-77.82769,39.08241],[-77.82686,39.08265],[-77.82625,39.08249],[-77.82617,39.08279],[-77.82536,39.08294],[-77.82393,39.08289],[-77.82376,39.0833],[-77.82295,39.0835],[-77.82033,39.0833],[-77.81836,39.08461],[-77.81517,39.08554],[-77.81148,39.08522],[-77.80924,39.08652],[-77.80708,39.08586],[-77.80461,39.08318],[-77.80388,39.08312],[-77.80233,39.08188],[-77.80008,39.08094],[-77.79726,39.0802],[-77.79531,39.08055],[-77.79337,39.0805],[-77.79293,39.0809],[-77.7919,39.08097],[-77.78758,39.07975],[-77.78732,39.07939],[-77.78823,39.07862],[-77.78851,39.07672],[-77.78736,39.07639],[-77.78476,39.07714],[-77.78433,39.07694],[-77.78232,39.07441],[-77.78219,39.07383],[-77.78156,39.07414],[-77.77761,39.07301],[-77.77702,39.07229],[-77.77618,39.06973],[-77.77543,39.0696],[-77.7727,39.07143],[-77.77393,39.07213],[-77.77418,39.07303],[-77.77344,39.0733],[-77.772,39.07252],[-77.77083,39.07304],[-77.77017,39.07526],[-77.76825,39.07474],[-77.76768,39.07521],[-77.76619,39.07322],[-77.7639,39.07451],[-77.76216,39.07447],[-77.76193,39.0734],[-77.76131,39.07282],[-77.76139,39.07237],[-77.76397,39.06971],[-77.76496,39.06942],[-77.76487,39.06912],[-77.76544,39.06852],[-77.76574,39.06676],[-77.76416,39.06693],[-77.7614,39.0662],[-77.76129,39.06521],[-77.76033,39.0651],[-77.76033,39.06421],[-77.76081,39.06366],[-77.76065,39.06331],[-77.76008,39.06318],[-77.75923,39.06195],[-77.75825,39.06196],[-77.75818,39.06093],[-77.75769,39.06053],[-77.75729,39.06104],[-77.7564,39.0604],[-77.75612,39.06102],[-77.7537,39.06192],[-77.75131,39.061],[-77.75092,39.05989],[-77.74988,39.05873],[-77.75049,39.05837],[-77.75025,39.05762],[-77.75186,39.05463],[-77.75177,39.05341],[-77.75292,39.05123],[-77.75148,39.05109],[-77.75087,39.0505],[-77.75169,39.04884],[-77.75126,39.04834],[-77.75158,39.0461],[-77.75106,39.04584],[-77.75119,39.045],[-77.7479,39.04366],[-77.74569,39.044],[-77.74484,39.04384],[-77.7445,39.04312],[-77.74494,39.04172],[-77.74346,39.04088],[-77.74241,39.04072],[-77.73961,39.04128],[-77.73737,39.04042],[-77.73417,39.04129],[-77.73319,39.04099],[-77.73099,39.03915],[-77.72658,39.03809],[-77.72521,39.03829],[-77.72377,39.03692],[-77.72308,39.03689],[-77.72125,39.03875],[-77.72033,39.03879],[-77.71855,39.03813],[-77.71765,39.03726],[-77.71402,39.03599],[-77.7115,39.03631],[-77.70973,39.03542],[-77.7085,39.03534],[-77.70818,39.03554],[-77.70814,39.03611],[-77.70857,39.03747],[-77.71063,39.03831],[-77.71321,39.03853],[-77.7131,39.03913],[-77.71111,39.04035],[-77.70888,39.03991],[-77.70565,39.04017],[-77.70393,39.03993],[-77.70321,39.03974],[-77.70271,39.03881],[-77.70185,39.03852],[-77.69945,39.03939],[-77.69816,39.04219],[-77.69615,39.04171],[-77.69412,39.0422],[-77.69202,39.04345],[-77.6907,39.04375],[-77.6899,39.04447],[-77.68837,39.04389],[-77.688,39.04307],[-77.68666,39.0428],[-77.68316,39.04377],[-77.68134,39.0452],[-77.68079,39.04638],[-77.67931,39.04679],[-77.6801,39.04785],[-77.68192,39.04834],[-77.68252,39.04935],[-77.68178,39.05006],[-77.68218,39.05085],[-77.68176,39.05143],[-77.67784,39.0505],[-77.67653,39.04943],[-77.67481,39.04924],[-77.67447,39.04876],[-77.67448,39.0476],[-77.67505,39.046],[-77.67067,39.04404],[-77.66714,39.04461],[-77.66692,39.04511],[-77.66484,39.04465],[-77.66331,39.04333],[-77.6623,39.04193],[-77.66155,39.04229],[-77.66163,39.04284],[-77.66049,39.04501],[-77.65862,39.04488],[-77.6573,39.0443],[-77.65494,39.04231],[-77.65386,39.0411],[-77.654,39.04046],[-77.65066,39.03941],[-77.64836,39.03817],[-77.64787,39.03815],[-77.64692,39.03937],[-77.64563,39.04029],[-77.64381,39.04074],[-77.64072,39.03784],[-77.63809,39.03631],[-77.63331,39.03524],[-77.63009,39.03305],[-77.62782,39.03194],[-77.62414,39.03103],[-77.62341,39.0299],[-77.62269,39.02742],[-77.62141,39.02675],[-77.62483,39.0341],[-77.6248,39.03607],[-77.62241,39.04433],[-77.61902,39.05073],[-77.61794,39.05479],[-77.61429,39.06345],[-77.61313,39.06586],[-77.60998,39.0692],[-77.60929,39.07053],[-77.6087,39.06967],[-77.60802,39.06956],[-77.6069,39.07064],[-77.60543,39.0701],[-77.60523,39.07079],[-77.60251,39.06997],[-77.60174,39.07036],[-77.60047,39.07019],[-77.59997,39.06954],[-77.60009,39.06922],[-77.59872,39.06842],[-77.59749,39.06803],[-77.59728,39.06877],[-77.59654,39.06866],[-77.59607,39.06718],[-77.59474,39.06609],[-77.59519,39.06547],[-77.59324,39.06471],[-77.59069,39.06201],[-77.59007,39.06227],[-77.58977,39.06153],[-77.59048,39.06112],[-77.59045,39.06065],[-77.58796,39.05912],[-77.58599,39.05848],[-77.5851,39.0579],[-77.58498,39.05722],[-77.58363,39.05694],[-77.5817,39.05746],[-77.58073,39.05738],[-77.57983,39.05631],[-77.57744,39.056],[-77.57513,39.05517],[-77.57056,39.0546],[-77.56999,39.05407],[-77.56616,39.05358],[-77.56481,39.05298],[-77.56171,39.05463],[-77.56057,39.05537],[-77.56058,39.05566],[-77.55934,39.05568],[-77.55874,39.05604],[-77.55802,39.05547],[-77.55632,39.05645],[-77.56295,39.06094],[-77.56578,39.06348],[-77.56665,39.0649],[-77.56673,39.06674],[-77.56501,39.07027],[-77.56474,39.07169],[-77.56673,39.07646],[-77.56709,39.08279],[-77.56639,39.08672],[-77.56754,39.0865],[-77.56733,39.08171],[-77.57294,39.0823],[-77.57199,39.08693],[-77.57316,39.08711],[-77.58964,39.0862],[-77.58971,39.08681],[-77.59372,39.08654],[-77.59415,39.08591],[-77.60243,39.08556],[-77.59912,39.0909],[-77.59826,39.0904],[-77.5976,39.09141],[-77.59849,39.09183],[-77.59493,39.09755],[-77.59708,39.09947],[-77.59015,39.10719],[-77.58913,39.10892],[-77.5881,39.10864],[-77.58789,39.11044],[-77.58817,39.11042],[-77.58166,39.12089],[-77.58223,39.12117],[-77.58312,39.12234],[-77.58154,39.12532],[-77.58102,39.12519],[-77.57768,39.12911],[-77.57369,39.12879],[-77.57274,39.12664],[-77.5621,39.12949],[-77.56249,39.13051],[-77.55738,39.13717],[-77.55559,39.13585],[-77.55478,39.1357],[-77.55442,39.13524],[-77.55489,39.13494],[-77.55098,39.13342],[-77.54672,39.14035],[-77.54735,39.13836],[-77.5472,39.1366],[-77.54444,39.13008],[-77.53621,39.13066],[-77.53574,39.13116],[-77.5356,39.13846],[-77.52719,39.13829],[-77.52766,39.14348],[-77.52751,39.14642],[-77.52695,39.14725],[-77.52517,39.14824],[-77.52427,39.1501],[-77.52203,39.15805],[-77.52128,39.1619],[-77.51757,39.16949],[-77.51364,39.17522],[-77.51079,39.17878],[-77.50773,39.18126],[-77.50564,39.18206],[-77.49071,39.18539],[-77.48579,39.18602],[-77.48118,39.18793],[-77.47867,39.18967],[-77.47666,39.19182],[-77.47509,39.19543],[-77.47493,39.19739],[-77.47581,39.20011],[-77.47599,39.20191],[-77.47562,39.20332],[-77.47448,39.20549],[-77.47486,39.2064],[-77.4738,39.20835],[-77.46935,39.2126],[-77.46187,39.21735],[-77.45955,39.21934],[-77.45814,39.22149],[-77.45768,39.22446],[-77.45849,39.22641],[-77.46072,39.2287],[-77.47147,39.2345],[-77.47315,39.23602],[-77.48101,39.24153],[-77.48218,39.24314],[-77.48481,39.24561],[-77.48702,39.24667],[-77.48937,39.24834],[-77.49169,39.24943],[-77.49694,39.25116],[-77.50631,39.25213],[-77.51048,39.25298],[-77.516,39.25574],[-77.51988,39.25729],[-77.52139,39.25859],[-77.52745,39.26045],[-77.53152,39.26128],[-77.53572,39.26282],[-77.53745,39.2637],[-77.53796,39.2643],[-77.54024,39.26468],[-77.54268,39.26638],[-77.54389,39.26758],[-77.54414,39.26925],[-77.54541,39.27106],[-77.55117,39.27612],[-77.55286,39.27873],[-77.55394,39.28112],[-77.55702,39.28258],[-77.56173,39.28678],[-77.56209,39.28985],[-77.5617,39.2926],[-77.56265,39.29373],[-77.56289,39.29493],[-77.56238,39.29886],[-77.56174,39.30023],[-77.5618,39.30123],[-77.56221,39.30229],[-77.5635,39.30383],[-77.56667,39.30591],[-77.56859,39.30631],[-77.57959,39.30477],[-77.58801,39.30181],[-77.59325,39.30117],[-77.59971,39.30185],[-77.60401,39.30277],[-77.60574,39.3035],[-77.60589,39.30311],[-77.60807,39.30328],[-77.60946,39.30288],[-77.61165,39.30315],[-77.61377,39.30261],[-77.61595,39.30256],[-77.6222,39.30476],[-77.6292,39.30629],[-77.63011,39.30675],[-77.63061,39.30759],[-77.63146,39.30791],[-77.63363,39.30758],[-77.63593,39.30766],[-77.64242,39.30872],[-77.64386,39.30864],[-77.65002,39.31058],[-77.65606,39.31376],[-77.65931,39.31458],[-77.66547,39.31683],[-77.66746,39.31818],[-77.67116,39.32182],[-77.67371,39.32306],[-77.67491,39.32416],[-77.67647,39.32457]]]},"properties":{"name":"Catoctin","population_2020":52988,"housing_units_2020":17769}}]}
