{"type":"FeatureCollection","generated":"2026-08-06","features":[{"type":"Feature","geometry":{"type":"Polygon","coordinates":[[[-77.41185,39.02351],[-77.41238,39.02239],[-77.41447,39.02303],[-77.41396,39.02411],[-77.41185,39.02351]]]},"properties":{"id":"lc-ex-001","status":"operational"}},{"type":"Feature","geometry":{"type":"Polygon","coordinates":[[[-77.41396,39.02411],[-77.41447,39.02303],[-77.41647,39.02363],[-77.41611,39.02472],[-77.41396,39.02411]]]},"properties":{"id":"lc-ex-002","status":"operational"}},{"type":"Feature","geometry":{"type":"Polygon","coordinates":[[[-77.43948,38.98891],[-77.44033,38.98716],[-77.44227,38.98816],[-77.44137,38.98986],[-77.43948,38.98891]]]},"properties":{"id":"lc-ex-003","status":"operational"}},{"type":"Feature","geometry":{"type":"Polygon","coordinates":[[[-77.43438,39.02094],[-77.43524,39.02094],[-77.43524,39.02206],[-77.43421,39.02207],[-77.43421,39.02105],[-77.43438,39.02094]]]},"properties":{"id":"lc-ex-004","status":"operational"}},{"type":"Feature","geometry":{"type":"Polygon","coordinates":[[[-77.45362,39.02351],[-77.45535,39.02106],[-77.45604,39.02227],[-77.45583,39.02235],[-77.45481,39.02372],[-77.45449,39.02403],[-77.45362,39.02351]]]},"properties":{"id":"lc-ex-005","status":"operational"}},{"type":"Feature","geometry":{"type":"Polygon","coordinates":[[[-77.44891,39.02068],[-77.45208,39.01986],[-77.45252,39.02024],[-77.45297,39.02053],[-77.45131,39.02212],[-77.44891,39.02068]]]},"properties":{"id":"lc-ex-006","status":"operational"}},{"type":"Feature","geometry":{"type":"Polygon","coordinates":[[[-77.4109,39.02518],[-77.41157,39.02375],[-77.41366,39.02438],[-77.41327,39.02577],[-77.41321,39.02582],[-77.4109,39.02518]]]},"properties":{"id":"lc-ex-007","status":"operational"}},{"type":"Feature","geometry":{"type":"Polygon","coordinates":[[[-77.45131,39.02212],[-77.45297,39.02053],[-77.45357,39.02089],[-77.45404,39.02105],[-77.45467,39.02111],[-77.45533,39.02104],[-77.45362,39.02351],[-77.45131,39.02212]]]},"properties":{"id":"lc-ex-008","status":"operational"}},{"type":"Feature","geometry":{"type":"Polygon","coordinates":[[[-77.44488,38.99658],[-77.44515,38.99715],[-77.44567,38.99771],[-77.44568,38.99783],[-77.4451,38.99831],[-77.44403,38.99867],[-77.44345,38.99909],[-77.4413,38.99759],[-77.44211,38.99725],[-77.44368,38.99677],[-77.44471,38.99652],[-77.44488,38.99658]]]},"properties":{"id":"lc-ex-009","status":"operational"}},{"type":"Feature","geometry":{"type":"Polygon","coordinates":[[[-77.48403,39.00324],[-77.48492,39.00169],[-77.4866,39.00226],[-77.48589,39.00349],[-77.48597,39.00352],[-77.48589,39.00365],[-77.48457,39.00326],[-77.48403,39.00324]]]},"properties":{"id":"lc-ex-010","status":"operational"}},{"type":"Feature","geometry":{"type":"Polygon","coordinates":[[[-77.48589,39.00365],[-77.48597,39.00352],[-77.48589,39.00349],[-77.4866,39.00226],[-77.48783,39.00271],[-77.48877,39.00322],[-77.48739,39.00432],[-77.48665,39.00392],[-77.48589,39.00365]]]},"properties":{"id":"lc-ex-011","status":"operational"}},{"type":"Feature","geometry":{"type":"Polygon","coordinates":[[[-77.44724,38.98816],[-77.44801,38.98704],[-77.4492,38.98754],[-77.44736,38.99021],[-77.44737,38.99036],[-77.44727,38.99041],[-77.44605,38.98991],[-77.44724,38.98816]]]},"properties":{"id":"lc-ex-012","status":"operational"}},{"type":"Feature","geometry":{"type":"Polygon","coordinates":[[[-77.48011,39.00295],[-77.48141,39.00188],[-77.48295,39.00242],[-77.48341,39.00338],[-77.4825,39.00381],[-77.48185,39.00349],[-77.48011,39.00295]]]},"properties":{"id":"lc-ex-013","status":"operational"}},{"type":"Feature","geometry":{"type":"Polygon","coordinates":[[[-77.48141,39.00188],[-77.48282,39.00074],[-77.48389,39.00131],[-77.48492,39.00169],[-77.48403,39.00324],[-77.48341,39.00338],[-77.48295,39.00242],[-77.48141,39.00188]]]},"properties":{"id":"lc-ex-014","status":"operational"}},{"type":"Feature","geometry":{"type":"Polygon","coordinates":[[[-77.46129,39.00859],[-77.46129,39.00834],[-77.4607,39.00736],[-77.46072,39.00702],[-77.46174,39.00622],[-77.46169,39.00598],[-77.46291,39.00567],[-77.46368,39.00511],[-77.46401,39.00471],[-77.46403,39.00374],[-77.46869,39.00386],[-77.46871,39.00429],[-77.46884,39.00473],[-77.4691,39.00514],[-77.46945,39.0055],[-77.47039,39.00614],[-77.47174,39.00659],[-77.47232,39.00691],[-77.47163,39.00746],[-77.47032,39.00818],[-77.46961,39.0085],[-77.46824,39.00883],[-77.46628,39.0089],[-77.46201,39.00859],[-77.46129,39.00859]]]},"properties":{"id":"lc-ex-015","status":"operational"}},{"type":"Feature","geometry":{"type":"Polygon","coordinates":[[[-77.45071,39.01589],[-77.4505,39.01545],[-77.45071,39.01503],[-77.45056,39.01432],[-77.45063,39.01413],[-77.4519,39.01434],[-77.45215,39.0143],[-77.45222,39.01451],[-77.45259,39.0144],[-77.45269,39.01458],[-77.45265,39.01467],[-77.45124,39.01548],[-77.45079,39.01593],[-77.45071,39.01589]]]},"properties":{"id":"lc-ex-016","status":"operational"}},{"type":"Feature","geometry":{"type":"Polygon","coordinates":[[[-77.48009,39.01851],[-77.48063,39.01698],[-77.48124,39.01701],[-77.48264,39.01685],[-77.48319,39.01692],[-77.48347,39.01702],[-77.48316,39.0176],[-77.48238,39.01854],[-77.48207,39.01907],[-77.48202,39.01894],[-77.48155,39.01878],[-77.48009,39.01851]]]},"properties":{"id":"lc-ex-017","status":"operational"}},{"type":"Feature","geometry":{"type":"Polygon","coordinates":[[[-77.44882,38.98847],[-77.452,38.98975],[-77.452,38.99031],[-77.44976,38.9903],[-77.44976,38.99038],[-77.44801,38.98966],[-77.44882,38.98847]]]},"properties":{"id":"lc-ex-018","status":"under_construction"}},{"type":"Feature","geometry":{"type":"Polygon","coordinates":[[[-77.44769,38.99013],[-77.44801,38.98966],[-77.44976,38.99038],[-77.44987,38.99167],[-77.44788,38.99085],[-77.44783,38.99032],[-77.44771,38.9903],[-77.44769,38.99013]]]},"properties":{"id":"lc-ex-019","status":"operational"}},{"type":"Feature","geometry":{"type":"Polygon","coordinates":[[[-77.44771,38.9903],[-77.44783,38.99032],[-77.44788,38.99085],[-77.44987,38.99167],[-77.44995,38.99244],[-77.44907,38.9926],[-77.44705,38.99186],[-77.44766,38.99096],[-77.44755,38.99042],[-77.44771,38.9903]]]},"properties":{"id":"lc-ex-020","status":"operational"}},{"type":"Feature","geometry":{"type":"Polygon","coordinates":[[[-77.43327,39.02248],[-77.43327,39.0224],[-77.43173,39.02238],[-77.43181,39.0211],[-77.43207,39.02095],[-77.43381,39.02095],[-77.43396,39.02101],[-77.434,39.02207],[-77.43389,39.02225],[-77.43393,39.02236],[-77.4338,39.02249],[-77.43327,39.02248]]]},"properties":{"id":"lc-ex-021","status":"operational"}},{"type":"Feature","geometry":{"type":"Polygon","coordinates":[[[-77.45834,39.02704],[-77.45928,39.02828],[-77.46017,39.02881],[-77.4612,39.02842],[-77.46297,39.02948],[-77.46282,39.02973],[-77.46282,39.02995],[-77.46219,39.03021],[-77.46203,39.03021],[-77.46191,39.03014],[-77.46142,39.03041],[-77.46144,39.0303],[-77.4613,39.03014],[-77.46132,39.02966],[-77.46107,39.03001],[-77.46082,39.03015],[-77.46074,39.0304],[-77.46024,39.03044],[-77.46009,39.03037],[-77.45925,39.03026],[-77.45913,39.03018],[-77.45939,39.03072],[-77.4594,39.03087],[-77.45873,39.03154],[-77.45843,39.03163],[-77.45766,39.02995],[-77.45727,39.02938],[-77.45634,39.02851],[-77.45538,39.02803],[-77.45536,39.02787],[-77.45593,39.02745],[-77.45585,39.02735],[-77.45725,39.02708],[-77.45834,39.02704]]]},"properties":{"id":"lc-ex-022","status":"operational"}},{"type":"Feature","geometry":{"type":"Polygon","coordinates":[[[-77.45662,39.02531],[-77.4578,39.02416],[-77.45713,39.02344],[-77.45727,39.02335],[-77.45863,39.02462],[-77.45799,39.02529],[-77.45798,39.02569],[-77.45771,39.02597],[-77.45662,39.02531]]]},"properties":{"id":"lc-ex-023","status":"operational"}},{"type":"Feature","geometry":{"type":"Polygon","coordinates":[[[-77.45814,39.0212],[-77.45871,39.01996],[-77.45954,39.01873],[-77.46152,39.01961],[-77.46082,39.02016],[-77.4602,39.02097],[-77.4601,39.02098],[-77.45996,39.02086],[-77.4598,39.02085],[-77.45968,39.02094],[-77.4597,39.02109],[-77.46265,39.02231],[-77.46191,39.02336],[-77.45795,39.02163],[-77.45814,39.0212]]]},"properties":{"id":"lc-ex-024","status":"operational"}},{"type":"Feature","geometry":{"type":"Polygon","coordinates":[[[-77.48284,39.00388],[-77.48329,39.00363],[-77.48366,39.00351],[-77.48405,39.00345],[-77.48455,39.00348],[-77.48676,39.00421],[-77.48736,39.00458],[-77.48498,39.00627],[-77.48484,39.00626],[-77.48282,39.00404],[-77.48279,39.00396],[-77.48284,39.00388]]]},"properties":{"id":"lc-ex-025","status":"operational"}},{"type":"Feature","geometry":{"type":"Polygon","coordinates":[[[-77.44163,38.98537],[-77.44261,38.98484],[-77.44421,38.98623],[-77.44227,38.98816],[-77.44039,38.98719],[-77.44102,38.98591],[-77.44126,38.98563],[-77.44163,38.98537]]]},"properties":{"id":"lc-ex-026","status":"operational"}},{"type":"Feature","geometry":{"type":"Polygon","coordinates":[[[-77.4796,39.00276],[-77.47733,39.00181],[-77.47594,39.00114],[-77.47615,39.00064],[-77.47652,39.00002],[-77.47743,38.99888],[-77.47761,38.99887],[-77.48103,38.99975],[-77.48141,38.99989],[-77.48282,39.00074],[-77.48011,39.00295],[-77.4796,39.00276]]]},"properties":{"id":"lc-ex-027","status":"operational"}},{"type":"Feature","geometry":{"type":"Polygon","coordinates":[[[-77.47394,39.01241],[-77.47629,39.01179],[-77.47672,39.01278],[-77.47437,39.0134],[-77.47394,39.01241]]]},"properties":{"id":"lc-ex-028","status":"operational"}},{"type":"Feature","geometry":{"type":"Polygon","coordinates":[[[-77.42313,38.98264],[-77.42525,38.98369],[-77.42532,38.9836],[-77.42547,38.98367],[-77.42561,38.98349],[-77.42591,38.98332],[-77.42604,38.98333],[-77.42466,38.98504],[-77.42453,38.98558],[-77.4244,38.98582],[-77.42443,38.98588],[-77.42351,38.98532],[-77.42321,38.98499],[-77.42295,38.98455],[-77.42284,38.98415],[-77.42283,38.98375],[-77.42313,38.98264]]]},"properties":{"id":"lc-ex-029","status":"operational"}},{"type":"Feature","geometry":{"type":"Polygon","coordinates":[[[-77.42443,38.98588],[-77.4244,38.98582],[-77.42453,38.98558],[-77.42466,38.98504],[-77.42604,38.98333],[-77.42685,38.98335],[-77.42757,38.98346],[-77.42527,38.98631],[-77.42443,38.98588]]]},"properties":{"id":"lc-ex-030","status":"operational"}},{"type":"Feature","geometry":{"type":"Polygon","coordinates":[[[-77.44793,39.00719],[-77.44775,39.00714],[-77.44787,39.00629],[-77.44805,39.00582],[-77.44832,39.00546],[-77.4493,39.00469],[-77.44971,39.00407],[-77.44983,39.00352],[-77.44983,39.00309],[-77.44969,39.00253],[-77.44938,39.00194],[-77.44938,39.00184],[-77.45031,39.00148],[-77.45129,39.00133],[-77.45302,39.00125],[-77.45635,39.00122],[-77.45655,39.00212],[-77.45653,39.00277],[-77.45567,39.00294],[-77.45587,39.00331],[-77.45645,39.00376],[-77.45803,39.00424],[-77.4588,39.00431],[-77.45927,39.00481],[-77.45973,39.00476],[-77.45999,39.00466],[-77.46006,39.00438],[-77.46055,39.0051],[-77.46138,39.00555],[-77.46161,39.00593],[-77.46024,39.00555],[-77.45913,39.00548],[-77.45745,39.00572],[-77.45608,39.00566],[-77.45541,39.00557],[-77.45468,39.00506],[-77.45412,39.00485],[-77.45396,39.00502],[-77.45362,39.00588],[-77.45313,39.00666],[-77.45205,39.00797],[-77.45196,39.00836],[-77.45207,39.00924],[-77.45143,39.00904],[-77.45092,39.00879],[-77.44909,39.00744],[-77.44853,39.00725],[-77.44793,39.00719]]]},"properties":{"id":"lc-ex-031","status":"operational"}},{"type":"Feature","geometry":{"type":"MultiPolygon","coordinates":[[[[-77.45366,39.02775],[-77.45334,39.02775],[-77.45533,39.02747],[-77.45504,39.02782],[-77.45487,39.02793],[-77.45366,39.02775]]],[[[-77.44863,39.02784],[-77.44854,39.02775],[-77.44865,39.02625],[-77.44869,39.02625],[-77.44852,39.02491],[-77.44863,39.0248],[-77.4486,39.02467],[-77.45023,39.02441],[-77.45062,39.02444],[-77.45099,39.02457],[-77.45411,39.02644],[-77.45416,39.02639],[-77.45444,39.02655],[-77.4548,39.02688],[-77.45509,39.02743],[-77.45195,39.02779],[-77.45001,39.02789],[-77.44863,39.02784]]]]},"properties":{"id":"lc-ex-032","status":"operational"}},{"type":"Feature","geometry":{"type":"Polygon","coordinates":[[[-77.4494,39.03729],[-77.44899,39.03649],[-77.44829,39.03572],[-77.44932,39.0347],[-77.45145,39.03745],[-77.45067,39.03769],[-77.45045,39.03768],[-77.4494,39.03729]]]},"properties":{"id":"lc-ex-033","status":"operational"}},{"type":"Feature","geometry":{"type":"Polygon","coordinates":[[[-77.44941,39.03731],[-77.45045,39.03768],[-77.45067,39.03769],[-77.45145,39.03745],[-77.44934,39.03467],[-77.45066,39.03407],[-77.45095,39.03488],[-77.45179,39.03518],[-77.45236,39.03519],[-77.45164,39.03723],[-77.45143,39.0375],[-77.45068,39.03771],[-77.45044,39.0377],[-77.44941,39.03731]]]},"properties":{"id":"lc-ex-034","status":"operational"}},{"type":"Feature","geometry":{"type":"Polygon","coordinates":[[[-77.45003,39.02443],[-77.4486,39.02467],[-77.44856,39.02454],[-77.44836,39.02449],[-77.44815,39.02391],[-77.44819,39.0239],[-77.44755,39.02248],[-77.4475,39.02249],[-77.44744,39.02216],[-77.4475,39.02132],[-77.44766,39.02086],[-77.44791,39.02042],[-77.45456,39.02442],[-77.45317,39.02588],[-77.45096,39.02455],[-77.45051,39.02442],[-77.45003,39.02443]]]},"properties":{"id":"lc-ex-035","status":"operational"}},{"type":"Feature","geometry":{"type":"Polygon","coordinates":[[[-77.50084,38.95874],[-77.50593,38.95656],[-77.50739,38.95831],[-77.5087,38.95783],[-77.50934,38.95887],[-77.5054,38.96033],[-77.5035,38.95979],[-77.50341,38.95998],[-77.50128,38.95938],[-77.50084,38.95874]]]},"properties":{"id":"lc-ex-036","status":"under_construction"}},{"type":"Feature","geometry":{"type":"Polygon","coordinates":[[[-77.4653,39.01482],[-77.4664,39.01393],[-77.46683,39.01382],[-77.46707,39.01438],[-77.46853,39.01452],[-77.46968,39.01538],[-77.46936,39.01599],[-77.46887,39.01666],[-77.46834,39.0172],[-77.46824,39.01714],[-77.46811,39.01726],[-77.46671,39.01627],[-77.4653,39.01482]]]},"properties":{"id":"lc-ex-037","status":"operational"}},{"type":"Feature","geometry":{"type":"Polygon","coordinates":[[[-77.4658,39.01123],[-77.46713,39.01431],[-77.46982,39.01454],[-77.47039,39.01445],[-77.47047,39.01462],[-77.47005,39.01496],[-77.46968,39.01538],[-77.46853,39.01452],[-77.46707,39.01438],[-77.46683,39.01382],[-77.4664,39.01393],[-77.4653,39.01482],[-77.46413,39.01379],[-77.46446,39.01342],[-77.4645,39.01317],[-77.46451,39.01256],[-77.46432,39.01184],[-77.46448,39.01161],[-77.4658,39.01123]]]},"properties":{"id":"lc-ex-038","status":"operational"}},{"type":"Feature","geometry":{"type":"Polygon","coordinates":[[[-77.43632,39.01939],[-77.43619,39.01992],[-77.43618,39.02066],[-77.43603,39.02076],[-77.4325,39.02073],[-77.43228,39.02061],[-77.43205,39.0207],[-77.43198,39.02064],[-77.43226,39.01869],[-77.4325,39.01752],[-77.43519,39.01844],[-77.43632,39.01939]]]},"properties":{"id":"lc-ex-039","status":"operational"}},{"type":"Feature","geometry":{"type":"Polygon","coordinates":[[[-77.41193,39.02202],[-77.41331,39.01978],[-77.41473,39.02051],[-77.41352,39.02256],[-77.41193,39.02202]]]},"properties":{"id":"lc-ex-040","status":"operational"}},{"type":"Feature","geometry":{"type":"Polygon","coordinates":[[[-77.41724,39.02389],[-77.41838,39.0224],[-77.42129,39.02324],[-77.42098,39.02572],[-77.41917,39.02521],[-77.41724,39.02389]]]},"properties":{"id":"lc-ex-041","status":"operational"}},{"type":"Feature","geometry":{"type":"Polygon","coordinates":[[[-77.40814,38.98797],[-77.40898,38.98584],[-77.40947,38.98666],[-77.41186,38.98581],[-77.41252,38.98592],[-77.41259,38.98658],[-77.41276,38.98689],[-77.41378,38.98831],[-77.41267,38.98879],[-77.41232,38.98904],[-77.41157,38.98929],[-77.41037,38.98981],[-77.40921,38.98893],[-77.40814,38.98797]]]},"properties":{"id":"lc-ex-042","status":"operational"}},{"type":"Feature","geometry":{"type":"Polygon","coordinates":[[[-77.42313,38.98264],[-77.42378,38.98094],[-77.42418,38.98142],[-77.4254,38.98164],[-77.4258,38.98184],[-77.42593,38.98109],[-77.42647,38.98173],[-77.42629,38.98182],[-77.42642,38.98198],[-77.42605,38.98244],[-77.42653,38.98268],[-77.42601,38.98332],[-77.42591,38.98332],[-77.42561,38.98349],[-77.42547,38.98367],[-77.42532,38.9836],[-77.42525,38.98369],[-77.42313,38.98264]]]},"properties":{"id":"lc-ex-043","status":"operational"}},{"type":"Feature","geometry":{"type":"MultiPolygon","coordinates":[[[[-77.43906,38.99859],[-77.43994,38.99819],[-77.44029,38.99948],[-77.44104,38.99975],[-77.43989,38.99943],[-77.43924,38.99893],[-77.43906,38.99874],[-77.43906,38.99859]]],[[[-77.43934,39.00173],[-77.43909,39.00172],[-77.43798,39.00126],[-77.4379,39.00001],[-77.43756,39.00002],[-77.4375,38.9993],[-77.43844,38.99887],[-77.43869,38.99889],[-77.43928,38.99948],[-77.43982,38.99978],[-77.44042,39.0],[-77.44044,39.00006],[-77.44061,39.0001],[-77.44068,39.00002],[-77.44237,39.00027],[-77.44299,39.00052],[-77.44228,39.00158],[-77.44108,39.00109],[-77.44088,39.00165],[-77.4406,39.00209],[-77.44068,39.00226],[-77.43934,39.00173]]]]},"properties":{"id":"lc-ex-044","status":"operational"}},{"type":"Feature","geometry":{"type":"Polygon","coordinates":[[[-77.47498,38.91825],[-77.47819,38.91354],[-77.48168,38.91495],[-77.47952,38.91812],[-77.4774,38.91801],[-77.47628,38.91912],[-77.47565,38.91865],[-77.47552,38.91848],[-77.47498,38.91825]]]},"properties":{"id":"lc-ex-045","status":"operational"}},{"type":"Feature","geometry":{"type":"Polygon","coordinates":[[[-77.5001,38.95754],[-77.49592,38.95898],[-77.49571,38.95783],[-77.49544,38.95688],[-77.49594,38.95679],[-77.49544,38.95602],[-77.49834,38.95486],[-77.5001,38.95754]]]},"properties":{"id":"lc-ex-046","status":"operational"}},{"type":"Feature","geometry":{"type":"Polygon","coordinates":[[[-77.47627,39.01159],[-77.47492,39.01194],[-77.47365,39.009],[-77.47493,39.00867],[-77.47542,39.00872],[-77.47539,39.0092],[-77.47549,39.00976],[-77.47627,39.01159]]]},"properties":{"id":"lc-ex-047","status":"operational"}},{"type":"Feature","geometry":{"type":"Polygon","coordinates":[[[-77.47156,39.01303],[-77.47199,39.01403],[-77.47002,39.01454],[-77.46713,39.01431],[-77.46709,39.0142],[-77.47156,39.01303]]]},"properties":{"id":"lc-ex-048","status":"operational"}},{"type":"Feature","geometry":{"type":"Polygon","coordinates":[[[-77.55947,38.95239],[-77.55982,38.94563],[-77.56137,38.94624],[-77.56109,38.95166],[-77.56239,38.95133],[-77.56105,38.95193],[-77.55987,38.95209],[-77.55947,38.95239]]]},"properties":{"id":"lc-ex-049","status":"operational"}},{"type":"Feature","geometry":{"type":"Polygon","coordinates":[[[-77.55854,38.94692],[-77.55895,38.9453],[-77.55982,38.94563],[-77.55947,38.95239],[-77.55925,38.95257],[-77.55813,38.95282],[-77.55742,38.95288],[-77.55751,38.94696],[-77.55854,38.94692]]]},"properties":{"id":"lc-ex-050","status":"under_construction"}},{"type":"Feature","geometry":{"type":"Polygon","coordinates":[[[-77.46088,39.01247],[-77.45984,39.01219],[-77.45868,39.01178],[-77.45731,39.01113],[-77.45726,39.01101],[-77.45773,39.01039],[-77.4581,39.01008],[-77.45938,39.01045],[-77.45975,39.01012],[-77.46173,39.0107],[-77.46088,39.01247]]]},"properties":{"id":"lc-ex-051","status":"operational"}},{"type":"Feature","geometry":{"type":"Polygon","coordinates":[[[-77.45529,39.01016],[-77.45554,39.00982],[-77.45553,39.00973],[-77.4554,39.00964],[-77.45568,39.00951],[-77.45581,39.00938],[-77.45584,39.00919],[-77.45624,39.0088],[-77.45634,39.00854],[-77.45628,39.00823],[-77.45611,39.00809],[-77.45597,39.00809],[-77.45596,39.00801],[-77.45602,39.00738],[-77.45645,39.00679],[-77.45703,39.00672],[-77.4573,39.00675],[-77.45751,39.00658],[-77.45795,39.00655],[-77.45822,39.0066],[-77.45836,39.00684],[-77.4587,39.00699],[-77.4593,39.00699],[-77.45988,39.00686],[-77.46038,39.00708],[-77.46058,39.00725],[-77.46082,39.00772],[-77.46097,39.00781],[-77.46129,39.00834],[-77.46129,39.00859],[-77.46058,39.0086],[-77.45989,39.00873],[-77.45928,39.00891],[-77.45867,39.00922],[-77.45759,39.00996],[-77.45701,39.01064],[-77.45657,39.01067],[-77.45529,39.01016]]]},"properties":{"id":"lc-ex-052","status":"operational"}},{"type":"Feature","geometry":{"type":"Polygon","coordinates":[[[-77.43562,39.00119],[-77.43725,39.00114],[-77.43716,39.00004],[-77.43663,38.99969],[-77.4375,38.9993],[-77.43756,39.00002],[-77.43745,39.00003],[-77.43751,39.00092],[-77.43796,39.00091],[-77.43798,39.00126],[-77.43911,39.00172],[-77.43949,39.00177],[-77.43801,39.00397],[-77.43721,39.0038],[-77.43592,39.00278],[-77.43571,39.00247],[-77.43578,39.00246],[-77.43568,39.0022],[-77.43562,39.00119]]]},"properties":{"id":"lc-ex-053","status":"operational"}},{"type":"Feature","geometry":{"type":"Polygon","coordinates":[[[-77.4453,39.051],[-77.44463,39.05071],[-77.44322,39.04984],[-77.44319,39.0497],[-77.44303,39.04961],[-77.44283,39.04964],[-77.44236,39.04935],[-77.4423,39.04915],[-77.44233,39.04889],[-77.44253,39.04856],[-77.44293,39.04813],[-77.44358,39.04771],[-77.44379,39.0474],[-77.44394,39.04729],[-77.44419,39.04725],[-77.44505,39.04735],[-77.44577,39.04736],[-77.44662,39.04721],[-77.44676,39.04723],[-77.44716,39.04755],[-77.44712,39.04776],[-77.44723,39.04791],[-77.44744,39.04796],[-77.44769,39.04813],[-77.44787,39.0491],[-77.44807,39.04937],[-77.44825,39.04999],[-77.44846,39.05025],[-77.44861,39.0507],[-77.44756,39.05108],[-77.44709,39.05105],[-77.44698,39.0512],[-77.44608,39.05118],[-77.4453,39.051]]]},"properties":{"id":"lc-ex-054","status":"operational"}},{"type":"Feature","geometry":{"type":"Polygon","coordinates":[[[-77.46088,39.01247],[-77.46173,39.0107],[-77.46467,39.01155],[-77.46448,39.01161],[-77.46432,39.01184],[-77.46451,39.01256],[-77.4645,39.01317],[-77.46446,39.01342],[-77.46413,39.01379],[-77.46402,39.01358],[-77.46324,39.01324],[-77.46227,39.01289],[-77.46209,39.01278],[-77.46204,39.01281],[-77.46088,39.01247]]]},"properties":{"id":"lc-ex-055","status":"operational"}},{"type":"Feature","geometry":{"type":"Polygon","coordinates":[[[-77.42602,38.98065],[-77.42402,38.98042],[-77.42454,38.9792],[-77.42602,38.97924],[-77.42633,38.97936],[-77.42662,38.97957],[-77.42721,38.98031],[-77.42762,38.98067],[-77.42817,38.98094],[-77.42807,38.98107],[-77.4277,38.9809],[-77.4275,38.98079],[-77.42721,38.98045],[-77.42696,38.9803],[-77.42629,38.9806],[-77.42602,38.98065]]]},"properties":{"id":"lc-ex-056","status":"operational"}},{"type":"Feature","geometry":{"type":"Polygon","coordinates":[[[-77.42757,38.98346],[-77.42685,38.98335],[-77.42601,38.98332],[-77.42653,38.98268],[-77.42605,38.98244],[-77.42642,38.98198],[-77.42629,38.98182],[-77.42647,38.98173],[-77.42593,38.98109],[-77.42602,38.98065],[-77.42629,38.9806],[-77.42696,38.9803],[-77.42721,38.98045],[-77.4275,38.98079],[-77.42807,38.98107],[-77.42817,38.98094],[-77.4286,38.98128],[-77.4286,38.98161],[-77.42883,38.98173],[-77.42903,38.98282],[-77.42929,38.98374],[-77.42757,38.98346]]]},"properties":{"id":"lc-ex-057","status":"operational"}},{"type":"Feature","geometry":{"type":"Polygon","coordinates":[[[-77.43407,38.99585],[-77.43393,38.99543],[-77.43432,38.99494],[-77.43481,38.99415],[-77.43515,38.99385],[-77.43574,38.99353],[-77.43612,38.99359],[-77.4363,38.99392],[-77.43652,38.99458],[-77.43672,38.99551],[-77.43667,38.99559],[-77.43461,38.99604],[-77.43428,38.99581],[-77.43407,38.99585]]]},"properties":{"id":"lc-ex-058","status":"operational"}},{"type":"Feature","geometry":{"type":"Polygon","coordinates":[[[-77.43407,38.99585],[-77.43428,38.99581],[-77.43461,38.99604],[-77.43667,38.99559],[-77.43673,38.99581],[-77.43686,38.99585],[-77.43733,38.99697],[-77.438,38.99803],[-77.43693,38.99782],[-77.43589,38.99803],[-77.43472,38.99781],[-77.43466,38.99766],[-77.43472,38.99756],[-77.43433,38.99666],[-77.43407,38.99585]]]},"properties":{"id":"lc-ex-059","status":"operational"}},{"type":"Feature","geometry":{"type":"Polygon","coordinates":[[[-77.46592,39.00923],[-77.46574,39.01108],[-77.4658,39.01123],[-77.46467,39.01155],[-77.45975,39.01012],[-77.45938,39.01045],[-77.4581,39.01008],[-77.45863,39.00968],[-77.4595,39.00922],[-77.45993,39.0091],[-77.46077,39.00898],[-77.46195,39.00895],[-77.46592,39.00923]]]},"properties":{"id":"lc-ex-060","status":"operational"}},{"type":"Feature","geometry":{"type":"MultiPolygon","coordinates":[[[[-77.41615,38.97887],[-77.41664,38.97827],[-77.41683,38.97829],[-77.41656,38.97862],[-77.41648,38.97894],[-77.41627,38.97929],[-77.41359,38.98255],[-77.41327,38.98239],[-77.41615,38.97887]]],[[[-77.41387,38.98269],[-77.41594,38.98015],[-77.41699,38.97897],[-77.41723,38.97836],[-77.41733,38.97832],[-77.41861,38.97844],[-77.42059,38.97841],[-77.42144,38.97857],[-77.42147,38.98124],[-77.4209,38.98096],[-77.41717,38.98513],[-77.41582,38.98437],[-77.41491,38.98321],[-77.41387,38.98269]]]]},"properties":{"id":"lc-ex-061","status":"operational"}},{"type":"Feature","geometry":{"type":"Polygon","coordinates":[[[-77.44999,38.99267],[-77.45087,38.99253],[-77.45105,38.99261],[-77.45135,38.99343],[-77.45194,38.99448],[-77.45046,38.995],[-77.45012,38.9956],[-77.44865,38.99509],[-77.44955,38.99278],[-77.44999,38.99267]]]},"properties":{"id":"lc-ex-062","status":"operational"}},{"type":"Feature","geometry":{"type":"Polygon","coordinates":[[[-77.44736,38.99444],[-77.4474,38.99444],[-77.44743,38.99423],[-77.44768,38.99381],[-77.44899,38.99426],[-77.44866,38.99507],[-77.44731,38.99461],[-77.44736,38.99444]]]},"properties":{"id":"lc-ex-063","status":"operational"}},{"type":"Feature","geometry":{"type":"Polygon","coordinates":[[[-77.47414,38.99997],[-77.47265,38.99777],[-77.47396,38.99706],[-77.47581,38.99968],[-77.475,39.00001],[-77.47472,38.99999],[-77.47448,38.99983],[-77.47414,38.99997]]]},"properties":{"id":"lc-ex-064","status":"operational"}},{"type":"Feature","geometry":{"type":"MultiPolygon","coordinates":[[[[-77.47415,38.99999],[-77.47448,38.99983],[-77.47471,38.99999],[-77.47502,39.00001],[-77.47581,38.99968],[-77.47396,38.99706],[-77.4752,38.9964],[-77.47585,38.99741],[-77.47694,38.99851],[-77.477,38.99871],[-77.47598,38.99994],[-77.47547,39.00088],[-77.47527,39.00093],[-77.47487,39.00072],[-77.47455,39.00046],[-77.47415,38.99999]]],[[[-77.47514,39.00184],[-77.47442,39.00084],[-77.47531,39.00137],[-77.47514,39.00184]]]]},"properties":{"id":"lc-ex-065","status":"operational"}},{"type":"Feature","geometry":{"type":"Polygon","coordinates":[[[-77.45134,39.01801],[-77.45084,39.01715],[-77.45077,39.01663],[-77.45086,39.01631],[-77.45102,39.01602],[-77.45158,39.01553],[-77.45352,39.01708],[-77.45299,39.01746],[-77.45228,39.01778],[-77.4515,39.01807],[-77.45134,39.01801]]]},"properties":{"id":"lc-ex-066","status":"operational"}},{"type":"Feature","geometry":{"type":"Polygon","coordinates":[[[-77.45177,39.01542],[-77.45288,39.01483],[-77.45346,39.01513],[-77.45456,39.01532],[-77.45466,39.01543],[-77.45424,39.01629],[-77.45352,39.01708],[-77.45158,39.01553],[-77.45177,39.01542]]]},"properties":{"id":"lc-ex-067","status":"operational"}},{"type":"Feature","geometry":{"type":"Polygon","coordinates":[[[-77.44971,39.01913],[-77.45127,39.01863],[-77.45208,39.01986],[-77.44891,39.02068],[-77.4481,39.02019],[-77.4488,39.01958],[-77.44971,39.01913]]]},"properties":{"id":"lc-ex-068","status":"operational"}},{"type":"Feature","geometry":{"type":"Polygon","coordinates":[[[-77.51757,38.95057],[-77.51799,38.9507],[-77.51887,38.9507],[-77.51978,38.95039],[-77.519,38.949],[-77.51819,38.94927],[-77.51912,38.94734],[-77.51935,38.94667],[-77.52036,38.94671],[-77.52124,38.94657],[-77.52196,38.94632],[-77.52291,38.94576],[-77.52308,38.94578],[-77.52342,38.94622],[-77.52439,38.94804],[-77.52476,38.94841],[-77.52539,38.94889],[-77.52422,38.95002],[-77.52344,38.9506],[-77.52245,38.95111],[-77.52123,38.95148],[-77.52047,38.95162],[-77.51845,38.95136],[-77.51697,38.95181],[-77.51757,38.95057]]]},"properties":{"id":"lc-ex-069","status":"operational"}},{"type":"Feature","geometry":{"type":"Polygon","coordinates":[[[-77.55976,39.06033],[-77.56008,39.06108],[-77.56001,39.06118],[-77.56018,39.06142],[-77.56033,39.0614],[-77.56088,39.06175],[-77.56146,39.062],[-77.563,39.06231],[-77.56351,39.06248],[-77.56409,39.06276],[-77.5646,39.06313],[-77.56527,39.06375],[-77.56561,39.06416],[-77.56593,39.06472],[-77.56612,39.06531],[-77.56618,39.06604],[-77.56605,39.06676],[-77.56435,39.07018],[-77.56417,39.07075],[-77.56409,39.07133],[-77.56414,39.07207],[-77.56432,39.07284],[-77.56569,39.07543],[-77.56577,39.07579],[-77.56575,39.07615],[-77.5656,39.07656],[-77.56566,39.07658],[-77.56511,39.07773],[-77.56491,39.07802],[-77.56434,39.07844],[-77.56352,39.0787],[-77.56341,39.07866],[-77.56165,39.07457],[-77.56165,39.07419],[-77.56195,39.07284],[-77.56206,39.07118],[-77.56182,39.06619],[-77.56166,39.06562],[-77.56132,39.06509],[-77.55967,39.06359],[-77.55943,39.06376],[-77.56093,39.0651],[-77.56138,39.06575],[-77.56147,39.0667],[-77.56135,39.06684],[-77.56136,39.06704],[-77.56152,39.06713],[-77.56155,39.06725],[-77.56175,39.07141],[-77.56163,39.07282],[-77.56133,39.07416],[-77.56131,39.07448],[-77.56139,39.07484],[-77.56222,39.07674],[-77.56125,39.077],[-77.56149,39.07755],[-77.55941,39.0781],[-77.55898,39.0771],[-77.56011,39.0765],[-77.55988,39.0762],[-77.55968,39.07575],[-77.5582,39.06964],[-77.55806,39.06863],[-77.55809,39.06748],[-77.55683,39.06739],[-77.55498,39.06789],[-77.55393,39.06543],[-77.55217,39.06589],[-77.55234,39.06512],[-77.55234,39.06342],[-77.55252,39.06197],[-77.5532,39.06189],[-77.55398,39.06049],[-77.55481,39.06052],[-77.55565,39.06039],[-77.55621,39.06041],[-77.55674,39.06026],[-77.5571,39.06025],[-77.55722,39.05993],[-77.55893,39.0603],[-77.55976,39.06033]]]},"properties":{"id":"lc-ex-070","status":"under_construction"}},{"type":"Feature","geometry":{"type":"Polygon","coordinates":[[[-77.52842,38.94483],[-77.52797,38.94525],[-77.52767,38.94567],[-77.52757,38.9457],[-77.52747,38.94587],[-77.52752,38.94595],[-77.52707,38.94677],[-77.5269,38.94708],[-77.52679,38.94711],[-77.52673,38.94721],[-77.52541,38.9467],[-77.52526,38.94601],[-77.52566,38.9453],[-77.52558,38.94516],[-77.52443,38.94474],[-77.52419,38.94474],[-77.52403,38.9448],[-77.52322,38.94566],[-77.52297,38.94541],[-77.52377,38.94466],[-77.52152,38.94312],[-77.52191,38.94291],[-77.52185,38.94285],[-77.52305,38.94221],[-77.52337,38.94223],[-77.52498,38.9414],[-77.5254,38.94106],[-77.52614,38.94067],[-77.52664,38.94012],[-77.52707,38.93988],[-77.52756,38.94005],[-77.52786,38.93952],[-77.52932,38.94141],[-77.53276,38.93969],[-77.53454,38.94014],[-77.53539,38.94047],[-77.53544,38.9406],[-77.53463,38.94224],[-77.53448,38.94246],[-77.53437,38.94248],[-77.53428,38.94265],[-77.5343,38.94274],[-77.53372,38.9432],[-77.53342,38.94337],[-77.53271,38.94359],[-77.532,38.94374],[-77.5319,38.9437],[-77.53168,38.94374],[-77.53162,38.94381],[-77.52961,38.94427],[-77.52911,38.94445],[-77.52842,38.94483]]]},"properties":{"id":"lc-ex-071","status":"under_construction"}},{"type":"Feature","geometry":{"type":"Polygon","coordinates":[[[-77.43701,39.01874],[-77.43726,39.0181],[-77.43739,39.01803],[-77.43742,39.01775],[-77.43733,39.01767],[-77.43729,39.01719],[-77.43706,39.01611],[-77.43717,39.01601],[-77.43714,39.01569],[-77.43701,39.01559],[-77.43705,39.01521],[-77.43728,39.01465],[-77.43814,39.01516],[-77.43882,39.01505],[-77.44055,39.01608],[-77.44072,39.0165],[-77.44008,39.01717],[-77.44164,39.0181],[-77.44216,39.01756],[-77.44412,39.01874],[-77.44354,39.01894],[-77.44312,39.01896],[-77.44219,39.01881],[-77.44187,39.01892],[-77.44132,39.01983],[-77.44031,39.02084],[-77.43804,39.02084],[-77.43809,39.02008],[-77.43707,39.01987],[-77.43681,39.01972],[-77.43663,39.0197],[-77.43701,39.01874]]]},"properties":{"id":"lc-ex-072","status":"operational"}},{"type":"Feature","geometry":{"type":"Polygon","coordinates":[[[-77.44246,39.00608],[-77.44243,39.00612],[-77.44212,39.00597],[-77.44099,39.00534],[-77.441,39.00518],[-77.44008,39.00485],[-77.44167,39.00248],[-77.44222,39.00317],[-77.44243,39.00332],[-77.44303,39.00415],[-77.44323,39.00428],[-77.44382,39.00497],[-77.44332,39.0054],[-77.44273,39.0061],[-77.44261,39.00615],[-77.44246,39.00608]]]},"properties":{"id":"lc-ex-073","status":"operational"}},{"type":"Feature","geometry":{"type":"Polygon","coordinates":[[[-77.43402,38.99093],[-77.43305,38.9905],[-77.43337,38.99023],[-77.43352,38.99001],[-77.43361,38.98969],[-77.43359,38.98904],[-77.43389,38.98863],[-77.43462,38.98825],[-77.43637,38.98893],[-77.43511,38.99125],[-77.43426,38.99087],[-77.43402,38.99093]]]},"properties":{"id":"lc-ex-074","status":"operational"}},{"type":"Feature","geometry":{"type":"Polygon","coordinates":[[[-77.4558,38.99395],[-77.45745,38.99396],[-77.45757,38.99476],[-77.45759,38.99551],[-77.4578,38.99624],[-77.45625,38.99645],[-77.4558,38.99395]]]},"properties":{"id":"lc-ex-075","status":"operational"}},{"type":"Feature","geometry":{"type":"Polygon","coordinates":[[[-77.4558,38.99395],[-77.45625,38.99645],[-77.4578,38.99624],[-77.45784,38.99641],[-77.45586,38.9967],[-77.4561,38.99771],[-77.45488,38.99789],[-77.45448,38.99621],[-77.45436,38.99394],[-77.4558,38.99395]]]},"properties":{"id":"lc-ex-076","status":"operational"}},{"type":"Feature","geometry":{"type":"Polygon","coordinates":[[[-77.43801,39.00397],[-77.43949,39.00177],[-77.44068,39.00226],[-77.4406,39.00209],[-77.44087,39.00167],[-77.44108,39.00109],[-77.44228,39.00158],[-77.44004,39.00491],[-77.4395,39.00474],[-77.43859,39.00421],[-77.43801,39.00397]]]},"properties":{"id":"lc-ex-077","status":"operational"}},{"type":"Feature","geometry":{"type":"Polygon","coordinates":[[[-77.5641,39.08015],[-77.56406,39.08016],[-77.56353,39.07894],[-77.56359,39.07886],[-77.56452,39.07854],[-77.56505,39.07812],[-77.56528,39.07779],[-77.56583,39.07663],[-77.56591,39.07665],[-77.56606,39.07629],[-77.56643,39.08202],[-77.56643,39.08291],[-77.56633,39.08404],[-77.56455,39.08402],[-77.56458,39.08411],[-77.5645,39.08414],[-77.56429,39.08369],[-77.56379,39.08355],[-77.56376,39.0835],[-77.56431,39.08215],[-77.56435,39.08186],[-77.56434,39.08102],[-77.5641,39.08015]]]},"properties":{"id":"lc-ex-078","status":"under_construction"}},{"type":"Feature","geometry":{"type":"Polygon","coordinates":[[[-77.43409,38.98803],[-77.43317,38.98767],[-77.43386,38.98619],[-77.43399,38.98621],[-77.43584,38.98496],[-77.43639,38.98561],[-77.43685,38.98638],[-77.43696,38.98702],[-77.43687,38.98762],[-77.43668,38.98775],[-77.43578,38.98769],[-77.43494,38.98775],[-77.43409,38.98803]]]},"properties":{"id":"lc-ex-079","status":"operational"}},{"type":"Feature","geometry":{"type":"Polygon","coordinates":[[[-77.44762,38.99863],[-77.45154,38.99854],[-77.45175,38.99864],[-77.45196,38.99812],[-77.4518,38.9989],[-77.45181,39.001],[-77.45168,39.00107],[-77.45075,39.00116],[-77.45107,39.00035],[-77.45088,39.00023],[-77.45025,39.00025],[-77.45015,39.00012],[-77.44979,39.00013],[-77.4497,39.00021],[-77.44971,39.00032],[-77.44899,39.00033],[-77.449,39.00053],[-77.44886,39.00053],[-77.44877,39.00087],[-77.44857,39.00011],[-77.44829,38.99949],[-77.44802,38.99907],[-77.44762,38.99863]]]},"properties":{"id":"lc-ex-080","status":"operational"}},{"type":"Feature","geometry":{"type":"Polygon","coordinates":[[[-77.49563,38.91904],[-77.4944,38.91855],[-77.49423,38.91879],[-77.49309,38.91834],[-77.49284,38.91882],[-77.49248,38.91866],[-77.4926,38.91816],[-77.49237,38.91808],[-77.49242,38.91721],[-77.49038,38.91657],[-77.49011,38.91707],[-77.49042,38.91719],[-77.49013,38.91773],[-77.48916,38.91734],[-77.49089,38.91406],[-77.49148,38.91424],[-77.49401,38.91464],[-77.49392,38.91571],[-77.49647,38.91608],[-77.49641,38.91751],[-77.4963,38.91841],[-77.49644,38.91899],[-77.49573,38.91888],[-77.49563,38.91904]]]},"properties":{"id":"lc-ex-081","status":"operational"}},{"type":"Feature","geometry":{"type":"Polygon","coordinates":[[[-77.42945,39.02907],[-77.42742,39.03014],[-77.42694,39.02962],[-77.42697,39.02947],[-77.42681,39.02936],[-77.42662,39.02934],[-77.42649,39.0292],[-77.42608,39.02854],[-77.42588,39.02809],[-77.42609,39.02782],[-77.42647,39.02777],[-77.42716,39.02776],[-77.42837,39.02789],[-77.42836,39.02794],[-77.42863,39.02801],[-77.42887,39.02818],[-77.42945,39.02907]]]},"properties":{"id":"lc-ex-082","status":"operational"}},{"type":"Feature","geometry":{"type":"Polygon","coordinates":[[[-77.42742,39.03014],[-77.42945,39.02907],[-77.43037,39.0298],[-77.42974,39.03017],[-77.43021,39.03082],[-77.43033,39.03125],[-77.42837,39.03157],[-77.42742,39.03014]]]},"properties":{"id":"lc-ex-083","status":"operational"}},{"type":"Feature","geometry":{"type":"Polygon","coordinates":[[[-77.42837,39.03157],[-77.43033,39.03125],[-77.43021,39.03082],[-77.42974,39.03017],[-77.43038,39.0298],[-77.43079,39.03024],[-77.43097,39.03069],[-77.43093,39.03192],[-77.43102,39.03274],[-77.43097,39.03351],[-77.42914,39.0335],[-77.42905,39.03306],[-77.42879,39.03235],[-77.42889,39.03222],[-77.42878,39.03207],[-77.4286,39.03202],[-77.42837,39.03157]]]},"properties":{"id":"lc-ex-084","status":"operational"}},{"type":"Feature","geometry":{"type":"Polygon","coordinates":[[[-77.45215,39.0143],[-77.4519,39.01434],[-77.45063,39.01413],[-77.45085,39.01355],[-77.4509,39.01319],[-77.45118,39.01294],[-77.45278,39.0132],[-77.45251,39.01379],[-77.4525,39.0141],[-77.45259,39.0144],[-77.45222,39.01451],[-77.45215,39.0143]]]},"properties":{"id":"lc-ex-085","status":"under_construction"}},{"type":"Feature","geometry":{"type":"Polygon","coordinates":[[[-77.5535,38.95101],[-77.55249,38.94926],[-77.55261,38.94928],[-77.55277,38.94917],[-77.55271,38.94911],[-77.55295,38.94895],[-77.55308,38.949],[-77.55324,38.94889],[-77.55316,38.94876],[-77.55385,38.94827],[-77.55436,38.94777],[-77.55484,38.94698],[-77.55505,38.94613],[-77.55613,38.94582],[-77.55678,38.94577],[-77.55735,38.94546],[-77.55799,38.94523],[-77.55843,38.94523],[-77.55894,38.94537],[-77.55854,38.94692],[-77.55751,38.94696],[-77.55742,38.95288],[-77.55651,38.95294],[-77.55458,38.95272],[-77.55446,38.95265],[-77.5535,38.95101]]]},"properties":{"id":"lc-ex-086","status":"operational"}},{"type":"Feature","geometry":{"type":"Polygon","coordinates":[[[-77.414,39.02445],[-77.41601,39.02502],[-77.41515,39.0276],[-77.41315,39.02731],[-77.41375,39.02484],[-77.4139,39.02447],[-77.414,39.02445]]]},"properties":{"id":"lc-ex-087","status":"operational"}},{"type":"Feature","geometry":{"type":"Polygon","coordinates":[[[-77.4293,38.99909],[-77.42909,38.99854],[-77.42875,38.99806],[-77.42827,38.99765],[-77.42735,38.99709],[-77.42693,38.99656],[-77.42806,38.99633],[-77.43124,38.99692],[-77.43182,38.99862],[-77.43177,38.9987],[-77.42946,38.99916],[-77.4293,38.99909]]]},"properties":{"id":"lc-ex-088","status":"operational"}},{"type":"Feature","geometry":{"type":"Polygon","coordinates":[[[-77.53342,39.04305],[-77.53446,39.04291],[-77.53571,39.04298],[-77.53634,39.04257],[-77.53677,39.04176],[-77.53691,39.04105],[-77.53686,39.04073],[-77.53665,39.04025],[-77.53621,39.03958],[-77.53682,39.03953],[-77.53746,39.03957],[-77.53822,39.03978],[-77.53889,39.04013],[-77.53908,39.0405],[-77.5395,39.04089],[-77.53985,39.04112],[-77.54295,39.04459],[-77.54034,39.04547],[-77.53945,39.04562],[-77.53888,39.0459],[-77.53875,39.04609],[-77.53823,39.04771],[-77.53718,39.04745],[-77.53624,39.04701],[-77.53195,39.04399],[-77.53219,39.04353],[-77.53271,39.04318],[-77.53342,39.04305]]]},"properties":{"id":"lc-ex-089","status":"under_construction"}},{"type":"Feature","geometry":{"type":"Polygon","coordinates":[[[-77.54685,39.0569],[-77.54628,39.05683],[-77.54625,39.05688],[-77.54585,39.05679],[-77.54598,39.05628],[-77.54666,39.05515],[-77.54648,39.05512],[-77.54662,39.05465],[-77.54719,39.05428],[-77.54747,39.0546],[-77.54833,39.055],[-77.54849,39.05535],[-77.54776,39.05655],[-77.54756,39.05707],[-77.54716,39.05703],[-77.54717,39.05698],[-77.54685,39.05695],[-77.54685,39.0569]]]},"properties":{"id":"lc-ex-090","status":"under_construction"}},{"type":"Feature","geometry":{"type":"Polygon","coordinates":[[[-77.54582,39.05695],[-77.54585,39.05679],[-77.54625,39.05688],[-77.54628,39.05683],[-77.54685,39.0569],[-77.54685,39.05695],[-77.54717,39.05698],[-77.54716,39.05703],[-77.54756,39.05707],[-77.54726,39.0586],[-77.54702,39.05875],[-77.54556,39.05858],[-77.54586,39.05699],[-77.54582,39.05695]]]},"properties":{"id":"lc-ex-091","status":"operational"}},{"type":"Feature","geometry":{"type":"Polygon","coordinates":[[[-77.43591,39.00002],[-77.43663,38.99969],[-77.43707,38.99994],[-77.43718,39.00012],[-77.43725,39.00114],[-77.43562,39.00119],[-77.43552,39.0003],[-77.43588,39.00024],[-77.43591,39.00002]]]},"properties":{"id":"lc-ex-092","status":"under_construction"}},{"type":"Feature","geometry":{"type":"Polygon","coordinates":[[[-77.44029,38.99948],[-77.43994,38.99819],[-77.44078,38.99781],[-77.44157,38.99888],[-77.44253,38.99845],[-77.44345,38.99909],[-77.44319,38.99944],[-77.44303,38.99989],[-77.44284,38.99994],[-77.44233,38.99985],[-77.44104,38.99975],[-77.44029,38.99948]]]},"properties":{"id":"lc-ex-093","status":"under_construction"}},{"type":"Feature","geometry":{"type":"Polygon","coordinates":[[[-77.48684,38.95937],[-77.48782,38.95846],[-77.48851,38.95723],[-77.48863,38.95712],[-77.49461,38.95529],[-77.49494,38.95598],[-77.49586,38.959],[-77.49638,38.96016],[-77.49558,38.96074],[-77.49505,38.96148],[-77.49385,38.96558],[-77.48937,38.96697],[-77.48843,38.96502],[-77.48951,38.96469],[-77.48684,38.95937]]]},"properties":{"id":"lc-ex-094","status":"under_construction"}},{"type":"Feature","geometry":{"type":"Polygon","coordinates":[[[-77.4395,38.989],[-77.44111,38.99],[-77.44347,38.9912],[-77.44394,38.99157],[-77.44401,38.99166],[-77.44287,38.99303],[-77.4393,38.99173],[-77.44017,38.99068],[-77.43888,38.99003],[-77.4395,38.989]]]},"properties":{"id":"lc-ex-095","status":"operational"}},{"type":"Feature","geometry":{"type":"Polygon","coordinates":[[[-77.48069,39.0168],[-77.4816,39.01425],[-77.48407,39.01459],[-77.48391,39.01576],[-77.48357,39.01676],[-77.48268,39.01665],[-77.48122,39.01682],[-77.48069,39.0168]]]},"properties":{"id":"lc-ex-096","status":"operational"}},{"type":"Feature","geometry":{"type":"Polygon","coordinates":[[[-77.43627,38.98991],[-77.43833,38.99037],[-77.43781,38.99115],[-77.43707,38.99204],[-77.4354,38.99194],[-77.4355,38.99134],[-77.43627,38.98991]]]},"properties":{"id":"lc-ex-097","status":"operational"}},{"type":"Feature","geometry":{"type":"Polygon","coordinates":[[[-77.47913,39.01334],[-77.4782,39.01455],[-77.47771,39.01449],[-77.47591,39.01484],[-77.47516,39.01428],[-77.4748,39.01367],[-77.47489,39.01353],[-77.4774,39.01292],[-77.47819,39.01298],[-77.47913,39.01334]]]},"properties":{"id":"lc-ex-098","status":"under_construction"}},{"type":"Feature","geometry":{"type":"Polygon","coordinates":[[[-77.50372,39.07662],[-77.50448,39.0759],[-77.50462,39.07589],[-77.50489,39.07563],[-77.50484,39.07549],[-77.50567,39.07472],[-77.50804,39.0766],[-77.50802,39.07681],[-77.50671,39.07672],[-77.50657,39.07794],[-77.50604,39.07854],[-77.50651,39.07879],[-77.50773,39.07888],[-77.50755,39.08002],[-77.50265,39.07771],[-77.50372,39.07662]]]},"properties":{"id":"lc-ex-099","status":"operational"}},{"type":"Feature","geometry":{"type":"Polygon","coordinates":[[[-77.46955,39.00265],[-77.46991,39.00153],[-77.46983,39.00133],[-77.47001,39.00078],[-77.47199,39.00117],[-77.47228,39.00027],[-77.47358,38.99971],[-77.47514,39.00184],[-77.4746,39.00323],[-77.47442,39.00331],[-77.47433,39.00356],[-77.4744,39.00361],[-77.46955,39.00265]]]},"properties":{"id":"lc-ex-100","status":"under_construction"}},{"type":"Feature","geometry":{"type":"Polygon","coordinates":[[[-77.47591,39.01484],[-77.47771,39.01449],[-77.4782,39.01455],[-77.47913,39.01334],[-77.48072,39.01402],[-77.4816,39.01426],[-77.48107,39.01574],[-77.47988,39.01548],[-77.47949,39.01661],[-77.47889,39.01647],[-77.47742,39.01585],[-77.47591,39.01484]]]},"properties":{"id":"lc-ex-101","status":"operational"}},{"type":"Feature","geometry":{"type":"Polygon","coordinates":[[[-77.43524,39.02304],[-77.43628,39.02304],[-77.4362,39.02749],[-77.43607,39.02758],[-77.43475,39.02757],[-77.43475,39.02751],[-77.43441,39.02746],[-77.4341,39.02734],[-77.43386,39.02714],[-77.4333,39.02646],[-77.43224,39.02562],[-77.43203,39.0253],[-77.43191,39.02494],[-77.43187,39.02305],[-77.43524,39.02304]]]},"properties":{"id":"lc-ex-102","status":"operational"}},{"type":"Feature","geometry":{"type":"Polygon","coordinates":[[[-77.49582,38.98303],[-77.49472,38.9824],[-77.49344,38.98243],[-77.4934,38.98188],[-77.49292,38.98032],[-77.49273,38.97998],[-77.4924,38.97963],[-77.49196,38.97937],[-77.49156,38.97923],[-77.49053,38.97904],[-77.49003,38.97875],[-77.48981,38.97848],[-77.48971,38.97813],[-77.48976,38.97778],[-77.48997,38.97746],[-77.49035,38.97719],[-77.49083,38.97705],[-77.49589,38.97675],[-77.49851,38.98356],[-77.49651,38.98456],[-77.49627,38.98414],[-77.49575,38.98373],[-77.49582,38.98303]]]},"properties":{"id":"lc-ex-103","status":"under_construction"}},{"type":"Feature","geometry":{"type":"Polygon","coordinates":[[[-77.44062,39.01077],[-77.43987,39.01038],[-77.43983,39.01042],[-77.43979,39.01035],[-77.44138,39.00852],[-77.44352,39.00977],[-77.443,39.01008],[-77.44279,39.01031],[-77.44283,39.01104],[-77.44227,39.011],[-77.44149,39.01119],[-77.44128,39.01133],[-77.44098,39.01103],[-77.44062,39.01077]]]},"properties":{"id":"lc-ex-104","status":"under_construction"}},{"type":"Feature","geometry":{"type":"Polygon","coordinates":[[[-77.44138,39.00852],[-77.44264,39.00704],[-77.44291,39.00693],[-77.44332,39.00695],[-77.44532,39.00755],[-77.44505,39.00817],[-77.44481,39.00815],[-77.44454,39.00874],[-77.44386,39.00935],[-77.44382,39.00954],[-77.44352,39.00977],[-77.44138,39.00852]]]},"properties":{"id":"lc-ex-105","status":"under_construction"}},{"type":"Feature","geometry":{"type":"Polygon","coordinates":[[[-77.41352,39.02256],[-77.41473,39.02051],[-77.41636,39.02135],[-77.41533,39.0231],[-77.41352,39.02256]]]},"properties":{"id":"lc-ex-106","status":"under_construction"}},{"type":"Feature","geometry":{"type":"Polygon","coordinates":[[[-77.45154,38.99854],[-77.44762,38.99863],[-77.44739,38.99843],[-77.44869,38.9972],[-77.45154,38.99854]]]},"properties":{"id":"lc-ex-107","status":"under_construction"}},{"type":"Feature","geometry":{"type":"Polygon","coordinates":[[[-77.47357,39.00628],[-77.47408,39.00561],[-77.47446,39.00487],[-77.47975,39.00639],[-77.47936,39.00771],[-77.47863,39.00783],[-77.47734,39.0078],[-77.4761,39.00742],[-77.47357,39.00628]]]},"properties":{"id":"lc-ex-108","status":"under_construction"}},{"type":"Feature","geometry":{"type":"Polygon","coordinates":[[[-77.46397,39.01906],[-77.46499,39.01918],[-77.46642,39.01966],[-77.46428,39.02273],[-77.46418,39.02274],[-77.46026,39.02107],[-77.46096,39.02017],[-77.46177,39.01958],[-77.46283,39.01918],[-77.46397,39.01906]]]},"properties":{"id":"lc-ex-109","status":"operational"}},{"type":"Feature","geometry":{"type":"Polygon","coordinates":[[[-77.46481,39.01502],[-77.46487,39.01499],[-77.46503,39.0151],[-77.46622,39.01631],[-77.46689,39.0169],[-77.46792,39.01759],[-77.46791,39.01766],[-77.46746,39.01813],[-77.46642,39.01966],[-77.46499,39.01918],[-77.46397,39.01906],[-77.46402,39.01817],[-77.46432,39.01694],[-77.46415,39.01621],[-77.46416,39.01587],[-77.46438,39.0154],[-77.46481,39.01502]]]},"properties":{"id":"lc-ex-110","status":"operational"}},{"type":"Feature","geometry":{"type":"Polygon","coordinates":[[[-77.46043,39.01912],[-77.46328,39.0159],[-77.46403,39.01622],[-77.46415,39.01621],[-77.46432,39.01694],[-77.46402,39.01817],[-77.46397,39.01906],[-77.46334,39.01909],[-77.46273,39.01921],[-77.46214,39.0194],[-77.46159,39.01968],[-77.46043,39.01912]]]},"properties":{"id":"lc-ex-111","status":"operational"}},{"type":"Feature","geometry":{"type":"Polygon","coordinates":[[[-77.45661,39.02007],[-77.45697,39.0188],[-77.45766,39.01757],[-77.4578,39.01711],[-77.46197,39.01738],[-77.46043,39.01912],[-77.45954,39.01873],[-77.45869,39.01997],[-77.45845,39.0205],[-77.45754,39.02017],[-77.45676,39.02],[-77.45661,39.02007]]]},"properties":{"id":"lc-ex-112","status":"operational"}},{"type":"Feature","geometry":{"type":"Polygon","coordinates":[[[-77.45771,39.01366],[-77.45787,39.0136],[-77.46328,39.0159],[-77.46197,39.01738],[-77.4578,39.01711],[-77.45779,39.0168],[-77.45769,39.01644],[-77.45715,39.01568],[-77.45763,39.01515],[-77.45785,39.01471],[-77.45789,39.01417],[-77.45771,39.01366]]]},"properties":{"id":"lc-ex-113","status":"operational"}},{"type":"Feature","geometry":{"type":"Polygon","coordinates":[[[-77.47147,39.01448],[-77.47225,39.01471],[-77.47256,39.01519],[-77.47305,39.01572],[-77.47479,39.01694],[-77.47424,39.01743],[-77.47411,39.01763],[-77.47371,39.01901],[-77.47362,39.01954],[-77.47344,39.01996],[-77.47314,39.02101],[-77.47247,39.02154],[-77.472,39.02119],[-77.47159,39.02078],[-77.47061,39.01934],[-77.47008,39.01871],[-77.46939,39.01806],[-77.46866,39.01756],[-77.46876,39.01746],[-77.46864,39.01738],[-77.46923,39.01682],[-77.47026,39.01524],[-77.47065,39.01489],[-77.47147,39.01448]]]},"properties":{"id":"lc-ex-114","status":"under_construction"}},{"type":"Feature","geometry":{"type":"Polygon","coordinates":[[[-77.47199,39.01433],[-77.47214,39.01434],[-77.47263,39.01521],[-77.47332,39.01587],[-77.47565,39.01747],[-77.47615,39.01772],[-77.47678,39.01794],[-77.47631,39.0197],[-77.47759,39.02049],[-77.47723,39.02084],[-77.47677,39.02097],[-77.47556,39.02105],[-77.47413,39.02069],[-77.47394,39.0205],[-77.47403,39.02022],[-77.47439,39.01974],[-77.47362,39.01954],[-77.47371,39.01901],[-77.47413,39.01759],[-77.47479,39.01694],[-77.47305,39.01572],[-77.47263,39.01529],[-77.47225,39.01471],[-77.47147,39.01448],[-77.47199,39.01433]]]},"properties":{"id":"lc-ex-115","status":"operational"}},{"type":"Feature","geometry":{"type":"Polygon","coordinates":[[[-77.54483,39.05479],[-77.54548,39.05277],[-77.54665,39.053],[-77.54724,39.05379],[-77.5471,39.05424],[-77.54715,39.0543],[-77.54662,39.05465],[-77.54648,39.05512],[-77.54483,39.05479]]]},"properties":{"id":"lc-ex-116","status":"under_construction"}},{"type":"Feature","geometry":{"type":"Polygon","coordinates":[[[-77.543,39.0556],[-77.54336,39.0545],[-77.54666,39.05515],[-77.54595,39.05634],[-77.54312,39.05578],[-77.543,39.0556]]]},"properties":{"id":"lc-ex-117","status":"under_construction"}},{"type":"Feature","geometry":{"type":"Polygon","coordinates":[[[-77.44234,38.98147],[-77.44325,38.98024],[-77.4434,38.98039],[-77.44363,38.98032],[-77.44366,38.98019],[-77.44354,38.98005],[-77.44383,38.97964],[-77.44433,38.97988],[-77.44476,38.9802],[-77.44649,38.98194],[-77.44648,38.98201],[-77.44637,38.98208],[-77.44601,38.98206],[-77.44605,38.982],[-77.44587,38.98198],[-77.44585,38.98203],[-77.44234,38.98147]]]},"properties":{"id":"lc-ex-118","status":"operational"}},{"type":"Feature","geometry":{"type":"MultiPolygon","coordinates":[[[[-77.54824,38.95111],[-77.54859,38.95163],[-77.54831,38.95192],[-77.54824,38.95111]]],[[[-77.55077,38.94735],[-77.55128,38.94721],[-77.55209,38.94859],[-77.5515,38.94874],[-77.55127,38.94964],[-77.55059,38.95042],[-77.55033,38.95101],[-77.55011,38.95183],[-77.54992,38.95197],[-77.5491,38.95152],[-77.54851,38.95092],[-77.54832,38.95037],[-77.54819,38.94911],[-77.54795,38.94861],[-77.54791,38.94816],[-77.55077,38.94735]]],[[[-77.5503,38.95279],[-77.55038,38.95245],[-77.55043,38.95246],[-77.55047,38.95231],[-77.55054,38.95231],[-77.55057,38.95218],[-77.55049,38.95205],[-77.55065,38.95163],[-77.55059,38.95161],[-77.55072,38.95111],[-77.55108,38.95038],[-77.55077,38.95157],[-77.55173,38.95131],[-77.5515,38.95221],[-77.55054,38.95247],[-77.55047,38.95274],[-77.5503,38.95279]]],[[[-77.54867,38.95176],[-77.54886,38.95176],[-77.54932,38.95203],[-77.54986,38.95224],[-77.55,38.95243],[-77.54988,38.9529],[-77.54843,38.95329],[-77.54836,38.95247],[-77.54843,38.95245],[-77.54846,38.952],[-77.54867,38.95176]]]]},"properties":{"id":"lc-ex-119","status":"operational"}},{"type":"Feature","geometry":{"type":"Polygon","coordinates":[[[-77.44888,39.00202],[-77.44905,39.0021],[-77.44944,39.00284],[-77.44953,39.0033],[-77.44947,39.00377],[-77.44932,39.00412],[-77.4491,39.00444],[-77.44821,39.00523],[-77.44781,39.00574],[-77.44756,39.00631],[-77.44741,39.00717],[-77.44587,39.00723],[-77.4432,39.00639],[-77.4432,39.00625],[-77.44379,39.00549],[-77.44523,39.00437],[-77.44562,39.00396],[-77.44598,39.00336],[-77.44613,39.00257],[-77.44743,39.00242],[-77.44888,39.00202]]]},"properties":{"id":"lc-ex-120","status":"under_construction"}},{"type":"Feature","geometry":{"type":"Polygon","coordinates":[[[-77.54729,38.94319],[-77.54789,38.94275],[-77.55338,38.94478],[-77.55326,38.94648],[-77.55085,38.94717],[-77.55076,38.94698],[-77.54568,38.94348],[-77.54729,38.94319]]]},"properties":{"id":"lc-ex-121","status":"under_construction"}},{"type":"Feature","geometry":{"type":"Polygon","coordinates":[[[-77.45565,39.01324],[-77.45627,39.01233],[-77.45742,39.01282],[-77.45752,39.01357],[-77.45739,39.01362],[-77.45734,39.01372],[-77.4574,39.01382],[-77.45756,39.01389],[-77.4576,39.01399],[-77.45764,39.01455],[-77.4574,39.01509],[-77.45698,39.0155],[-77.45686,39.01552],[-77.45636,39.01533],[-77.45532,39.01516],[-77.45522,39.01509],[-77.45541,39.01392],[-77.45565,39.01324]]]},"properties":{"id":"lc-ex-122","status":"under_construction"}},{"type":"Feature","geometry":{"type":"Polygon","coordinates":[[[-77.51011,39.0768],[-77.50791,39.07622],[-77.50582,39.07457],[-77.50644,39.07344],[-77.5088,39.07529],[-77.50872,39.07563],[-77.50855,39.07576],[-77.50834,39.07625],[-77.50965,39.07659],[-77.51021,39.07528],[-77.51159,39.07554],[-77.51125,39.07639],[-77.51124,39.07679],[-77.51063,39.07813],[-77.51056,39.07844],[-77.5097,39.07776],[-77.51011,39.0768]]]},"properties":{"id":"lc-ex-123","status":"under_construction"}},{"type":"Feature","geometry":{"type":"Polygon","coordinates":[[[-77.44717,38.99456],[-77.44706,38.99496],[-77.44687,38.99531],[-77.44663,38.99554],[-77.44627,38.99575],[-77.44487,38.9962],[-77.44473,38.99586],[-77.44452,38.99564],[-77.44514,38.99542],[-77.4452,38.99499],[-77.44507,38.99468],[-77.44551,38.99449],[-77.44515,38.99386],[-77.44717,38.99456]]]},"properties":{"id":"lc-ex-124","status":"under_construction"}},{"type":"Feature","geometry":{"type":"Polygon","coordinates":[[[-77.41533,39.0231],[-77.41636,39.02135],[-77.41838,39.0224],[-77.41724,39.02389],[-77.41668,39.02351],[-77.41533,39.0231]]]},"properties":{"id":"lc-ex-125","status":"under_construction"}},{"type":"Feature","geometry":{"type":"Polygon","coordinates":[[[-77.43316,38.9929],[-77.43292,38.99205],[-77.43306,38.99195],[-77.43353,38.99185],[-77.43375,38.99143],[-77.43394,38.99149],[-77.4344,38.99139],[-77.43506,38.99157],[-77.43505,38.99198],[-77.43515,38.99237],[-77.43536,38.99273],[-77.43578,38.99318],[-77.43572,38.99333],[-77.43456,38.99404],[-77.43422,38.99458],[-77.43392,38.99454],[-77.43363,38.99431],[-77.43316,38.9929]]]},"properties":{"id":"lc-ex-126","status":"operational"}},{"type":"Feature","geometry":{"type":"Polygon","coordinates":[[[-77.53801,39.04838],[-77.53725,39.05074],[-77.53866,39.05548],[-77.53857,39.05547],[-77.5386,39.05565],[-77.53852,39.05566],[-77.53833,39.05539],[-77.53836,39.05523],[-77.53826,39.05514],[-77.53809,39.05514],[-77.53799,39.05525],[-77.53803,39.05536],[-77.53818,39.05542],[-77.53783,39.05538],[-77.53739,39.05377],[-77.5308,39.05207],[-77.53127,39.05178],[-77.53166,39.05103],[-77.53202,39.04998],[-77.53208,39.04916],[-77.53586,39.04934],[-77.53627,39.04786],[-77.53717,39.04819],[-77.53801,39.04838]]]},"properties":{"id":"lc-ex-127","status":"operational"}},{"type":"Feature","geometry":{"type":"Polygon","coordinates":[[[-77.4611,38.994],[-77.46262,38.99401],[-77.46278,38.99646],[-77.45816,38.99656],[-77.45793,38.99531],[-77.46123,38.99523],[-77.4611,38.994]]]},"properties":{"id":"lc-ex-128","status":"under_construction"}},{"type":"Feature","geometry":{"type":"Polygon","coordinates":[[[-77.48187,38.92209],[-77.48195,38.91939],[-77.48719,38.91967],[-77.48696,38.92244],[-77.48187,38.92209]]]},"properties":{"id":"lc-ex-129","status":"under_construction"}},{"type":"Feature","geometry":{"type":"Polygon","coordinates":[[[-77.45278,39.01373],[-77.45283,39.0136],[-77.45304,39.01348],[-77.45299,39.0133],[-77.45455,39.01051],[-77.4546,39.01048],[-77.4555,39.01083],[-77.45585,39.01109],[-77.45603,39.01141],[-77.45601,39.0118],[-77.45521,39.01306],[-77.45488,39.01407],[-77.45278,39.01373]]]},"properties":{"id":"lc-ex-130","status":"operational"}},{"type":"Feature","geometry":{"type":"Polygon","coordinates":[[[-77.46972,38.99708],[-77.46835,38.99749],[-77.46819,38.9974],[-77.46816,38.99731],[-77.46819,38.99688],[-77.46838,38.99658],[-77.46985,38.99518],[-77.47064,38.99564],[-77.47121,38.99547],[-77.4703,38.99479],[-77.47068,38.99466],[-77.47104,38.99469],[-77.47228,38.99507],[-77.47247,38.99526],[-77.47264,38.99533],[-77.47305,38.99536],[-77.47318,38.99523],[-77.47306,38.99514],[-77.47306,38.99501],[-77.4734,38.99517],[-77.47344,38.99512],[-77.47472,38.99588],[-77.4752,38.9964],[-77.47265,38.99777],[-77.47209,38.99728],[-77.47135,38.99698],[-77.47052,38.99691],[-77.46972,38.99708]]]},"properties":{"id":"lc-ex-131","status":"operational"}},{"type":"Feature","geometry":{"type":"Polygon","coordinates":[[[-77.46293,39.00147],[-77.46034,39.00072],[-77.45938,39.00073],[-77.45917,39.00028],[-77.45885,38.99893],[-77.45886,38.99852],[-77.45901,38.99816],[-77.45921,38.99811],[-77.46013,38.99825],[-77.46209,38.99817],[-77.46209,38.99822],[-77.46642,38.99798],[-77.46784,38.99795],[-77.46804,38.99804],[-77.46806,38.99849],[-77.46768,38.9995],[-77.46427,39.00081],[-77.46449,39.00108],[-77.4644,39.00153],[-77.46293,39.00147]]]},"properties":{"id":"lc-ex-132","status":"under_construction"}},{"type":"Feature","geometry":{"type":"Polygon","coordinates":[[[-77.53131,38.95709],[-77.53201,38.95564],[-77.53803,38.95752],[-77.53757,38.95849],[-77.53762,38.9585],[-77.53748,38.95881],[-77.53131,38.95709]]]},"properties":{"id":"lc-ex-133","status":"under_construction"}},{"type":"Feature","geometry":{"type":"Polygon","coordinates":[[[-77.46725,39.00156],[-77.4676,39.00065],[-77.46787,39.00103],[-77.4731,38.99903],[-77.47358,38.99971],[-77.47228,39.00027],[-77.47199,39.00117],[-77.47001,39.00078],[-77.46983,39.00133],[-77.46991,39.00153],[-77.46942,39.00303],[-77.46843,39.00355],[-77.46766,39.00295],[-77.467,39.00271],[-77.46689,39.00255],[-77.46725,39.00156]]]},"properties":{"id":"lc-ex-134","status":"under_construction"}},{"type":"Feature","geometry":{"type":"Polygon","coordinates":[[[-77.5088,39.07529],[-77.50644,39.07344],[-77.5068,39.07216],[-77.50733,39.07225],[-77.50976,39.07415],[-77.5119,39.07455],[-77.51159,39.07554],[-77.51021,39.07528],[-77.50965,39.07659],[-77.50834,39.07625],[-77.50855,39.07576],[-77.50872,39.07563],[-77.5088,39.07529]]]},"properties":{"id":"lc-ex-135","status":"under_construction"}},{"type":"Feature","geometry":{"type":"Polygon","coordinates":[[[-77.53866,39.05548],[-77.53725,39.05074],[-77.53801,39.04838],[-77.54201,39.0489],[-77.54057,39.05572],[-77.53866,39.05548]]]},"properties":{"id":"lc-ex-136","status":"operational"}},{"type":"Feature","geometry":{"type":"Polygon","coordinates":[[[-77.47357,39.00628],[-77.4761,39.00742],[-77.47734,39.0078],[-77.47863,39.00783],[-77.47936,39.00771],[-77.4783,39.00926],[-77.47734,39.00897],[-77.47645,39.00894],[-77.4759,39.0087],[-77.47547,39.00881],[-77.47529,39.0084],[-77.47469,39.00767],[-77.47426,39.00743],[-77.47309,39.00709],[-77.47285,39.00694],[-77.47357,39.00628]]]},"properties":{"id":"lc-ex-137","status":"under_construction"}},{"type":"Feature","geometry":{"type":"Polygon","coordinates":[[[-77.47273,39.01272],[-77.47394,39.01241],[-77.47437,39.0134],[-77.47314,39.01369],[-77.47273,39.01272]]]},"properties":{"id":"lc-ex-138","status":"operational"}},{"type":"Feature","geometry":{"type":"Polygon","coordinates":[[[-77.47156,39.01303],[-77.47273,39.01272],[-77.47314,39.01369],[-77.47199,39.01403],[-77.47156,39.01303]]]},"properties":{"id":"lc-ex-139","status":"operational"}},{"type":"Feature","geometry":{"type":"Polygon","coordinates":[[[-77.45278,39.01373],[-77.45488,39.01407],[-77.45471,39.015],[-77.45456,39.01505],[-77.45375,39.01492],[-77.45323,39.01472],[-77.45301,39.01454],[-77.45283,39.01427],[-77.45276,39.01403],[-77.45278,39.01373]]]},"properties":{"id":"lc-pl-140","status":"proposed"}},{"type":"Feature","geometry":{"type":"MultiPolygon","coordinates":[[[[-77.55035,38.95277],[-77.55047,38.95274],[-77.55026,38.95356],[-77.55015,38.95357],[-77.55035,38.95277]]],[[[-77.54852,38.95591],[-77.54812,38.95576],[-77.54691,38.95582],[-77.54665,38.95385],[-77.54847,38.9537],[-77.54843,38.95329],[-77.54988,38.9529],[-77.54963,38.95387],[-77.54921,38.955],[-77.5488,38.95576],[-77.5486,38.95581],[-77.54852,38.95591]]]]},"properties":{"id":"lc-pl-141","status":"proposed"}},{"type":"Feature","geometry":{"type":"Polygon","coordinates":[[[-77.53905,38.94443],[-77.53942,38.9435],[-77.54283,38.94623],[-77.54271,38.94643],[-77.54274,38.94665],[-77.54254,38.94696],[-77.54264,38.94729],[-77.54235,38.9477],[-77.54191,38.94808],[-77.54182,38.94828],[-77.53928,38.94676],[-77.53966,38.94599],[-77.53992,38.94507],[-77.53905,38.94443]]]},"properties":{"id":"lc-pl-142","status":"proposed"}},{"type":"Feature","geometry":{"type":"Polygon","coordinates":[[[-77.41717,38.98513],[-77.41731,38.98521],[-77.41666,38.98596],[-77.4175,38.98643],[-77.41637,38.98773],[-77.41473,38.98688],[-77.4153,38.98611],[-77.4146,38.98572],[-77.41582,38.98437],[-77.41717,38.98513]]]},"properties":{"id":"lc-pl-143","status":"proposed"}},{"type":"Feature","geometry":{"type":"Polygon","coordinates":[[[-77.53969,38.95052],[-77.54009,38.95049],[-77.54051,38.95021],[-77.54076,38.95018],[-77.54111,38.94982],[-77.5414,38.9494],[-77.54135,38.94927],[-77.54172,38.94862],[-77.54185,38.94817],[-77.54235,38.9477],[-77.54264,38.94729],[-77.54254,38.94696],[-77.54274,38.94665],[-77.54271,38.94643],[-77.54283,38.94623],[-77.54245,38.94593],[-77.54342,38.94535],[-77.54424,38.94563],[-77.54454,38.94563],[-77.54526,38.94612],[-77.5456,38.94693],[-77.547,38.94819],[-77.54699,38.94826],[-77.54582,38.94863],[-77.54589,38.94868],[-77.54261,38.94958],[-77.54003,38.95062],[-77.53904,38.95094],[-77.53854,38.95135],[-77.53842,38.95116],[-77.53763,38.95113],[-77.53829,38.95112],[-77.53938,38.95073],[-77.53969,38.95052]]]},"properties":{"id":"lc-pl-144","status":"proposed"}},{"type":"Feature","geometry":{"type":"MultiPolygon","coordinates":[[[[-77.54359,38.95917],[-77.54451,38.95872],[-77.54354,38.9575],[-77.54246,38.95676],[-77.54315,38.95614],[-77.54149,38.95502],[-77.54316,38.95413],[-77.54665,38.95385],[-77.54691,38.95582],[-77.54817,38.95577],[-77.54852,38.95591],[-77.54844,38.95602],[-77.54852,38.95606],[-77.54848,38.95617],[-77.54854,38.9562],[-77.5479,38.95692],[-77.54579,38.95895],[-77.54555,38.95895],[-77.5452,38.95877],[-77.54489,38.95874],[-77.54466,38.95879],[-77.54391,38.95914],[-77.54359,38.95917]]],[[[-77.54483,38.95962],[-77.5439,38.95964],[-77.54358,38.95932],[-77.54387,38.95931],[-77.54412,38.95923],[-77.54462,38.95952],[-77.54508,38.9595],[-77.54514,38.95958],[-77.54472,38.96],[-77.54468,38.95988],[-77.54483,38.95962]]]]},"properties":{"id":"lc-pl-145","status":"proposed"}},{"type":"Feature","geometry":{"type":"Polygon","coordinates":[[[-77.49252,38.95094],[-77.49244,38.95077],[-77.49351,38.95054],[-77.49621,38.95134],[-77.49634,38.9518],[-77.49834,38.95486],[-77.49544,38.95602],[-77.49594,38.95679],[-77.49544,38.95688],[-77.49521,38.95628],[-77.49279,38.95125],[-77.49284,38.95102],[-77.4927,38.95092],[-77.49252,38.95094]]]},"properties":{"id":"lc-pl-146","status":"proposed"}},{"type":"Feature","geometry":{"type":"Polygon","coordinates":[[[-77.42303,39.02576],[-77.42489,39.02542],[-77.42509,39.02759],[-77.4232,39.02793],[-77.42303,39.02576]]]},"properties":{"id":"lc-pl-147","status":"proposed"}},{"type":"Feature","geometry":{"type":"Polygon","coordinates":[[[-77.53038,39.0884],[-77.52926,39.08781],[-77.52878,39.08816],[-77.52794,39.08649],[-77.52662,39.08569],[-77.52456,39.08502],[-77.52377,39.08461],[-77.52474,39.08359],[-77.52557,39.08286],[-77.52574,39.0828],[-77.52583,39.08267],[-77.5258,39.08258],[-77.5269,39.08156],[-77.52731,39.08125],[-77.52821,39.08078],[-77.52839,39.08081],[-77.52872,39.08181],[-77.53,39.08429],[-77.53015,39.08477],[-77.5302,39.08529],[-77.52872,39.08553],[-77.52849,39.08586],[-77.52869,39.08639],[-77.53025,39.08629],[-77.53038,39.0884]]]},"properties":{"id":"lc-pl-148","status":"proposed"}},{"type":"Feature","geometry":{"type":"Polygon","coordinates":[[[-77.48236,38.95805],[-77.48242,38.9536],[-77.49055,38.9506],[-77.49097,38.9498],[-77.49194,38.95008],[-77.49235,38.9508],[-77.49411,38.95456],[-77.49424,38.95452],[-77.49461,38.95529],[-77.48863,38.95712],[-77.48851,38.95723],[-77.48782,38.95846],[-77.48684,38.95937],[-77.48951,38.96469],[-77.48728,38.96537],[-77.48821,38.96729],[-77.48455,38.96843],[-77.48411,38.96848],[-77.48367,38.96843],[-77.48222,38.96795],[-77.48236,38.95805]]]},"properties":{"id":"lc-pl-149","status":"proposed"}},{"type":"Feature","geometry":{"type":"Polygon","coordinates":[[[-77.44225,39.02782],[-77.44259,39.02739],[-77.44284,39.02729],[-77.44323,39.02689],[-77.44335,39.02654],[-77.44393,39.02618],[-77.44419,39.0258],[-77.44436,39.02524],[-77.44478,39.02456],[-77.44525,39.02419],[-77.44562,39.02357],[-77.44608,39.023],[-77.44659,39.02258],[-77.44678,39.02203],[-77.44707,39.02081],[-77.44743,39.02015],[-77.44754,39.02022],[-77.44728,39.02066],[-77.4471,39.02113],[-77.44701,39.02201],[-77.44716,39.02278],[-77.44789,39.0245],[-77.44787,39.02458],[-77.44778,39.02463],[-77.44785,39.02489],[-77.44801,39.0249],[-77.44809,39.0253],[-77.44817,39.02639],[-77.44806,39.02772],[-77.4479,39.02783],[-77.44755,39.02785],[-77.44458,39.02788],[-77.44225,39.02782]]]},"properties":{"id":"lc-pl-150","status":"proposed"}},{"type":"Feature","geometry":{"type":"Polygon","coordinates":[[[-77.42773,39.01898],[-77.42832,39.01839],[-77.42889,39.01874],[-77.42888,39.02046],[-77.42863,39.02065],[-77.42669,39.02067],[-77.42655,39.01942],[-77.42773,39.01898]]]},"properties":{"id":"lc-pl-151","status":"proposed"}},{"type":"Feature","geometry":{"type":"Polygon","coordinates":[[[-77.4175,38.98643],[-77.41666,38.98596],[-77.41834,38.98407],[-77.42064,38.98538],[-77.42053,38.98552],[-77.42062,38.98567],[-77.42042,38.98568],[-77.41966,38.98651],[-77.41816,38.98568],[-77.4175,38.98643]]]},"properties":{"id":"lc-pl-152","status":"proposed"}},{"type":"Feature","geometry":{"type":"Polygon","coordinates":[[[-77.42736,38.99331],[-77.42606,38.99268],[-77.42553,38.99291],[-77.42522,38.99212],[-77.4262,38.99189],[-77.42574,38.99096],[-77.42682,38.99057],[-77.42785,38.99009],[-77.42794,38.99012],[-77.42815,38.99044],[-77.42931,38.99263],[-77.42736,38.99331]]]},"properties":{"id":"lc-pl-153","status":"proposed"}},{"type":"Feature","geometry":{"type":"Polygon","coordinates":[[[-77.44518,39.00091],[-77.44419,39.00037],[-77.44337,39.00006],[-77.4433,38.99997],[-77.44333,38.99977],[-77.44353,38.99935],[-77.44395,38.99896],[-77.44432,38.99878],[-77.4452,38.9985],[-77.4459,38.99794],[-77.44605,38.99791],[-77.44669,38.99825],[-77.44759,38.99895],[-77.44782,38.99924],[-77.44812,38.99978],[-77.44852,39.00107],[-77.44881,39.00168],[-77.44871,39.00178],[-77.44747,39.00217],[-77.44617,39.00225],[-77.44606,39.00217],[-77.44579,39.0015],[-77.44518,39.00091]]]},"properties":{"id":"lc-pl-154","status":"proposed"}},{"type":"Feature","geometry":{"type":"Polygon","coordinates":[[[-77.47744,38.98537],[-77.47806,38.98484],[-77.47948,38.98584],[-77.47835,38.98674],[-77.47704,38.98572],[-77.47744,38.98537]]]},"properties":{"id":"lc-pl-155","status":"proposed"}},{"type":"Feature","geometry":{"type":"Polygon","coordinates":[[[-77.47922,38.9814],[-77.47962,38.98178],[-77.47985,38.98221],[-77.48031,38.98406],[-77.48032,38.98461],[-77.47908,38.98437],[-77.47881,38.9842],[-77.47869,38.98324],[-77.47775,38.98264],[-77.47876,38.98155],[-77.47903,38.98136],[-77.47922,38.9814]]]},"properties":{"id":"lc-pl-156","status":"proposed"}},{"type":"Feature","geometry":{"type":"Polygon","coordinates":[[[-77.53481,38.95504],[-77.53167,38.95407],[-77.53219,38.95369],[-77.53259,38.95353],[-77.53337,38.95309],[-77.5333,38.95302],[-77.5336,38.95294],[-77.53406,38.9527],[-77.53437,38.95274],[-77.53457,38.9527],[-77.53484,38.95278],[-77.53525,38.95272],[-77.53594,38.95299],[-77.53565,38.95335],[-77.53612,38.95441],[-77.53645,38.95493],[-77.53729,38.95464],[-77.53771,38.95523],[-77.53716,38.95576],[-77.53481,38.95504]]]},"properties":{"id":"lc-pl-157","status":"proposed"}},{"type":"Feature","geometry":{"type":"Polygon","coordinates":[[[-77.43314,38.98157],[-77.43278,38.98189],[-77.4325,38.98226],[-77.43213,38.98212],[-77.43021,38.98072],[-77.43072,38.98043],[-77.43103,38.98004],[-77.43314,38.98157]]]},"properties":{"id":"lc-pl-158","status":"proposed"}},{"type":"Feature","geometry":{"type":"Polygon","coordinates":[[[-77.48173,38.98524],[-77.48167,38.98506],[-77.48103,38.98519],[-77.48046,38.98502],[-77.48058,38.98452],[-77.4809,38.98454],[-77.48351,38.98401],[-77.48382,38.98482],[-77.48173,38.98524]]]},"properties":{"id":"lc-pl-159","status":"proposed"}},{"type":"Feature","geometry":{"type":"Polygon","coordinates":[[[-77.48058,38.98452],[-77.48049,38.98374],[-77.4832,38.9832],[-77.48351,38.98401],[-77.4809,38.98454],[-77.48058,38.98452]]]},"properties":{"id":"lc-pl-160","status":"proposed"}},{"type":"Feature","geometry":{"type":"Polygon","coordinates":[[[-77.42311,38.99036],[-77.42376,38.99112],[-77.42201,38.99154],[-77.42171,38.99075],[-77.42311,38.99036]]]},"properties":{"id":"lc-pl-161","status":"proposed"}},{"type":"Feature","geometry":{"type":"Polygon","coordinates":[[[-77.50928,38.95762],[-77.51295,38.95623],[-77.51443,38.95668],[-77.51539,38.95469],[-77.51537,38.95475],[-77.51552,38.95495],[-77.51598,38.95611],[-77.51582,38.95632],[-77.51615,38.95718],[-77.51554,38.95701],[-77.51539,38.9574],[-77.51024,38.95917],[-77.50928,38.95762]]]},"properties":{"id":"lc-pl-162","status":"proposed"}},{"type":"Feature","geometry":{"type":"Polygon","coordinates":[[[-77.45317,39.02588],[-77.45456,39.02442],[-77.45554,39.02501],[-77.45411,39.02644],[-77.45317,39.02588]]]},"properties":{"id":"lc-pl-163","status":"proposed"}},{"type":"Feature","geometry":{"type":"Polygon","coordinates":[[[-77.43334,39.01434],[-77.43477,39.01445],[-77.43534,39.01473],[-77.43629,39.01492],[-77.43605,39.01594],[-77.43645,39.01601],[-77.43659,39.01613],[-77.43689,39.01779],[-77.43681,39.01835],[-77.43638,39.01944],[-77.43519,39.01844],[-77.4325,39.01752],[-77.43314,39.01443],[-77.43334,39.01434]]]},"properties":{"id":"lc-pl-164","status":"proposed"}},{"type":"Feature","geometry":{"type":"Polygon","coordinates":[[[-77.49621,38.95134],[-77.50845,38.95491],[-77.50055,38.95824],[-77.49634,38.9518],[-77.49621,38.95134]]]},"properties":{"id":"lc-pl-165","status":"proposed"}},{"type":"Feature","geometry":{"type":"Polygon","coordinates":[[[-77.4832,38.9832],[-77.48049,38.98374],[-77.48015,38.98237],[-77.48258,38.98161],[-77.4832,38.9832]]]},"properties":{"id":"lc-pl-166","status":"proposed"}},{"type":"Feature","geometry":{"type":"Polygon","coordinates":[[[-77.5277,39.08019],[-77.52744,39.07968],[-77.5273,39.07979],[-77.52686,39.07891],[-77.5267,39.07881],[-77.52688,39.07861],[-77.52805,39.07819],[-77.52754,39.07797],[-77.52846,39.07696],[-77.52867,39.07738],[-77.53027,39.07823],[-77.53061,39.07784],[-77.53134,39.07929],[-77.52851,39.08015],[-77.52839,39.0801],[-77.52821,39.08019],[-77.52815,39.08005],[-77.5277,39.08019]]]},"properties":{"id":"lc-pl-167","status":"proposed"}},{"type":"Feature","geometry":{"type":"Polygon","coordinates":[[[-77.52786,38.93952],[-77.52856,38.93828],[-77.52924,38.93852],[-77.52927,38.93863],[-77.52959,38.93871],[-77.52971,38.93864],[-77.53276,38.93969],[-77.52932,38.94141],[-77.52786,38.93952]]]},"properties":{"id":"lc-pl-168","status":"proposed"}},{"type":"Feature","geometry":{"type":"Polygon","coordinates":[[[-77.47914,38.92297],[-77.47752,38.91916],[-77.48195,38.91939],[-77.48187,38.92209],[-77.48511,38.92234],[-77.48491,38.92458],[-77.47914,38.92297]]]},"properties":{"id":"lc-pl-169","status":"proposed"}},{"type":"Feature","geometry":{"type":"Polygon","coordinates":[[[-77.42663,38.99581],[-77.43024,38.99496],[-77.43048,38.99483],[-77.43072,38.99535],[-77.43125,38.99692],[-77.42806,38.99633],[-77.427,38.99654],[-77.42688,38.99646],[-77.42663,38.99581]]]},"properties":{"id":"lc-pl-170","status":"proposed"}},{"type":"Feature","geometry":{"type":"Polygon","coordinates":[[[-77.45591,39.02161],[-77.45561,39.02095],[-77.45623,39.02054],[-77.45668,39.02001],[-77.45763,39.02019],[-77.45845,39.0205],[-77.45787,39.02173],[-77.45757,39.02172],[-77.45626,39.0222],[-77.45591,39.02161]]]},"properties":{"id":"lc-pl-171","status":"proposed"}},{"type":"Feature","geometry":{"type":"MultiPolygon","coordinates":[[[[-77.47714,39.06203],[-77.47641,39.06149],[-77.47642,39.06129],[-77.47657,39.06113],[-77.47669,39.06139],[-77.4769,39.06154],[-77.4771,39.06187],[-77.47738,39.06199],[-77.47797,39.06179],[-77.47756,39.06238],[-77.47714,39.06203]]],[[[-77.47119,39.06564],[-77.47075,39.06462],[-77.47053,39.06437],[-77.47017,39.06415],[-77.47069,39.06347],[-77.47131,39.06302],[-77.47169,39.06286],[-77.47478,39.06228],[-77.47614,39.06177],[-77.47735,39.06267],[-77.47468,39.06645],[-77.47428,39.06625],[-77.47353,39.06728],[-77.47182,39.0664],[-77.4714,39.06601],[-77.47119,39.06564]]]]},"properties":{"id":"lc-pl-172","status":"proposed"}},{"type":"Feature","geometry":{"type":"Polygon","coordinates":[[[-77.50055,38.95824],[-77.49743,38.95958],[-77.49661,38.95999],[-77.49627,38.95986],[-77.49592,38.95898],[-77.5001,38.95754],[-77.50055,38.95824]]]},"properties":{"id":"lc-pl-173","status":"proposed"}},{"type":"Feature","geometry":{"type":"Polygon","coordinates":[[[-77.55278,39.0603],[-77.5525,39.06018],[-77.55241,39.05965],[-77.55218,39.05922],[-77.55113,39.05813],[-77.55076,39.0576],[-77.55031,39.05613],[-77.55056,39.05565],[-77.55039,39.0556],[-77.55027,39.05584],[-77.5502,39.05586],[-77.5478,39.05311],[-77.54654,39.05128],[-77.5462,39.05035],[-77.54672,39.0507],[-77.54693,39.05093],[-77.54879,39.0522],[-77.5492,39.05234],[-77.55048,39.05319],[-77.55094,39.05361],[-77.55171,39.05415],[-77.55269,39.05478],[-77.55292,39.05481],[-77.55459,39.05597],[-77.55488,39.05625],[-77.55583,39.05686],[-77.5559,39.05679],[-77.55702,39.05757],[-77.55722,39.05781],[-77.55748,39.05791],[-77.55716,39.05817],[-77.55644,39.0594],[-77.55637,39.0597],[-77.55583,39.06018],[-77.55558,39.06025],[-77.55614,39.06038],[-77.55565,39.06035],[-77.55469,39.06048],[-77.55379,39.06044],[-77.55379,39.06037],[-77.55278,39.0603]]]},"properties":{"id":"lc-pl-174","status":"proposed"}},{"type":"Feature","geometry":{"type":"Polygon","coordinates":[[[-77.46007,39.00244],[-77.45971,39.00199],[-77.45946,39.00124],[-77.45953,39.00092],[-77.45938,39.00073],[-77.46034,39.00072],[-77.46293,39.00147],[-77.4644,39.00153],[-77.46417,39.00265],[-77.46159,39.0028],[-77.46158,39.00271],[-77.46114,39.00273],[-77.46115,39.00283],[-77.46056,39.00272],[-77.46007,39.00244]]]},"properties":{"id":"lc-pl-175","status":"proposed"}},{"type":"Feature","geometry":{"type":"Polygon","coordinates":[[[-77.50929,39.07355],[-77.50743,39.07209],[-77.50684,39.072],[-77.50757,39.06908],[-77.50806,39.06791],[-77.509,39.06865],[-77.50975,39.06807],[-77.51466,39.07194],[-77.51363,39.07234],[-77.51281,39.07276],[-77.51251,39.07303],[-77.51223,39.07354],[-77.51127,39.07326],[-77.51022,39.07407],[-77.50987,39.074],[-77.50929,39.07355]]]},"properties":{"id":"lc-pl-176","status":"proposed"}},{"type":"Feature","geometry":{"type":"Polygon","coordinates":[[[-77.50784,39.06834],[-77.50806,39.06791],[-77.509,39.06865],[-77.50975,39.06807],[-77.51349,39.07102],[-77.50989,39.07379],[-77.50696,39.07149],[-77.50753,39.06923],[-77.50784,39.06834]]]},"properties":{"id":"lc-pl-177","status":"proposed"}},{"type":"Feature","geometry":{"type":"Polygon","coordinates":[[[-77.55558,39.06025],[-77.55583,39.06018],[-77.55637,39.0597],[-77.55644,39.0594],[-77.55716,39.05817],[-77.5575,39.05789],[-77.55909,39.05927],[-77.55948,39.05979],[-77.55976,39.06033],[-77.55893,39.0603],[-77.55722,39.05993],[-77.55712,39.06021],[-77.55673,39.06022],[-77.55613,39.06038],[-77.55558,39.06025]]]},"properties":{"id":"lc-pl-178","status":"proposed"}},{"type":"Feature","geometry":{"type":"Polygon","coordinates":[[[-77.55097,39.06132],[-77.55195,39.06117],[-77.55196,39.06125],[-77.55232,39.06123],[-77.55228,39.06241],[-77.55206,39.06417],[-77.54989,39.06415],[-77.54871,39.06451],[-77.54792,39.0629],[-77.54842,39.06276],[-77.54923,39.06239],[-77.55097,39.06132]]]},"properties":{"id":"lc-pl-179","status":"proposed"}},{"type":"Feature","geometry":{"type":"Polygon","coordinates":[[[-77.53563,38.94498],[-77.53552,38.94507],[-77.53395,38.9447],[-77.5341,38.94343],[-77.53469,38.94293],[-77.5348,38.94292],[-77.53489,38.94275],[-77.53487,38.94267],[-77.5356,38.94138],[-77.53807,38.94332],[-77.53721,38.94543],[-77.53586,38.94511],[-77.53579,38.945],[-77.53563,38.94498]]]},"properties":{"id":"lc-pl-180","status":"proposed"}},{"type":"Feature","geometry":{"type":"Polygon","coordinates":[[[-77.46869,39.00395],[-77.46869,39.00386],[-77.47434,39.004],[-77.47363,39.00549],[-77.4734,39.0058],[-77.47232,39.00691],[-77.47174,39.00659],[-77.47039,39.00614],[-77.46945,39.0055],[-77.46918,39.00523],[-77.4689,39.00484],[-77.46873,39.0044],[-77.46869,39.00395]]]},"properties":{"id":"lc-pl-181","status":"proposed"}},{"type":"Feature","geometry":{"type":"Polygon","coordinates":[[[-77.5308,39.05207],[-77.53739,39.05377],[-77.53783,39.05538],[-77.53821,39.05543],[-77.53853,39.05592],[-77.53859,39.05616],[-77.53854,39.05644],[-77.53772,39.05825],[-77.53584,39.05884],[-77.53533,39.05846],[-77.52745,39.05728],[-77.52826,39.05652],[-77.52849,39.05616],[-77.5289,39.05461],[-77.5291,39.05439],[-77.52916,39.05331],[-77.52905,39.05304],[-77.52942,39.05253],[-77.53065,39.05217],[-77.5308,39.05207]]]},"properties":{"id":"lc-pl-182","status":"proposed"}},{"type":"Feature","geometry":{"type":"Polygon","coordinates":[[[-77.47266,39.00714],[-77.47312,39.00738],[-77.47367,39.00751],[-77.47372,39.00765],[-77.47459,39.00825],[-77.47439,39.00859],[-77.47091,39.00953],[-77.47134,39.01052],[-77.47117,39.01056],[-77.47113,39.01048],[-77.47087,39.01045],[-77.47065,39.01061],[-77.47068,39.01069],[-77.47047,39.01075],[-77.47018,39.0102],[-77.46959,39.01036],[-77.46978,39.01093],[-77.46943,39.01102],[-77.46914,39.01048],[-77.46855,39.01063],[-77.46874,39.0112],[-77.46851,39.01121],[-77.46853,39.01126],[-77.46838,39.01129],[-77.46809,39.01075],[-77.46751,39.0109],[-77.46769,39.01132],[-77.46764,39.01133],[-77.46768,39.01142],[-77.46738,39.0115],[-77.4674,39.01155],[-77.46726,39.01159],[-77.46729,39.01166],[-77.46721,39.01168],[-77.4675,39.01223],[-77.46809,39.01207],[-77.4679,39.0115],[-77.46825,39.01141],[-77.46854,39.01195],[-77.46913,39.0118],[-77.46894,39.01123],[-77.46929,39.01114],[-77.46958,39.01168],[-77.47017,39.01153],[-77.46998,39.01096],[-77.4705,39.01082],[-77.47063,39.011],[-77.47051,39.0111],[-77.4705,39.01124],[-77.47061,39.01135],[-77.47079,39.01137],[-77.47082,39.01157],[-77.47071,39.0116],[-77.47104,39.01236],[-77.47217,39.01206],[-77.4724,39.01261],[-77.47663,39.01149],[-77.47713,39.01265],[-77.47699,39.01264],[-77.47696,39.01273],[-77.47672,39.01278],[-77.47629,39.01179],[-77.46709,39.0142],[-77.46574,39.01108],[-77.46592,39.00923],[-77.46716,39.00925],[-77.46834,39.00917],[-77.46953,39.0089],[-77.47061,39.00845],[-77.47161,39.00794],[-77.47266,39.00714]]]},"properties":{"id":"lc-pl-183","status":"proposed"}},{"type":"Feature","geometry":{"type":"Polygon","coordinates":[[[-77.44137,38.98986],[-77.44214,38.98839],[-77.4425,38.98861],[-77.44265,38.98846],[-77.44369,38.98898],[-77.44348,38.98912],[-77.44348,38.98921],[-77.44358,38.9893],[-77.4438,38.98927],[-77.44387,38.98907],[-77.44592,38.99009],[-77.44518,38.99118],[-77.44496,38.99167],[-77.44137,38.98986]]]},"properties":{"id":"lc-pl-184","status":"proposed"}},{"type":"Feature","geometry":{"type":"MultiPolygon","coordinates":[[[[-77.41393,38.98817],[-77.41297,38.9868],[-77.41285,38.9864],[-77.4129,38.98589],[-77.41637,38.98773],[-77.41816,38.98568],[-77.42046,38.98696],[-77.41993,38.98847],[-77.4182,38.98813],[-77.41725,38.98813],[-77.41652,38.9883],[-77.41463,38.9891],[-77.41393,38.98817]]],[[[-77.41776,38.98826],[-77.41812,38.98831],[-77.41805,38.9887],[-77.4169,38.99113],[-77.41629,38.99092],[-77.41573,38.99056],[-77.41538,38.9902],[-77.41474,38.98931],[-77.41478,38.98923],[-77.41661,38.98845],[-77.41717,38.98831],[-77.41776,38.98826]]]]},"properties":{"id":"lc-pl-185","status":"proposed"}},{"type":"Feature","geometry":{"type":"Polygon","coordinates":[[[-77.43886,38.98841],[-77.43739,38.98794],[-77.4374,38.98789],[-77.43725,38.98779],[-77.43735,38.98706],[-77.43724,38.98635],[-77.4376,38.98628],[-77.43789,38.9863],[-77.44018,38.98692],[-77.43938,38.98859],[-77.43886,38.98841]]]},"properties":{"id":"lc-pl-186","status":"proposed"}},{"type":"Feature","geometry":{"type":"Polygon","coordinates":[[[-77.44987,38.99167],[-77.44985,38.99153],[-77.45068,38.99139],[-77.4508,38.99154],[-77.45091,38.99212],[-77.45078,38.99228],[-77.44995,38.99243],[-77.44987,38.99167]]]},"properties":{"id":"lc-pl-187","status":"proposed"}},{"type":"Feature","geometry":{"type":"Polygon","coordinates":[[[-77.51321,39.07559],[-77.51404,39.0756],[-77.51404,39.07543],[-77.51456,39.07543],[-77.51532,39.07554],[-77.5159,39.07595],[-77.51619,39.07594],[-77.51663,39.07642],[-77.51626,39.07662],[-77.51578,39.07754],[-77.51561,39.07773],[-77.51435,39.07849],[-77.51384,39.07864],[-77.5131,39.07708],[-77.51321,39.07559]]]},"properties":{"id":"lc-pl-188","status":"proposed"}},{"type":"Feature","geometry":{"type":"MultiPolygon","coordinates":[[[[-77.44248,38.97902],[-77.44026,38.97903],[-77.44029,38.97733],[-77.44469,38.97737],[-77.44371,38.97923],[-77.44328,38.9791],[-77.44248,38.97902]]],[[[-77.43863,38.97944],[-77.43869,38.97933],[-77.44262,38.9794],[-77.44351,38.97956],[-77.44358,38.97971],[-77.44234,38.98147],[-77.441,38.98124],[-77.44031,38.98097],[-77.43942,38.98027],[-77.43863,38.97944]]]]},"properties":{"id":"lc-pl-189","status":"proposed"}},{"type":"Feature","geometry":{"type":"MultiPolygon","coordinates":[[[[-77.43719,38.98825],[-77.43731,38.98821],[-77.43752,38.98827],[-77.43891,38.98872],[-77.43922,38.98889],[-77.43833,38.99037],[-77.43627,38.98991],[-77.43719,38.98825]]],[[[-77.43821,38.99113],[-77.43888,38.99003],[-77.44017,38.99068],[-77.4393,38.99173],[-77.4381,38.99131],[-77.43821,38.99113]]]]},"properties":{"id":"lc-pl-190","status":"proposed"}},{"type":"Feature","geometry":{"type":"Polygon","coordinates":[[[-77.49663,38.96065],[-77.49754,38.96017],[-77.49912,38.95948],[-77.49936,38.95954],[-77.49958,38.95994],[-77.49967,38.96036],[-77.49935,38.96192],[-77.49937,38.96229],[-77.49949,38.96265],[-77.4981,38.96325],[-77.49663,38.96065]]]},"properties":{"id":"lc-pl-191","status":"proposed"}},{"type":"Feature","geometry":{"type":"Polygon","coordinates":[[[-77.45457,39.01505],[-77.45342,39.01482],[-77.45305,39.01458],[-77.45282,39.01425],[-77.45275,39.01399],[-77.4528,39.01367],[-77.45304,39.01348],[-77.45299,39.0133],[-77.45349,39.01245],[-77.45521,39.01306],[-77.45495,39.01378],[-77.45473,39.01496],[-77.45457,39.01505]]]},"properties":{"id":"lc-pl-192","status":"proposed"}},{"type":"Feature","geometry":{"type":"Polygon","coordinates":[[[-77.42829,38.98586],[-77.42822,38.98581],[-77.42642,38.9869],[-77.42527,38.98631],[-77.42757,38.98346],[-77.42929,38.98374],[-77.42956,38.98463],[-77.4294,38.98481],[-77.42945,38.98495],[-77.4289,38.98507],[-77.42925,38.98539],[-77.42976,38.98507],[-77.43041,38.98707],[-77.42956,38.98745],[-77.42958,38.98766],[-77.4295,38.98786],[-77.42912,38.98814],[-77.42919,38.98828],[-77.42761,38.98879],[-77.42662,38.98702],[-77.42836,38.98593],[-77.42829,38.98586]]]},"properties":{"id":"lc-pl-193","status":"proposed"}},{"type":"Feature","geometry":{"type":"Polygon","coordinates":[[[-77.41016,39.02646],[-77.4099,39.0264],[-77.41001,39.02636],[-77.4106,39.02509],[-77.41315,39.02582],[-77.41327,39.02577],[-77.41289,39.02735],[-77.41282,39.02741],[-77.4117,39.02719],[-77.41069,39.02665],[-77.41016,39.02646]]]},"properties":{"id":"lc-pl-194","status":"proposed"}},{"type":"Feature","geometry":{"type":"Polygon","coordinates":[[[-77.44882,38.98847],[-77.44936,38.9877],[-77.4497,38.98742],[-77.45202,38.98838],[-77.452,38.98975],[-77.44882,38.98847]]]},"properties":{"id":"lc-pl-195","status":"proposed"}},{"type":"Feature","geometry":{"type":"Polygon","coordinates":[[[-77.56582,39.00786],[-77.56512,39.00725],[-77.56457,39.00766],[-77.56416,39.00732],[-77.56418,39.00704],[-77.56446,39.00676],[-77.5645,39.00416],[-77.56438,39.0044],[-77.56046,39.00462],[-77.56122,38.99908],[-77.56649,38.9965],[-77.56841,38.99881],[-77.56877,38.99915],[-77.57111,39.0001],[-77.57233,39.0008],[-77.57109,39.00296],[-77.57039,39.00623],[-77.57455,39.00669],[-77.57442,39.00826],[-77.57372,39.01208],[-77.5737,39.01309],[-77.57395,39.01405],[-77.57442,39.01502],[-77.57473,39.01542],[-77.57561,39.01629],[-77.57499,39.01654],[-77.57465,39.01661],[-77.5738,39.01656],[-77.57041,39.01567],[-77.56963,39.01528],[-77.56872,39.01466],[-77.5684,39.01457],[-77.56874,39.01352],[-77.56871,39.01298],[-77.56826,39.01041],[-77.56851,39.01029],[-77.5685,39.01017],[-77.56784,39.01005],[-77.56727,39.00981],[-77.56582,39.00786]]]},"properties":{"id":"lc-pl-196","status":"proposed"}},{"type":"Feature","geometry":{"type":"Polygon","coordinates":[[[-77.46985,38.99518],[-77.4703,38.99479],[-77.47121,38.99547],[-77.47064,38.99564],[-77.46985,38.99518]]]},"properties":{"id":"lc-pl-197","status":"proposed"}},{"type":"Feature","geometry":{"type":"Polygon","coordinates":[[[-77.45317,39.02588],[-77.45456,39.02442],[-77.45554,39.02501],[-77.45411,39.02644],[-77.45317,39.02588]]]},"properties":{"id":"lc-pl-198","status":"proposed"}},{"type":"Feature","geometry":{"type":"MultiPolygon","coordinates":[[[[-77.43694,38.98312],[-77.43672,38.98289],[-77.4358,38.98295],[-77.43557,38.98215],[-77.43493,38.98117],[-77.43553,38.98095],[-77.43605,38.98088],[-77.43674,38.98105],[-77.43706,38.98126],[-77.43711,38.98139],[-77.4372,38.98145],[-77.43741,38.98141],[-77.43744,38.98126],[-77.43674,38.98086],[-77.43618,38.98071],[-77.43565,38.9807],[-77.43478,38.98088],[-77.43463,38.98037],[-77.4347,38.97938],[-77.43709,38.9794],[-77.4371,38.9792],[-77.43809,38.97921],[-77.43828,38.97932],[-77.43942,38.98051],[-77.43991,38.98092],[-77.44033,38.98116],[-77.44064,38.98209],[-77.43795,38.98374],[-77.43752,38.98369],[-77.43694,38.98312]]],[[[-77.43021,38.98072],[-77.43213,38.98212],[-77.4325,38.98226],[-77.43229,38.9827],[-77.43209,38.98346],[-77.43164,38.98433],[-77.43036,38.98455],[-77.4299,38.98326],[-77.42958,38.98162],[-77.4297,38.98152],[-77.42965,38.98109],[-77.43021,38.98072]]],[[[-77.43464,38.9813],[-77.43518,38.98205],[-77.4354,38.98256],[-77.43548,38.98296],[-77.4355,38.98398],[-77.43564,38.98449],[-77.43556,38.98464],[-77.43571,38.98491],[-77.43581,38.98494],[-77.43399,38.98621],[-77.43386,38.98619],[-77.43301,38.98593],[-77.43238,38.98549],[-77.43199,38.98492],[-77.43191,38.98433],[-77.43202,38.98396],[-77.43233,38.98337],[-77.43254,38.98259],[-77.43289,38.98207],[-77.43357,38.98155],[-77.43452,38.98126],[-77.43464,38.9813]]]]},"properties":{"id":"lc-pl-199","status":"proposed"}},{"type":"Feature","geometry":{"type":"Polygon","coordinates":[[[-77.54639,38.95254],[-77.54831,38.95188],[-77.54824,38.95216],[-77.54825,38.95247],[-77.54836,38.95247],[-77.54847,38.9537],[-77.54502,38.95399],[-77.54491,38.95305],[-77.54639,38.95254]]]},"properties":{"id":"lc-pl-200","status":"proposed"}},{"type":"Feature","geometry":{"type":"Polygon","coordinates":[[[-77.44234,38.98147],[-77.44325,38.98024],[-77.4434,38.98039],[-77.44363,38.98032],[-77.44366,38.98019],[-77.44354,38.98005],[-77.44383,38.97964],[-77.44433,38.97988],[-77.44476,38.9802],[-77.44649,38.98194],[-77.44648,38.98201],[-77.44637,38.98208],[-77.44601,38.98206],[-77.44605,38.982],[-77.44587,38.98198],[-77.44585,38.98203],[-77.44234,38.98147]]]},"properties":{"id":"lc-pl-201","status":"proposed"}},{"type":"Feature","geometry":{"type":"Polygon","coordinates":[[[-77.46204,39.01537],[-77.46318,39.01362],[-77.46415,39.01429],[-77.46487,39.01499],[-77.4645,39.01526],[-77.46428,39.01555],[-77.46416,39.01587],[-77.46415,39.01621],[-77.46403,39.01622],[-77.46204,39.01537]]]},"properties":{"id":"lc-pl-202","status":"proposed"}},{"type":"Feature","geometry":{"type":"Polygon","coordinates":[[[-77.50567,39.07472],[-77.50579,39.07467],[-77.51079,39.07862],[-77.51006,39.08362],[-77.51062,39.08494],[-77.51093,39.08533],[-77.51017,39.08518],[-77.50953,39.08496],[-77.50664,39.08328],[-77.50109,39.08022],[-77.50094,39.08008],[-77.50094,39.07976],[-77.50239,39.078],[-77.50448,39.0759],[-77.50462,39.07589],[-77.50489,39.07563],[-77.50484,39.07549],[-77.50567,39.07472]]]},"properties":{"id":"lc-pl-203","status":"proposed"}},{"type":"Feature","geometry":{"type":"Polygon","coordinates":[[[-77.53427,38.95858],[-77.53252,38.95825],[-77.53182,38.95791],[-77.53021,38.95775],[-77.52966,38.95746],[-77.52892,38.95741],[-77.52816,38.95704],[-77.526,38.95655],[-77.52583,38.95667],[-77.52378,38.95609],[-77.52234,38.95615],[-77.5223,38.95544],[-77.52437,38.9559],[-77.52566,38.95602],[-77.52631,38.95651],[-77.52833,38.95565],[-77.53226,38.95427],[-77.53716,38.95576],[-77.53765,38.95527],[-77.53879,38.95615],[-77.53868,38.95651],[-77.53803,38.95752],[-77.532,38.95564],[-77.53106,38.95757],[-77.53131,38.95709],[-77.53751,38.95882],[-77.53733,38.9592],[-77.53561,38.95891],[-77.53427,38.95858]]]},"properties":{"id":"lc-pl-204","status":"proposed"}},{"type":"Feature","geometry":{"type":"MultiPolygon","coordinates":[[[[-77.45783,38.99397],[-77.4611,38.994],[-77.46123,38.99523],[-77.45793,38.99531],[-77.45775,38.99404],[-77.45783,38.99397]]],[[[-77.45895,38.99761],[-77.45873,38.9975],[-77.45842,38.99718],[-77.45826,38.99691],[-77.45816,38.99656],[-77.46278,38.99646],[-77.46262,38.99401],[-77.46658,38.99404],[-77.46685,38.99601],[-77.46572,38.9977],[-77.4652,38.99773],[-77.4652,38.99768],[-77.46013,38.99795],[-77.45942,38.99785],[-77.45895,38.99761]]]]},"properties":{"id":"lc-pl-205","status":"proposed"}},{"type":"Feature","geometry":{"type":"MultiPolygon","coordinates":[[[[-77.48147,39.00625],[-77.48155,39.00593],[-77.48153,39.00568],[-77.48124,39.00514],[-77.48123,39.00486],[-77.48144,39.00462],[-77.48244,39.00417],[-77.48261,39.00428],[-77.48373,39.00555],[-77.48376,39.00563],[-77.4837,39.0057],[-77.48385,39.00586],[-77.48407,39.00585],[-77.4846,39.00644],[-77.48435,39.00655],[-77.48392,39.00656],[-77.48208,39.0069],[-77.48185,39.00686],[-77.48161,39.00671],[-77.48147,39.00649],[-77.48147,39.00625]]],[[[-77.47933,39.00781],[-77.48064,39.0034],[-77.48173,39.00375],[-77.48215,39.00398],[-77.48212,39.00408],[-77.48184,39.00426],[-77.48121,39.00456],[-77.481,39.0049],[-77.48102,39.00516],[-77.48133,39.00575],[-77.48125,39.00648],[-77.48148,39.00685],[-77.48176,39.00701],[-77.48219,39.00707],[-77.48396,39.00672],[-77.48439,39.00671],[-77.48472,39.0066],[-77.48485,39.00668],[-77.47933,39.00781]]]]},"properties":{"id":"lc-pl-206","status":"proposed"}},{"type":"Feature","geometry":{"type":"Polygon","coordinates":[[[-77.54532,38.9409],[-77.54563,38.94008],[-77.54948,38.94172],[-77.54837,38.94238],[-77.54729,38.94319],[-77.54425,38.94373],[-77.54532,38.9409]]]},"properties":{"id":"lc-pl-207","status":"proposed"}},{"type":"Feature","geometry":{"type":"Polygon","coordinates":[[[-77.53086,39.07756],[-77.53268,39.07548],[-77.53448,39.07498],[-77.53769,39.07709],[-77.53776,39.07732],[-77.53613,39.07779],[-77.53604,39.07774],[-77.53579,39.07786],[-77.53576,39.07794],[-77.53486,39.07822],[-77.53368,39.07855],[-77.5335,39.07853],[-77.53334,39.07861],[-77.5333,39.0787],[-77.53168,39.0792],[-77.53086,39.07756]]]},"properties":{"id":"lc-pl-208","status":"proposed"}},{"type":"Feature","geometry":{"type":"Polygon","coordinates":[[[-77.54526,38.94612],[-77.54425,38.94373],[-77.54568,38.94348],[-77.55076,38.94698],[-77.55085,38.94717],[-77.54756,38.9481],[-77.54737,38.94799],[-77.54526,38.94612]]]},"properties":{"id":"lc-pl-209","status":"proposed"}},{"type":"Feature","geometry":{"type":"Polygon","coordinates":[[[-77.43222,39.03621],[-77.43222,39.03612],[-77.43272,39.03611],[-77.43355,39.0363],[-77.43425,39.03632],[-77.43452,39.03658],[-77.43463,39.03679],[-77.4344,39.03904],[-77.43232,39.03904],[-77.4322,39.03909],[-77.43222,39.03621]]]},"properties":{"id":"lc-pl-210","status":"proposed"}},{"type":"Feature","geometry":{"type":"Polygon","coordinates":[[[-77.51663,39.07642],[-77.51619,39.07594],[-77.5159,39.07595],[-77.51532,39.07554],[-77.51456,39.07543],[-77.51404,39.07543],[-77.51404,39.0756],[-77.51321,39.07559],[-77.51326,39.07502],[-77.51387,39.07517],[-77.51429,39.07432],[-77.51395,39.07423],[-77.51277,39.0735],[-77.51295,39.07325],[-77.51349,39.07285],[-77.51392,39.07263],[-77.51593,39.07192],[-77.51652,39.07139],[-77.517,39.07073],[-77.51763,39.07041],[-77.51831,39.07024],[-77.51876,39.07014],[-77.51871,39.0724],[-77.51975,39.07243],[-77.52024,39.07231],[-77.5202,39.0722],[-77.52036,39.07212],[-77.52071,39.07207],[-77.52143,39.07229],[-77.52166,39.07231],[-77.52217,39.07249],[-77.52237,39.07265],[-77.52245,39.0726],[-77.52278,39.07264],[-77.523,39.07282],[-77.52337,39.07293],[-77.52404,39.07329],[-77.52441,39.07312],[-77.52446,39.07304],[-77.52455,39.07307],[-77.52463,39.07248],[-77.52657,39.07308],[-77.52723,39.0734],[-77.52718,39.07352],[-77.52756,39.0736],[-77.52798,39.07389],[-77.52777,39.07423],[-77.5274,39.07455],[-77.52692,39.07478],[-77.52638,39.07489],[-77.52194,39.07453],[-77.52108,39.07457],[-77.52106,39.0747],[-77.52088,39.07466],[-77.518,39.07567],[-77.51663,39.07642]]]},"properties":{"id":"lc-pl-211","status":"proposed"}},{"type":"Feature","geometry":{"type":"Polygon","coordinates":[[[-77.40923,39.02455],[-77.40943,39.02364],[-77.40962,39.02322],[-77.41157,39.02375],[-77.4109,39.02518],[-77.4106,39.02509],[-77.40996,39.0264],[-77.40929,39.02623],[-77.40867,39.02599],[-77.40901,39.02526],[-77.40923,39.02455]]]},"properties":{"id":"lc-pl-212","status":"proposed"}},{"type":"Feature","geometry":{"type":"Polygon","coordinates":[[[-77.40897,39.02079],[-77.40908,39.02078],[-77.40998,39.02136],[-77.41238,39.02239],[-77.41185,39.02351],[-77.40807,39.02247],[-77.40811,39.02209],[-77.4083,39.02163],[-77.40888,39.02083],[-77.40897,39.02079]]]},"properties":{"id":"lc-pl-213","status":"proposed"}},{"type":"Feature","geometry":{"type":"Polygon","coordinates":[[[-77.40655,39.02349],[-77.40668,39.02351],[-77.40725,39.02276],[-77.40832,39.02283],[-77.40929,39.0231],[-77.40935,39.02316],[-77.40917,39.02365],[-77.40886,39.02499],[-77.40613,39.02438],[-77.40579,39.02393],[-77.40655,39.02349]]]},"properties":{"id":"lc-pl-214","status":"proposed"}},{"type":"Feature","geometry":{"type":"Polygon","coordinates":[[[-77.48021,39.00481],[-77.47975,39.00639],[-77.47446,39.00487],[-77.47484,39.00401],[-77.47673,39.00406],[-77.47593,39.00295],[-77.48021,39.00481]]]},"properties":{"id":"lc-pl-215","status":"proposed"}},{"type":"Feature","geometry":{"type":"Polygon","coordinates":[[[-77.47731,39.06901],[-77.47778,39.06842],[-77.47688,39.06798],[-77.47924,39.06503],[-77.48071,39.06577],[-77.48001,39.06912],[-77.47981,39.06904],[-77.47914,39.06981],[-77.47874,39.06972],[-77.47731,39.06901]]]},"properties":{"id":"lc-pl-216","status":"proposed"}},{"type":"Feature","geometry":{"type":"Polygon","coordinates":[[[-77.41016,39.02646],[-77.4099,39.0264],[-77.41001,39.02636],[-77.4106,39.02509],[-77.41315,39.02582],[-77.41327,39.02577],[-77.41289,39.02735],[-77.41282,39.02741],[-77.4117,39.02719],[-77.41069,39.02665],[-77.41016,39.02646]]]},"properties":{"id":"lc-pl-217","status":"proposed"}},{"type":"Feature","geometry":{"type":"Polygon","coordinates":[[[-77.49805,39.07896],[-77.49595,39.07814],[-77.48641,39.07358],[-77.48723,39.07249],[-77.4876,39.07314],[-77.48814,39.07359],[-77.49005,39.07451],[-77.49093,39.07472],[-77.49106,39.07363],[-77.49183,39.07157],[-77.49231,39.07168],[-77.49403,39.07351],[-77.49422,39.07379],[-77.49435,39.07437],[-77.49485,39.07442],[-77.49534,39.07456],[-77.49667,39.0753],[-77.49712,39.07546],[-77.49784,39.07552],[-77.49854,39.07536],[-77.4995,39.07474],[-77.50014,39.07419],[-77.50079,39.07391],[-77.50131,39.07383],[-77.50184,39.07388],[-77.50267,39.0741],[-77.50333,39.07455],[-77.50381,39.07527],[-77.50277,39.07568],[-77.50207,39.07616],[-77.5012,39.07703],[-77.49993,39.07877],[-77.49955,39.07836],[-77.4993,39.07852],[-77.49897,39.07839],[-77.49805,39.07896]]]},"properties":{"id":"lc-pl-218","status":"proposed"}},{"type":"Feature","geometry":{"type":"Polygon","coordinates":[[[-77.51764,38.95611],[-77.51657,38.95574],[-77.51634,38.95577],[-77.51597,38.95484],[-77.51605,38.95474],[-77.51602,38.95461],[-77.51593,38.9546],[-77.5159,38.95444],[-77.5159,38.95395],[-77.51606,38.95339],[-77.51641,38.95269],[-77.51651,38.95263],[-77.51781,38.95248],[-77.51912,38.95226],[-77.51939,38.95232],[-77.51989,38.95461],[-77.52025,38.95533],[-77.51895,38.9555],[-77.51839,38.95607],[-77.51764,38.95611]]]},"properties":{"id":"lc-pl-219","status":"proposed"}},{"type":"Feature","geometry":{"type":"Polygon","coordinates":[[[-77.52877,38.96016],[-77.52827,38.96011],[-77.52727,38.9602],[-77.52633,38.96058],[-77.52568,38.96069],[-77.52492,38.96061],[-77.52426,38.96033],[-77.52285,38.95928],[-77.52243,38.95903],[-77.52234,38.95615],[-77.52378,38.95609],[-77.52583,38.95667],[-77.526,38.95655],[-77.52816,38.95704],[-77.52894,38.9574],[-77.52968,38.95746],[-77.53021,38.95775],[-77.53182,38.95791],[-77.53252,38.95825],[-77.53433,38.95859],[-77.53561,38.95891],[-77.53735,38.9592],[-77.53688,38.96018],[-77.5337,38.95926],[-77.53269,38.96136],[-77.53183,38.96099],[-77.52944,38.96028],[-77.52877,38.96016]]]},"properties":{"id":"lc-pl-220","status":"proposed"}},{"type":"Feature","geometry":{"type":"Polygon","coordinates":[[[-77.52119,39.03482],[-77.52189,39.03327],[-77.51917,39.03339],[-77.51911,39.03269],[-77.51974,39.03256],[-77.52019,39.0323],[-77.52045,39.03192],[-77.52046,39.03143],[-77.52331,39.03045],[-77.52404,39.03028],[-77.52522,39.03026],[-77.52635,39.03054],[-77.52639,39.03067],[-77.52421,39.0344],[-77.52408,39.03437],[-77.52377,39.03467],[-77.52332,39.03481],[-77.52119,39.03482]]]},"properties":{"id":"lc-pl-221","status":"proposed"}},{"type":"Feature","geometry":{"type":"Polygon","coordinates":[[[-77.5352,39.10215],[-77.53193,39.10022],[-77.53006,39.10199],[-77.52894,39.10144],[-77.5282,39.10094],[-77.52756,39.10062],[-77.5275,39.10043],[-77.52815,39.09971],[-77.52904,39.09894],[-77.53137,39.09797],[-77.5339,39.09888],[-77.53617,39.10005],[-77.53622,39.1],[-77.53987,39.1023],[-77.53693,39.1073],[-77.535,39.10649],[-77.53508,39.10627],[-77.53503,39.10621],[-77.53506,39.10553],[-77.53488,39.10481],[-77.53471,39.1045],[-77.53438,39.10413],[-77.53373,39.10368],[-77.5352,39.10215]]]},"properties":{"id":"lc-pl-222","status":"proposed"}},{"type":"Feature","geometry":{"type":"Polygon","coordinates":[[[-77.54327,39.09867],[-77.54238,39.09815],[-77.54189,39.09818],[-77.54181,39.09807],[-77.5432,39.09664],[-77.54477,39.09819],[-77.54491,39.09845],[-77.54379,39.09897],[-77.54327,39.09867]]]},"properties":{"id":"lc-pl-223","status":"proposed"}},{"type":"Feature","geometry":{"type":"Polygon","coordinates":[[[-77.47424,38.92018],[-77.47397,38.92049],[-77.47545,38.92126],[-77.4747,38.92213],[-77.47329,38.92174],[-77.47043,38.92062],[-77.47149,38.9194],[-77.47138,38.91934],[-77.47177,38.91889],[-77.47424,38.92018]]]},"properties":{"id":"lc-pl-224","status":"proposed"}}]}
