{"type":"FeatureCollection","generated":"2026-08-11","features":[{"type":"Feature","geometry":{"type":"Polygon","coordinates":[[[-77.41572,39.02375],[-77.41612,39.02386],[-77.41587,39.02437],[-77.41424,39.02389],[-77.41445,39.02339],[-77.41487,39.02351],[-77.41478,39.0237],[-77.41561,39.02394],[-77.41572,39.02375]]]},"properties":{"kind":"building"}},{"type":"Feature","geometry":{"type":"Polygon","coordinates":[[[-77.46481,39.01024],[-77.46436,39.01133],[-77.46067,39.01028],[-77.46114,39.00929],[-77.46153,39.0094],[-77.46161,39.00932],[-77.46252,39.00956],[-77.46258,39.00944],[-77.46294,39.00953],[-77.46301,39.00948],[-77.46314,39.0095],[-77.46317,39.00944],[-77.46348,39.0095],[-77.46342,39.00965],[-77.46452,39.00995],[-77.46444,39.0101],[-77.46481,39.01024]]]},"properties":{"kind":"building"}},{"type":"Feature","geometry":{"type":"Polygon","coordinates":[[[-77.46158,39.01727],[-77.46128,39.01713],[-77.46154,39.01674],[-77.46132,39.01664],[-77.4618,39.01595],[-77.46202,39.01602],[-77.46228,39.01568],[-77.46271,39.01586],[-77.46206,39.01682],[-77.46196,39.01681],[-77.46167,39.01724],[-77.46158,39.01727]]]},"properties":{"kind":"building"}},{"type":"Feature","geometry":{"type":"Polygon","coordinates":[[[-77.46037,39.01603],[-77.46025,39.01623],[-77.45978,39.01604],[-77.46056,39.01494],[-77.46094,39.01512],[-77.4603,39.016],[-77.46037,39.01603]]]},"properties":{"kind":"building"}},{"type":"Feature","geometry":{"type":"Polygon","coordinates":[[[-77.45915,39.01581],[-77.45897,39.01574],[-77.45975,39.0146],[-77.45998,39.01469],[-77.45995,39.01471],[-77.46006,39.01476],[-77.4602,39.01479],[-77.45945,39.01591],[-77.45932,39.01587],[-77.45933,39.01582],[-77.4592,39.01576],[-77.45915,39.01581]]]},"properties":{"kind":"building"}},{"type":"Feature","geometry":{"type":"Polygon","coordinates":[[[-77.45931,39.0166],[-77.45883,39.01638],[-77.45888,39.01626],[-77.4594,39.01647],[-77.45931,39.0166]]]},"properties":{"kind":"building"}},{"type":"Feature","geometry":{"type":"Polygon","coordinates":[[[-77.42483,38.98526],[-77.42498,38.98508],[-77.42489,38.98503],[-77.42524,38.98457],[-77.42538,38.9846],[-77.42576,38.98415],[-77.42647,38.98449],[-77.42609,38.98498],[-77.42623,38.98504],[-77.42584,38.98553],[-77.42565,38.98545],[-77.42552,38.98562],[-77.42483,38.98526]]]},"properties":{"kind":"building"}},{"type":"Feature","geometry":{"type":"Polygon","coordinates":[[[-77.44241,39.00521],[-77.44199,39.00558],[-77.44073,39.00457],[-77.44165,39.00385],[-77.44252,39.00455],[-77.44238,39.00463],[-77.44268,39.00487],[-77.44257,39.00494],[-77.4428,39.00511],[-77.44261,39.00526],[-77.44241,39.00521]]]},"properties":{"kind":"building"}},{"type":"Feature","geometry":{"type":"Polygon","coordinates":[[[-77.45452,39.0238],[-77.45401,39.02355],[-77.45414,39.02341],[-77.45404,39.02333],[-77.45418,39.02321],[-77.45412,39.02318],[-77.45426,39.02306],[-77.45442,39.02314],[-77.45453,39.02302],[-77.45433,39.02289],[-77.45457,39.02262],[-77.45469,39.02268],[-77.45495,39.02241],[-77.45474,39.02228],[-77.455,39.02203],[-77.45512,39.02209],[-77.45523,39.02198],[-77.45516,39.02194],[-77.45536,39.02176],[-77.45545,39.02179],[-77.45543,39.02182],[-77.45551,39.02188],[-77.45547,39.02191],[-77.45555,39.02194],[-77.45554,39.02197],[-77.45575,39.02216],[-77.45557,39.02235],[-77.45562,39.0224],[-77.45543,39.02262],[-77.45545,39.02264],[-77.45515,39.0229],[-77.45523,39.02294],[-77.45496,39.02319],[-77.45506,39.02324],[-77.45478,39.02346],[-77.45482,39.02353],[-77.45452,39.0238]]]},"properties":{"kind":"building"}},{"type":"Feature","geometry":{"type":"Polygon","coordinates":[[[-77.48673,39.00479],[-77.48509,39.00586],[-77.48453,39.00534],[-77.48614,39.00426],[-77.48673,39.00479]]]},"properties":{"kind":"building"}},{"type":"Feature","geometry":{"type":"Polygon","coordinates":[[[-77.48589,39.00338],[-77.48465,39.00294],[-77.48509,39.00219],[-77.48633,39.00263],[-77.48589,39.00338]]]},"properties":{"kind":"building"}},{"type":"Feature","geometry":{"type":"Polygon","coordinates":[[[-77.45967,39.01468],[-77.459,39.01568],[-77.45878,39.01559],[-77.45874,39.01563],[-77.45804,39.01535],[-77.45883,39.01422],[-77.45918,39.01434],[-77.45911,39.01444],[-77.45967,39.01468]]]},"properties":{"kind":"building"}},{"type":"Feature","geometry":{"type":"Polygon","coordinates":[[[-77.46193,39.01574],[-77.46127,39.01669],[-77.46057,39.01637],[-77.46072,39.01616],[-77.46062,39.01613],[-77.46081,39.01592],[-77.46093,39.01596],[-77.46138,39.01532],[-77.4618,39.01547],[-77.4617,39.01562],[-77.46193,39.01574]]]},"properties":{"kind":"building"}},{"type":"Feature","geometry":{"type":"Polygon","coordinates":[[[-77.48619,39.00348],[-77.48663,39.00273],[-77.48805,39.00323],[-77.48792,39.00348],[-77.48757,39.00334],[-77.48734,39.00376],[-77.48768,39.00389],[-77.48762,39.00399],[-77.48619,39.00348]]]},"properties":{"kind":"building"}},{"type":"Feature","geometry":{"type":"Polygon","coordinates":[[[-77.48412,39.00275],[-77.48221,39.00208],[-77.48263,39.00135],[-77.48455,39.002],[-77.48412,39.00275]]]},"properties":{"kind":"building"}},{"type":"Feature","geometry":{"type":"Polygon","coordinates":[[[-77.5564,38.94652],[-77.5561,38.95005],[-77.55543,38.95002],[-77.55572,38.94648],[-77.5564,38.94652]]]},"properties":{"kind":"building"}},{"type":"Feature","geometry":{"type":"Polygon","coordinates":[[[-77.44785,38.99392],[-77.44877,38.99425],[-77.44866,38.99442],[-77.4487,38.99443],[-77.44865,38.99452],[-77.44797,38.9943],[-77.44791,38.9944],[-77.44761,38.9943],[-77.44785,38.99392]]]},"properties":{"kind":"building"}},{"type":"Feature","geometry":{"type":"Polygon","coordinates":[[[-77.41375,39.02317],[-77.41418,39.02329],[-77.41396,39.02379],[-77.41228,39.02333],[-77.41252,39.02282],[-77.41294,39.02294],[-77.41288,39.02304],[-77.4137,39.02327],[-77.41375,39.02317]]]},"properties":{"kind":"building"}},{"type":"Feature","geometry":{"type":"Polygon","coordinates":[[[-77.4533,39.02113],[-77.45362,39.02133],[-77.45344,39.02151],[-77.45336,39.02146],[-77.45227,39.02247],[-77.45193,39.02226],[-77.45311,39.02115],[-77.4533,39.02113]]]},"properties":{"kind":"building"}},{"type":"Feature","geometry":{"type":"Polygon","coordinates":[[[-77.42501,38.98383],[-77.42474,38.98423],[-77.42436,38.98406],[-77.4244,38.98397],[-77.4232,38.98337],[-77.42345,38.98309],[-77.42501,38.98383]]]},"properties":{"kind":"building"}},{"type":"Feature","geometry":{"type":"Polygon","coordinates":[[[-77.4538,39.02159],[-77.45397,39.02144],[-77.45415,39.02143],[-77.45452,39.02166],[-77.45313,39.02299],[-77.45275,39.02273],[-77.45388,39.02165],[-77.4538,39.02159]]]},"properties":{"kind":"building"}},{"type":"Feature","geometry":{"type":"Polygon","coordinates":[[[-77.47469,39.01309],[-77.47442,39.01247],[-77.47589,39.01208],[-77.47616,39.01271],[-77.47469,39.01309]]]},"properties":{"kind":"building"}},{"type":"Feature","geometry":{"type":"Polygon","coordinates":[[[-77.48182,39.01617],[-77.48217,39.01624],[-77.48262,39.01496],[-77.48254,39.01494],[-77.48261,39.01473],[-77.48305,39.01484],[-77.48251,39.01639],[-77.48203,39.01644],[-77.48175,39.01637],[-77.48182,39.01617]]]},"properties":{"kind":"building"}},{"type":"Feature","geometry":{"type":"Polygon","coordinates":[[[-77.45947,39.02201],[-77.45962,39.02177],[-77.45892,39.02144],[-77.45874,39.02169],[-77.45835,39.0215],[-77.45875,39.02097],[-77.46023,39.02166],[-77.45987,39.0222],[-77.45947,39.02201]]]},"properties":{"kind":"building"}},{"type":"Feature","geometry":{"type":"Polygon","coordinates":[[[-77.46076,39.01959],[-77.46004,39.02062],[-77.45999,39.0206],[-77.45997,39.02064],[-77.45984,39.02062],[-77.45982,39.02066],[-77.45948,39.02051],[-77.45939,39.02058],[-77.45912,39.02045],[-77.45915,39.02038],[-77.45888,39.02025],[-77.45911,39.01996],[-77.4593,39.02002],[-77.45967,39.01951],[-77.45948,39.01943],[-77.4597,39.01912],[-77.46076,39.01959]]]},"properties":{"kind":"building"}},{"type":"Feature","geometry":{"type":"Polygon","coordinates":[[[-77.41145,39.02418],[-77.41319,39.02468],[-77.41288,39.02534],[-77.41116,39.02484],[-77.41145,39.02418]]]},"properties":{"kind":"building"}},{"type":"Feature","geometry":{"type":"Polygon","coordinates":[[[-77.46137,39.02289],[-77.46155,39.02259],[-77.46074,39.02224],[-77.46061,39.02249],[-77.46017,39.0223],[-77.46059,39.02176],[-77.46221,39.02246],[-77.46179,39.02311],[-77.46137,39.02289]]]},"properties":{"kind":"building"}},{"type":"Feature","geometry":{"type":"Polygon","coordinates":[[[-77.46265,39.01837],[-77.4618,39.01932],[-77.46107,39.01893],[-77.46167,39.01816],[-77.46153,39.01807],[-77.46239,39.01714],[-77.46255,39.01722],[-77.46319,39.01648],[-77.46392,39.01683],[-77.46383,39.01708],[-77.46331,39.0177],[-77.46355,39.01784],[-77.46291,39.0185],[-77.46265,39.01837]]]},"properties":{"kind":"building"}},{"type":"Feature","geometry":{"type":"Polygon","coordinates":[[[-77.48174,39.01637],[-77.48123,39.01625],[-77.48183,39.01456],[-77.48232,39.01468],[-77.48227,39.01489],[-77.48211,39.01486],[-77.48165,39.01612],[-77.48178,39.01617],[-77.48174,39.01637]]]},"properties":{"kind":"building"}},{"type":"Feature","geometry":{"type":"Polygon","coordinates":[[[-77.44706,39.04839],[-77.44684,39.04942],[-77.44571,39.0492],[-77.44563,39.0495],[-77.44501,39.04941],[-77.44504,39.04912],[-77.44389,39.04892],[-77.44396,39.04862],[-77.44379,39.04858],[-77.44386,39.04827],[-77.44406,39.04827],[-77.44414,39.04793],[-77.44524,39.04811],[-77.44531,39.04803],[-77.44604,39.04814],[-77.44607,39.04823],[-77.44706,39.04839]]]},"properties":{"kind":"building"}},{"type":"Feature","geometry":{"type":"Polygon","coordinates":[[[-77.46257,39.02061],[-77.4614,39.02096],[-77.46112,39.02029],[-77.46144,39.02018],[-77.46145,39.02008],[-77.46262,39.01982],[-77.46264,39.01965],[-77.46313,39.01956],[-77.46323,39.01971],[-77.46334,39.01968],[-77.46333,39.01962],[-77.46439,39.01933],[-77.46441,39.01941],[-77.46479,39.01938],[-77.46514,39.02001],[-77.46393,39.02027],[-77.46401,39.02037],[-77.46262,39.02075],[-77.46257,39.02061]]]},"properties":{"kind":"building"}},{"type":"Feature","geometry":{"type":"Polygon","coordinates":[[[-77.43796,38.99064],[-77.43772,38.99107],[-77.43622,38.99057],[-77.43644,38.99013],[-77.43796,38.99064]]]},"properties":{"kind":"building"}},{"type":"Feature","geometry":{"type":"Polygon","coordinates":[[[-77.43708,38.99186],[-77.43581,38.99144],[-77.43604,38.99104],[-77.43731,38.99145],[-77.43708,38.99186]]]},"properties":{"kind":"building"}},{"type":"Feature","geometry":{"type":"Polygon","coordinates":[[[-77.48236,39.0034],[-77.48103,39.00293],[-77.4815,39.0021],[-77.48175,39.0022],[-77.48175,39.00222],[-77.48281,39.00262],[-77.48236,39.0034]]]},"properties":{"kind":"building"}},{"type":"Feature","geometry":{"type":"Polygon","coordinates":[[[-77.46261,39.02169],[-77.46257,39.02165],[-77.46236,39.02172],[-77.46209,39.02106],[-77.46285,39.02085],[-77.46288,39.0209],[-77.46383,39.02062],[-77.46382,39.02059],[-77.4648,39.02033],[-77.465,39.02082],[-77.46511,39.0208],[-77.46519,39.0209],[-77.46506,39.02095],[-77.46501,39.02105],[-77.46405,39.02131],[-77.46414,39.02152],[-77.46367,39.02162],[-77.46357,39.02144],[-77.46261,39.02169]]]},"properties":{"kind":"building"}},{"type":"Feature","geometry":{"type":"Polygon","coordinates":[[[-77.48406,39.00494],[-77.48349,39.00441],[-77.48376,39.00424],[-77.48367,39.00416],[-77.48425,39.00378],[-77.48434,39.00386],[-77.48461,39.0037],[-77.48517,39.00422],[-77.48406,39.00494]]]},"properties":{"kind":"building"}},{"type":"Feature","geometry":{"type":"Polygon","coordinates":[[[-77.44966,38.9919],[-77.44941,38.99234],[-77.4475,38.99153],[-77.44774,38.99121],[-77.44793,38.99114],[-77.44966,38.9919]]]},"properties":{"kind":"building"}},{"type":"Feature","geometry":{"type":"Polygon","coordinates":[[[-77.44968,38.99081],[-77.4494,38.99122],[-77.44813,38.99073],[-77.44809,38.99058],[-77.44829,38.99024],[-77.44968,38.99081]]]},"properties":{"kind":"building"}},{"type":"Feature","geometry":{"type":"Polygon","coordinates":[[[-77.45176,39.0202],[-77.45247,39.02066],[-77.4521,39.021],[-77.45221,39.02108],[-77.45178,39.02149],[-77.45166,39.02142],[-77.45124,39.02183],[-77.45053,39.02138],[-77.45176,39.0202]]]},"properties":{"kind":"building"}},{"type":"Feature","geometry":{"type":"Polygon","coordinates":[[[-77.47904,39.0161],[-77.47869,39.01595],[-77.47868,39.01597],[-77.47823,39.01579],[-77.47821,39.0158],[-77.4772,39.0153],[-77.47757,39.01479],[-77.47838,39.01511],[-77.47842,39.01504],[-77.47867,39.01515],[-77.47863,39.01522],[-77.47941,39.01557],[-77.47904,39.0161]]]},"properties":{"kind":"building"}},{"type":"Feature","geometry":{"type":"Polygon","coordinates":[[[-77.46558,39.01902],[-77.46529,39.01836],[-77.46508,39.01842],[-77.46487,39.01785],[-77.46494,39.01785],[-77.4648,39.01752],[-77.46499,39.01746],[-77.46466,39.01655],[-77.46487,39.01648],[-77.46473,39.01608],[-77.4655,39.0159],[-77.46562,39.01627],[-77.4657,39.01626],[-77.46575,39.01632],[-77.46583,39.01627],[-77.46604,39.01695],[-77.46628,39.0169],[-77.46665,39.01778],[-77.46641,39.01786],[-77.46674,39.01877],[-77.46558,39.01902]]]},"properties":{"kind":"building"}},{"type":"Feature","geometry":{"type":"Polygon","coordinates":[[[-77.47836,38.9997],[-77.47909,38.99999],[-77.47904,39.00008],[-77.47908,39.00013],[-77.47884,39.00042],[-77.47893,39.00047],[-77.47876,39.00072],[-77.47864,39.00071],[-77.47708,39.00007],[-77.47751,38.99946],[-77.47832,38.9998],[-77.47836,38.9997]]]},"properties":{"kind":"building"}},{"type":"Feature","geometry":{"type":"Polygon","coordinates":[[[-77.48185,39.00073],[-77.48201,39.0008],[-77.48159,39.00139],[-77.47928,39.00044],[-77.47971,38.99984],[-77.47976,38.99981],[-77.47987,38.99984],[-77.47992,38.9998],[-77.4805,39.00006],[-77.48044,39.00015],[-77.48091,39.00033],[-77.48099,39.00022],[-77.48132,39.00032],[-77.48127,39.00038],[-77.48185,39.00059],[-77.48182,39.00065],[-77.48187,39.00068],[-77.48185,39.00073]]]},"properties":{"kind":"building"}},{"type":"Feature","geometry":{"type":"Polygon","coordinates":[[[-77.46145,39.02944],[-77.45808,39.03022],[-77.45788,39.0297],[-77.46124,39.0289],[-77.46145,39.02944]]]},"properties":{"kind":"building"}},{"type":"Feature","geometry":{"type":"Polygon","coordinates":[[[-77.45926,39.02861],[-77.45762,39.0294],[-77.45724,39.02892],[-77.45888,39.02814],[-77.45926,39.02861]]]},"properties":{"kind":"building"}},{"type":"Feature","geometry":{"type":"Polygon","coordinates":[[[-77.44882,38.98752],[-77.44706,38.99015],[-77.44658,38.98995],[-77.44833,38.98735],[-77.44882,38.98752]]]},"properties":{"kind":"building"}},{"type":"Feature","geometry":{"type":"Polygon","coordinates":[[[-77.45858,39.02771],[-77.45678,39.02857],[-77.45642,39.02811],[-77.4582,39.02725],[-77.45858,39.02771]]]},"properties":{"kind":"building"}},{"type":"Feature","geometry":{"type":"Polygon","coordinates":[[[-77.44303,38.98556],[-77.44118,38.98739],[-77.44081,38.98721],[-77.44093,38.9871],[-77.44081,38.98702],[-77.44256,38.98527],[-77.44303,38.98556]]]},"properties":{"kind":"building"}},{"type":"Feature","geometry":{"type":"Polygon","coordinates":[[[-77.43322,39.02227],[-77.43251,39.02227],[-77.43253,39.02173],[-77.43265,39.02172],[-77.43263,39.02112],[-77.43323,39.0211],[-77.43324,39.02125],[-77.4336,39.02127],[-77.43363,39.02168],[-77.43324,39.02168],[-77.43322,39.02227]]]},"properties":{"kind":"building"}},{"type":"Feature","geometry":{"type":"Polygon","coordinates":[[[-77.44369,38.9864],[-77.44213,38.98796],[-77.44165,38.98767],[-77.4432,38.98609],[-77.44369,38.9864]]]},"properties":{"kind":"building"}},{"type":"Feature","geometry":{"type":"Polygon","coordinates":[[[-77.41503,39.02693],[-77.41393,39.02667],[-77.41418,39.02593],[-77.41408,39.0259],[-77.41442,39.02484],[-77.41457,39.02487],[-77.41457,39.0249],[-77.41506,39.025],[-77.41506,39.02496],[-77.41537,39.02503],[-77.41502,39.02609],[-77.41527,39.02616],[-77.41503,39.02693]]]},"properties":{"kind":"building"}},{"type":"Feature","geometry":{"type":"Polygon","coordinates":[[[-77.44919,39.02743],[-77.44916,39.0253],[-77.44981,39.02529],[-77.44984,39.02743],[-77.44919,39.02743]]]},"properties":{"kind":"building"}},{"type":"Feature","geometry":{"type":"Polygon","coordinates":[[[-77.44221,38.99266],[-77.43988,38.99147],[-77.44024,38.99105],[-77.44256,38.99222],[-77.44221,38.99266]]]},"properties":{"kind":"building"}},{"type":"Feature","geometry":{"type":"Polygon","coordinates":[[[-77.44324,38.99138],[-77.44289,38.99182],[-77.44057,38.99065],[-77.44092,38.99023],[-77.44324,38.99138]]]},"properties":{"kind":"building"}},{"type":"Feature","geometry":{"type":"Polygon","coordinates":[[[-77.52078,38.95027],[-77.52015,38.95047],[-77.51902,38.94847],[-77.51967,38.94826],[-77.52078,38.95027]]]},"properties":{"kind":"building"}},{"type":"Feature","geometry":{"type":"Polygon","coordinates":[[[-77.4768,39.00061],[-77.47811,39.00116],[-77.47775,39.00173],[-77.4776,39.00174],[-77.47638,39.00122],[-77.4768,39.00061]]]},"properties":{"kind":"building"}},{"type":"Feature","geometry":{"type":"Polygon","coordinates":[[[-77.49285,38.91494],[-77.49181,38.91691],[-77.49121,38.91671],[-77.49224,38.91475],[-77.49285,38.91494]]]},"properties":{"kind":"building"}},{"type":"Feature","geometry":{"type":"Polygon","coordinates":[[[-77.45121,39.02742],[-77.45054,39.02742],[-77.45051,39.0253],[-77.45117,39.02529],[-77.45121,39.02742]]]},"properties":{"kind":"building"}},{"type":"Feature","geometry":{"type":"Polygon","coordinates":[[[-77.49354,38.91802],[-77.49288,38.918],[-77.49303,38.91585],[-77.49367,38.91587],[-77.49354,38.91802]]]},"properties":{"kind":"building"}},{"type":"Feature","geometry":{"type":"Polygon","coordinates":[[[-77.45424,39.02739],[-77.45151,39.02742],[-77.4515,39.0269],[-77.45423,39.02686],[-77.45424,39.02739]]]},"properties":{"kind":"building"}},{"type":"Feature","geometry":{"type":"Polygon","coordinates":[[[-77.47074,39.00764],[-77.46998,39.0078],[-77.46998,39.00789],[-77.46946,39.00799],[-77.46942,39.0079],[-77.46904,39.00802],[-77.46908,39.0081],[-77.46844,39.00826],[-77.46815,39.00822],[-77.46519,39.00852],[-77.46514,39.0084],[-77.46479,39.0084],[-77.46466,39.00776],[-77.46476,39.00776],[-77.46476,39.00769],[-77.46799,39.00739],[-77.4704,39.00682],[-77.47054,39.00721],[-77.47065,39.00718],[-77.47076,39.00744],[-77.47068,39.00747],[-77.47074,39.00764]]]},"properties":{"kind":"building"}},{"type":"Feature","geometry":{"type":"Polygon","coordinates":[[[-77.45136,38.99423],[-77.45042,38.99459],[-77.44972,38.9934],[-77.45074,38.99306],[-77.45136,38.99423]]]},"properties":{"kind":"building"}},{"type":"Feature","geometry":{"type":"Polygon","coordinates":[[[-77.48023,39.00153],[-77.48014,39.00165],[-77.48018,39.00166],[-77.48009,39.00181],[-77.48004,39.00179],[-77.47981,39.00212],[-77.47977,39.00209],[-77.47972,39.00216],[-77.47961,39.00217],[-77.4796,39.00221],[-77.47912,39.002],[-77.47916,39.00197],[-77.47907,39.00193],[-77.4791,39.00191],[-77.47903,39.00188],[-77.47907,39.00182],[-77.47866,39.00165],[-77.47886,39.00133],[-77.47867,39.00124],[-77.47884,39.00098],[-77.47904,39.00106],[-77.47906,39.00104],[-77.48023,39.00153]]]},"properties":{"kind":"building"}},{"type":"Feature","geometry":{"type":"Polygon","coordinates":[[[-77.46825,39.01539],[-77.469,39.01601],[-77.46814,39.01669],[-77.46713,39.01592],[-77.46697,39.01603],[-77.46626,39.01541],[-77.46635,39.01533],[-77.46574,39.01488],[-77.46657,39.01419],[-77.46737,39.01478],[-77.46723,39.01489],[-77.46807,39.01554],[-77.46825,39.01539]]]},"properties":{"kind":"building"}},{"type":"Feature","geometry":{"type":"Polygon","coordinates":[[[-77.41306,38.98835],[-77.41063,38.98937],[-77.41033,38.98893],[-77.41274,38.9879],[-77.41306,38.98835]]]},"properties":{"kind":"building"}},{"type":"Feature","geometry":{"type":"Polygon","coordinates":[[[-77.494,38.91811],[-77.49415,38.91594],[-77.49481,38.91597],[-77.49466,38.91813],[-77.494,38.91811]]]},"properties":{"kind":"building"}},{"type":"Feature","geometry":{"type":"Polygon","coordinates":[[[-77.41415,39.02049],[-77.4131,39.02218],[-77.41245,39.02193],[-77.41253,39.02176],[-77.41243,39.02174],[-77.41266,39.02143],[-77.41271,39.02144],[-77.41281,39.0213],[-77.41276,39.02127],[-77.41302,39.02081],[-77.41306,39.02082],[-77.41314,39.02068],[-77.4131,39.02067],[-77.41333,39.0203],[-77.41337,39.02032],[-77.41346,39.02024],[-77.41415,39.02049]]]},"properties":{"kind":"building"}},{"type":"Feature","geometry":{"type":"Polygon","coordinates":[[[-77.47052,39.01803],[-77.47033,39.0182],[-77.46928,39.01749],[-77.46935,39.0174],[-77.46928,39.01732],[-77.47051,39.01623],[-77.47154,39.01689],[-77.47133,39.0171],[-77.47147,39.01719],[-77.47106,39.01758],[-77.47093,39.01749],[-77.47038,39.01794],[-77.47052,39.01803]]]},"properties":{"kind":"building"}},{"type":"Feature","geometry":{"type":"Polygon","coordinates":[[[-77.41254,38.98761],[-77.41011,38.98863],[-77.4098,38.9882],[-77.4122,38.98716],[-77.41254,38.98761]]]},"properties":{"kind":"building"}},{"type":"Feature","geometry":{"type":"Polygon","coordinates":[[[-77.45081,39.0234],[-77.45046,39.02381],[-77.45032,39.02374],[-77.45035,39.02363],[-77.44893,39.02279],[-77.44898,39.02264],[-77.44884,39.02259],[-77.44908,39.02232],[-77.45081,39.0234]]]},"properties":{"kind":"building"}},{"type":"Feature","geometry":{"type":"Polygon","coordinates":[[[-77.41188,38.98668],[-77.40948,38.98772],[-77.40914,38.98727],[-77.41154,38.98623],[-77.41188,38.98668]]]},"properties":{"kind":"building"}},{"type":"Feature","geometry":{"type":"Polygon","coordinates":[[[-77.43504,39.02117],[-77.43504,39.02199],[-77.43461,39.02199],[-77.4346,39.02117],[-77.43504,39.02117]]]},"properties":{"kind":"building"}},{"type":"Feature","geometry":{"type":"Polygon","coordinates":[[[-77.45113,38.99915],[-77.45118,38.99916],[-77.45124,38.99999],[-77.45118,39.0],[-77.45117,38.99992],[-77.44964,38.99992],[-77.44962,39.00001],[-77.44958,39.00001],[-77.44956,38.99979],[-77.4492,38.9998],[-77.44918,38.9995],[-77.44912,38.9995],[-77.44911,38.9994],[-77.44918,38.9994],[-77.44916,38.99921],[-77.44957,38.99919],[-77.44958,38.99927],[-77.45114,38.99925],[-77.45113,38.99915]]]},"properties":{"kind":"building"}},{"type":"Feature","geometry":{"type":"Polygon","coordinates":[[[-77.43529,39.02064],[-77.43252,39.02043],[-77.43258,39.01992],[-77.43534,39.02011],[-77.43529,39.02064]]]},"properties":{"kind":"building"}},{"type":"Feature","geometry":{"type":"Polygon","coordinates":[[[-77.52196,38.94984],[-77.52134,38.95005],[-77.51995,38.94756],[-77.52061,38.94736],[-77.52196,38.94984]]]},"properties":{"kind":"building"}},{"type":"Feature","geometry":{"type":"Polygon","coordinates":[[[-77.43537,39.01957],[-77.43265,39.01934],[-77.43271,39.01882],[-77.43545,39.01904],[-77.43537,39.01957]]]},"properties":{"kind":"building"}},{"type":"Feature","geometry":{"type":"Polygon","coordinates":[[[-77.46572,39.01147],[-77.46608,39.01228],[-77.46588,39.01235],[-77.46616,39.01295],[-77.46632,39.01291],[-77.46669,39.01371],[-77.4661,39.01386],[-77.46603,39.0137],[-77.46558,39.0138],[-77.46556,39.01375],[-77.46543,39.01378],[-77.46528,39.0134],[-77.46504,39.01345],[-77.46483,39.01294],[-77.46488,39.01293],[-77.4648,39.01279],[-77.46486,39.01276],[-77.46481,39.01263],[-77.46492,39.01259],[-77.46458,39.01176],[-77.46572,39.01147]]]},"properties":{"kind":"building"}},{"type":"Feature","geometry":{"type":"Polygon","coordinates":[[[-77.52221,38.94973],[-77.52085,38.94729],[-77.52146,38.94706],[-77.52283,38.94951],[-77.52221,38.94973]]]},"properties":{"kind":"building"}},{"type":"Feature","geometry":{"type":"Polygon","coordinates":[[[-77.49616,38.95663],[-77.49583,38.95612],[-77.49827,38.95515],[-77.4986,38.95566],[-77.49616,38.95663]]]},"properties":{"kind":"building"}},{"type":"Feature","geometry":{"type":"Polygon","coordinates":[[[-77.49921,38.95656],[-77.49675,38.95753],[-77.49645,38.95705],[-77.49889,38.95608],[-77.49921,38.95656]]]},"properties":{"kind":"building"}},{"type":"Feature","geometry":{"type":"Polygon","coordinates":[[[-77.49975,38.9576],[-77.49676,38.9588],[-77.49646,38.95834],[-77.49943,38.95712],[-77.49975,38.9576]]]},"properties":{"kind":"building"}},{"type":"Feature","geometry":{"type":"Polygon","coordinates":[[[-77.48095,39.01522],[-77.48003,39.01484],[-77.47998,39.01492],[-77.47969,39.01479],[-77.47975,39.01471],[-77.47884,39.01432],[-77.47912,39.01389],[-77.48003,39.01425],[-77.48008,39.01418],[-77.48041,39.01433],[-77.48037,39.01441],[-77.48125,39.01478],[-77.48095,39.01522]]]},"properties":{"kind":"building"}},{"type":"Feature","geometry":{"type":"Polygon","coordinates":[[[-77.45115,39.03649],[-77.44976,39.0347],[-77.45032,39.03443],[-77.45171,39.03623],[-77.45115,39.03649]]]},"properties":{"kind":"building"}},{"type":"Feature","geometry":{"type":"Polygon","coordinates":[[[-77.4807,38.91576],[-77.47943,38.9177],[-77.47888,38.91747],[-77.4801,38.91553],[-77.4807,38.91576]]]},"properties":{"kind":"building"}},{"type":"Feature","geometry":{"type":"Polygon","coordinates":[[[-77.46926,39.00642],[-77.46745,39.00673],[-77.46729,39.00621],[-77.46911,39.00593],[-77.46915,39.00599],[-77.4694,39.00595],[-77.46945,39.00614],[-77.46934,39.00618],[-77.46938,39.0063],[-77.46924,39.00633],[-77.46926,39.00642]]]},"properties":{"kind":"building"}},{"type":"Feature","geometry":{"type":"Polygon","coordinates":[[[-77.42563,38.98276],[-77.42526,38.98328],[-77.42378,38.98248],[-77.4241,38.98201],[-77.42563,38.98276]]]},"properties":{"kind":"building"}},{"type":"Feature","geometry":{"type":"Polygon","coordinates":[[[-77.53923,39.04377],[-77.53876,39.04321],[-77.53898,39.04309],[-77.54067,39.045],[-77.54044,39.04512],[-77.53982,39.04442],[-77.53971,39.04448],[-77.53924,39.04396],[-77.53917,39.04398],[-77.5391,39.0439],[-77.5392,39.04384],[-77.53917,39.04379],[-77.53923,39.04377]]]},"properties":{"kind":"building"}},{"type":"Feature","geometry":{"type":"Polygon","coordinates":[[[-77.47187,39.01369],[-77.46993,39.01424],[-77.46977,39.01403],[-77.46954,39.01413],[-77.46935,39.01369],[-77.47164,39.01312],[-77.47187,39.01369]]]},"properties":{"kind":"building"}},{"type":"Feature","geometry":{"type":"Polygon","coordinates":[[[-77.47839,38.91726],[-77.47781,38.91702],[-77.47907,38.91511],[-77.47966,38.91535],[-77.47839,38.91726]]]},"properties":{"kind":"building"}},{"type":"Feature","geometry":{"type":"Polygon","coordinates":[[[-77.45129,39.0229],[-77.45103,39.02322],[-77.44933,39.02218],[-77.44961,39.0219],[-77.45129,39.0229]]]},"properties":{"kind":"building"}},{"type":"Feature","geometry":{"type":"Polygon","coordinates":[[[-77.45869,39.00873],[-77.45679,39.01031],[-77.45669,39.01021],[-77.45661,39.01027],[-77.45638,39.0101],[-77.4563,39.01015],[-77.45598,39.00989],[-77.45825,39.00798],[-77.46025,39.00747],[-77.46053,39.00818],[-77.45869,39.00873]]]},"properties":{"kind":"building"}},{"type":"Feature","geometry":{"type":"Polygon","coordinates":[[[-77.47313,39.02047],[-77.47308,39.02058],[-77.47185,39.02037],[-77.47216,39.01919],[-77.47341,39.01941],[-77.47339,39.01954],[-77.47345,39.01958],[-77.47344,39.01966],[-77.47338,39.01967],[-77.47316,39.02039],[-77.4732,39.02041],[-77.47317,39.02048],[-77.47313,39.02047]]]},"properties":{"kind":"building"}},{"type":"Feature","geometry":{"type":"Polygon","coordinates":[[[-77.43831,39.00302],[-77.43815,39.00294],[-77.43761,39.0028],[-77.43696,39.00255],[-77.4368,39.00242],[-77.43722,39.00183],[-77.4387,39.00244],[-77.43831,39.00302]]]},"properties":{"kind":"building"}},{"type":"Feature","geometry":{"type":"Polygon","coordinates":[[[-77.47851,38.91488],[-77.47667,38.9176],[-77.47608,38.91736],[-77.47792,38.91464],[-77.47851,38.91488]]]},"properties":{"kind":"building"}},{"type":"Feature","geometry":{"type":"Polygon","coordinates":[[[-77.42783,38.98269],[-77.42637,38.9809],[-77.42692,38.98061],[-77.42841,38.98241],[-77.42783,38.98269]]]},"properties":{"kind":"building"}},{"type":"Feature","geometry":{"type":"Polygon","coordinates":[[[-77.43313,39.0251],[-77.43258,39.02511],[-77.43257,39.02464],[-77.43234,39.02464],[-77.43233,39.02357],[-77.43258,39.02357],[-77.4326,39.02373],[-77.43386,39.0237],[-77.43386,39.02359],[-77.43447,39.02359],[-77.43448,39.02375],[-77.43576,39.02379],[-77.43589,39.02366],[-77.43598,39.02365],[-77.43601,39.02455],[-77.43581,39.02455],[-77.43578,39.02502],[-77.43456,39.02503],[-77.43452,39.02521],[-77.4339,39.02524],[-77.43386,39.0251],[-77.4333,39.0251],[-77.4333,39.02537],[-77.43319,39.02537],[-77.43313,39.0251]]]},"properties":{"kind":"building"}},{"type":"Feature","geometry":{"type":"Polygon","coordinates":[[[-77.4196,39.02309],[-77.41941,39.02446],[-77.41873,39.02441],[-77.41887,39.02304],[-77.4196,39.02309]]]},"properties":{"kind":"building"}},{"type":"Feature","geometry":{"type":"Polygon","coordinates":[[[-77.42006,39.02505],[-77.42024,39.0237],[-77.42094,39.02376],[-77.42078,39.02511],[-77.42006,39.02505]]]},"properties":{"kind":"building"}},{"type":"Feature","geometry":{"type":"Polygon","coordinates":[[[-77.41612,38.98043],[-77.41941,38.9821],[-77.41906,38.98253],[-77.41575,38.98088],[-77.41612,38.98043]]]},"properties":{"kind":"building"}},{"type":"Feature","geometry":{"type":"Polygon","coordinates":[[[-77.41536,38.98138],[-77.41866,38.98304],[-77.41831,38.98348],[-77.41498,38.98182],[-77.41536,38.98138]]]},"properties":{"kind":"building"}},{"type":"Feature","geometry":{"type":"Polygon","coordinates":[[[-77.42485,38.97957],[-77.42631,38.97973],[-77.4262,38.98028],[-77.42477,38.98013],[-77.42485,38.97957]]]},"properties":{"kind":"building"}},{"type":"Feature","geometry":{"type":"Polygon","coordinates":[[[-77.56085,38.94927],[-77.56077,38.95063],[-77.56006,38.9506],[-77.56014,38.94926],[-77.56085,38.94927]]]},"properties":{"kind":"building"}},{"type":"Feature","geometry":{"type":"Polygon","coordinates":[[[-77.56096,38.94743],[-77.56086,38.94882],[-77.56016,38.9488],[-77.56022,38.94741],[-77.56096,38.94743]]]},"properties":{"kind":"building"}},{"type":"Feature","geometry":{"type":"Polygon","coordinates":[[[-77.53947,39.05005],[-77.54045,39.05021],[-77.54047,39.05014],[-77.54085,39.0502],[-77.54061,39.05124],[-77.53927,39.05105],[-77.53947,39.05005]]]},"properties":{"kind":"building"}},{"type":"Feature","geometry":{"type":"Polygon","coordinates":[[[-77.43416,39.02696],[-77.43355,39.0262],[-77.43416,39.0259],[-77.43434,39.02609],[-77.4343,39.02613],[-77.43469,39.02662],[-77.43422,39.02686],[-77.43423,39.02693],[-77.43416,39.02696]]]},"properties":{"kind":"building"}},{"type":"Feature","geometry":{"type":"Polygon","coordinates":[[[-77.44035,39.01645],[-77.43902,39.01781],[-77.43846,39.01745],[-77.43978,39.01611],[-77.44035,39.01645]]]},"properties":{"kind":"building"}},{"type":"Feature","geometry":{"type":"Polygon","coordinates":[[[-77.47315,39.0188],[-77.47311,39.01897],[-77.47301,39.01896],[-77.47302,39.01892],[-77.47206,39.01874],[-77.47205,39.01877],[-77.47195,39.01876],[-77.47224,39.01776],[-77.47339,39.01797],[-77.47319,39.01881],[-77.47315,39.0188]]]},"properties":{"kind":"building"}},{"type":"Feature","geometry":{"type":"Polygon","coordinates":[[[-77.43555,38.99752],[-77.43506,38.99618],[-77.43575,38.99604],[-77.43626,38.99739],[-77.43555,38.99752]]]},"properties":{"kind":"building"}},{"type":"Feature","geometry":{"type":"Polygon","coordinates":[[[-77.44085,39.00057],[-77.44113,39.0007],[-77.4406,39.00151],[-77.43968,39.00115],[-77.43954,39.00134],[-77.4394,39.00129],[-77.43951,39.00108],[-77.43859,39.00067],[-77.43912,38.99986],[-77.43942,38.99999],[-77.43941,39.00003],[-77.43999,39.00025],[-77.44009,39.00015],[-77.44088,39.0005],[-77.44085,39.00057]]]},"properties":{"kind":"building"}},{"type":"Feature","geometry":{"type":"Polygon","coordinates":[[[-77.43952,39.01911],[-77.43787,39.01847],[-77.4382,39.01797],[-77.43984,39.0186],[-77.43952,39.01911]]]},"properties":{"kind":"building"}},{"type":"Feature","geometry":{"type":"Polygon","coordinates":[[[-77.45025,39.03727],[-77.44887,39.0355],[-77.4494,39.03523],[-77.45082,39.03702],[-77.45025,39.03727]]]},"properties":{"kind":"building"}},{"type":"Feature","geometry":{"type":"Polygon","coordinates":[[[-77.46371,39.01144],[-77.46311,39.0127],[-77.46137,39.01223],[-77.46198,39.01098],[-77.46371,39.01144]]]},"properties":{"kind":"building"}},{"type":"Feature","geometry":{"type":"Polygon","coordinates":[[[-77.52448,38.94426],[-77.52401,38.94375],[-77.52377,38.94386],[-77.52355,38.94361],[-77.52378,38.94347],[-77.52338,38.94299],[-77.52475,38.94223],[-77.52537,38.94289],[-77.52506,38.94306],[-77.52524,38.94328],[-77.52462,38.94363],[-77.52495,38.94401],[-77.52448,38.94426]]]},"properties":{"kind":"building"}},{"type":"Feature","geometry":{"type":"Polygon","coordinates":[[[-77.4575,39.02561],[-77.45696,39.02528],[-77.45773,39.02451],[-77.4577,39.0245],[-77.45776,39.02441],[-77.45833,39.02476],[-77.4575,39.02561]]]},"properties":{"kind":"building"}},{"type":"Feature","geometry":{"type":"Polygon","coordinates":[[[-77.52266,38.94796],[-77.52224,38.94715],[-77.52294,38.94692],[-77.52397,38.94876],[-77.52327,38.94901],[-77.52283,38.9482],[-77.52303,38.94814],[-77.52288,38.94789],[-77.52266,38.94796]]]},"properties":{"kind":"building"}},{"type":"Feature","geometry":{"type":"Polygon","coordinates":[[[-77.56303,39.07626],[-77.56243,39.07494],[-77.56307,39.07477],[-77.56366,39.0761],[-77.56303,39.07626]]]},"properties":{"kind":"building"}},{"type":"Feature","geometry":{"type":"Polygon","coordinates":[[[-77.5643,39.07592],[-77.56335,39.07385],[-77.56397,39.07367],[-77.56492,39.07575],[-77.5643,39.07592]]]},"properties":{"kind":"building"}},{"type":"Feature","geometry":{"type":"Polygon","coordinates":[[[-77.44914,39.0069],[-77.44827,39.00651],[-77.44874,39.0058],[-77.44892,39.00584],[-77.45008,39.00461],[-77.45081,39.00502],[-77.44914,39.0069]]]},"properties":{"kind":"building"}},{"type":"Feature","geometry":{"type":"Polygon","coordinates":[[[-77.49528,38.91834],[-77.49548,38.9162],[-77.49614,38.91623],[-77.49595,38.91839],[-77.49528,38.91834]]]},"properties":{"kind":"building"}},{"type":"Feature","geometry":{"type":"Polygon","coordinates":[[[-77.42958,39.03307],[-77.42916,39.0315],[-77.42994,39.03137],[-77.43037,39.03293],[-77.42958,39.03307]]]},"properties":{"kind":"building"}},{"type":"Feature","geometry":{"type":"Polygon","coordinates":[[[-77.43872,39.00244],[-77.43723,39.00183],[-77.43755,39.00136],[-77.43904,39.00193],[-77.43872,39.00244]]]},"properties":{"kind":"building"}},{"type":"Feature","geometry":{"type":"Polygon","coordinates":[[[-77.43795,39.01552],[-77.43742,39.01519],[-77.4376,39.01502],[-77.43812,39.01534],[-77.43795,39.01552]]]},"properties":{"kind":"building"}},{"type":"Feature","geometry":{"type":"Polygon","coordinates":[[[-77.43466,38.99554],[-77.43554,38.99433],[-77.43615,38.9946],[-77.43531,38.99582],[-77.43466,38.99554]]]},"properties":{"kind":"building"}},{"type":"Feature","geometry":{"type":"Polygon","coordinates":[[[-77.50575,38.95729],[-77.50632,38.95817],[-77.5067,38.95805],[-77.50677,38.95813],[-77.50623,38.95836],[-77.50696,38.95927],[-77.50668,38.9594],[-77.50674,38.95945],[-77.50632,38.95963],[-77.5062,38.9595],[-77.50607,38.95955],[-77.50543,38.95874],[-77.50524,38.95881],[-77.50513,38.95867],[-77.50528,38.95856],[-77.5047,38.95782],[-77.50575,38.95729]]]},"properties":{"kind":"building"}},{"type":"Feature","geometry":{"type":"Polygon","coordinates":[[[-77.47565,38.99886],[-77.47454,38.99727],[-77.47522,38.99697],[-77.47652,38.99884],[-77.47639,38.99891],[-77.4764,38.99897],[-77.47625,38.99903],[-77.47628,38.99909],[-77.47589,38.99928],[-77.47579,38.99914],[-77.47568,38.99919],[-77.47549,38.99899],[-77.47565,38.99886]]]},"properties":{"kind":"building"}},{"type":"Feature","geometry":{"type":"Polygon","coordinates":[[[-77.45408,39.01239],[-77.45484,39.01103],[-77.45526,39.01116],[-77.45476,39.01202],[-77.4548,39.01205],[-77.45478,39.01209],[-77.45473,39.01208],[-77.45449,39.01251],[-77.45458,39.01256],[-77.45451,39.01268],[-77.45388,39.01248],[-77.4539,39.01234],[-77.45408,39.01239]]]},"properties":{"kind":"building"}},{"type":"Feature","geometry":{"type":"Polygon","coordinates":[[[-77.43923,39.01571],[-77.43813,39.01685],[-77.43757,39.01651],[-77.43866,39.01534],[-77.43923,39.01571]]]},"properties":{"kind":"building"}},{"type":"Feature","geometry":{"type":"Polygon","coordinates":[[[-77.54037,39.05224],[-77.54016,39.05326],[-77.53886,39.0531],[-77.53906,39.05213],[-77.53998,39.05225],[-77.54,39.05219],[-77.54037,39.05224]]]},"properties":{"kind":"building"}},{"type":"Feature","geometry":{"type":"Polygon","coordinates":[[[-77.47212,38.9953],[-77.47247,38.99584],[-77.47062,38.99658],[-77.47026,38.99602],[-77.47212,38.9953]]]},"properties":{"kind":"building"}},{"type":"Feature","geometry":{"type":"Polygon","coordinates":[[[-77.47271,38.99739],[-77.47226,38.99688],[-77.47374,38.99608],[-77.47369,38.99602],[-77.47392,38.99588],[-77.4744,38.99647],[-77.47271,38.99739]]]},"properties":{"kind":"building"}},{"type":"Feature","geometry":{"type":"Polygon","coordinates":[[[-77.47508,39.00912],[-77.47617,39.01165],[-77.47546,39.01184],[-77.47438,39.00931],[-77.47508,39.00912]]]},"properties":{"kind":"building"}},{"type":"Feature","geometry":{"type":"Polygon","coordinates":[[[-77.42916,39.03126],[-77.42816,39.02984],[-77.42883,39.02954],[-77.42986,39.03096],[-77.42916,39.03126]]]},"properties":{"kind":"building"}},{"type":"Feature","geometry":{"type":"Polygon","coordinates":[[[-77.52868,38.94172],[-77.52648,38.94291],[-77.52582,38.94216],[-77.52836,38.94076],[-77.52846,38.94088],[-77.52844,38.94089],[-77.52909,38.94158],[-77.52872,38.94177],[-77.52868,38.94172]]]},"properties":{"kind":"building"}},{"type":"Feature","geometry":{"type":"Polygon","coordinates":[[[-77.45184,39.01621],[-77.45289,39.01705],[-77.45233,39.01747],[-77.45128,39.01663],[-77.45184,39.01621]]]},"properties":{"kind":"building"}},{"type":"Feature","geometry":{"type":"Polygon","coordinates":[[[-77.49124,38.91522],[-77.49063,38.91503],[-77.49073,38.91483],[-77.49134,38.91502],[-77.49124,38.91522]]]},"properties":{"kind":"building"}},{"type":"Feature","geometry":{"type":"Polygon","coordinates":[[[-77.45403,39.01617],[-77.45348,39.01662],[-77.45238,39.01575],[-77.45296,39.01531],[-77.45403,39.01617]]]},"properties":{"kind":"building"}},{"type":"Feature","geometry":{"type":"Polygon","coordinates":[[[-77.49123,38.91555],[-77.49066,38.91661],[-77.49001,38.91639],[-77.49057,38.91534],[-77.49123,38.91555]]]},"properties":{"kind":"building"}},{"type":"Feature","geometry":{"type":"Polygon","coordinates":[[[-77.44029,39.00401],[-77.43944,39.00372],[-77.44021,39.00258],[-77.44107,39.00285],[-77.44029,39.00401]]]},"properties":{"kind":"building"}},{"type":"Feature","geometry":{"type":"Polygon","coordinates":[[[-77.4754,38.99961],[-77.47469,38.99989],[-77.47331,38.99796],[-77.47399,38.99765],[-77.47512,38.99925],[-77.4752,38.99923],[-77.47536,38.99944],[-77.47532,38.99946],[-77.4754,38.99961]]]},"properties":{"kind":"building"}},{"type":"Feature","geometry":{"type":"Polygon","coordinates":[[[-77.53988,39.04263],[-77.54011,39.0425],[-77.5408,39.04329],[-77.5409,39.04323],[-77.54128,39.04366],[-77.54135,39.04361],[-77.54141,39.04368],[-77.54133,39.04373],[-77.54136,39.04379],[-77.5413,39.04383],[-77.5418,39.04438],[-77.54155,39.04451],[-77.53988,39.04263]]]},"properties":{"kind":"building"}},{"type":"Feature","geometry":{"type":"Polygon","coordinates":[[[-77.41844,38.97911],[-77.41731,38.98048],[-77.41667,38.98015],[-77.41778,38.97877],[-77.41844,38.97911]]]},"properties":{"kind":"building"}},{"type":"Feature","geometry":{"type":"Polygon","coordinates":[[[-77.56102,39.06792],[-77.56121,39.0714],[-77.56054,39.07142],[-77.56031,39.06795],[-77.56102,39.06792]]]},"properties":{"kind":"building"}},{"type":"Feature","geometry":{"type":"Polygon","coordinates":[[[-77.42803,39.0298],[-77.42653,39.02861],[-77.42709,39.02817],[-77.42859,39.02934],[-77.42803,39.0298]]]},"properties":{"kind":"building"}},{"type":"Feature","geometry":{"type":"Polygon","coordinates":[[[-77.4496,39.01997],[-77.44957,39.01998],[-77.44942,39.01971],[-77.44949,39.01968],[-77.44947,39.01965],[-77.45128,39.01899],[-77.4516,39.0196],[-77.45022,39.02008],[-77.45025,39.02016],[-77.45003,39.02024],[-77.44994,39.02009],[-77.44987,39.02011],[-77.44984,39.02007],[-77.44974,39.0201],[-77.44967,39.02],[-77.44964,39.02001],[-77.4496,39.01997]]]},"properties":{"kind":"building"}},{"type":"Feature","geometry":{"type":"Polygon","coordinates":[[[-77.5597,39.0679],[-77.55984,39.07143],[-77.55915,39.07141],[-77.55901,39.06793],[-77.5597,39.0679]]]},"properties":{"kind":"building"}},{"type":"Feature","geometry":{"type":"Polygon","coordinates":[[[-77.47094,38.99484],[-77.47142,38.99517],[-77.47125,38.99534],[-77.4709,38.99511],[-77.47095,38.99507],[-77.4708,38.99498],[-77.47094,38.99484]]]},"properties":{"kind":"building"}},{"type":"Feature","geometry":{"type":"Polygon","coordinates":[[[-77.42104,38.97951],[-77.41894,38.97954],[-77.41894,38.97894],[-77.42101,38.97888],[-77.42104,38.97951]]]},"properties":{"kind":"building"}},{"type":"Feature","geometry":{"type":"Polygon","coordinates":[[[-77.49167,38.96258],[-77.49023,38.95967],[-77.49138,38.95932],[-77.49168,38.9599],[-77.49156,38.95994],[-77.49187,38.96057],[-77.49211,38.9605],[-77.49219,38.9608],[-77.49209,38.96082],[-77.49215,38.96093],[-77.49219,38.96092],[-77.49266,38.96186],[-77.49254,38.96189],[-77.49263,38.9621],[-77.49269,38.9621],[-77.49274,38.96225],[-77.49167,38.96258]]]},"properties":{"kind":"building"}},{"type":"Feature","geometry":{"type":"Polygon","coordinates":[[[-77.48633,38.92058],[-77.48618,38.9222],[-77.48542,38.92217],[-77.48556,38.92053],[-77.48633,38.92058]]]},"properties":{"kind":"building"}},{"type":"Feature","geometry":{"type":"Polygon","coordinates":[[[-77.53826,39.04265],[-77.53776,39.0421],[-77.53801,39.04199],[-77.53885,39.04291],[-77.53851,39.0431],[-77.53828,39.04282],[-77.53819,39.04287],[-77.53813,39.04278],[-77.53823,39.04273],[-77.53819,39.04269],[-77.53826,39.04265]]]},"properties":{"kind":"building"}},{"type":"Feature","geometry":{"type":"Polygon","coordinates":[[[-77.53973,39.04245],[-77.53849,39.04103],[-77.53871,39.04092],[-77.53898,39.04124],[-77.53909,39.04118],[-77.53945,39.0416],[-77.53955,39.04156],[-77.5396,39.04162],[-77.53951,39.04168],[-77.53956,39.04175],[-77.5395,39.04179],[-77.53996,39.04232],[-77.53973,39.04245]]]},"properties":{"kind":"building"}},{"type":"Feature","geometry":{"type":"Polygon","coordinates":[[[-77.4675,39.00688],[-77.46562,39.0072],[-77.46549,39.00669],[-77.46563,39.00663],[-77.46556,39.00649],[-77.46729,39.00624],[-77.4675,39.00688]]]},"properties":{"kind":"building"}},{"type":"Feature","geometry":{"type":"Polygon","coordinates":[[[-77.48204,39.0187],[-77.48117,39.01858],[-77.48126,39.01813],[-77.48131,39.01813],[-77.48136,39.01801],[-77.48142,39.018],[-77.48148,39.01776],[-77.48143,39.01775],[-77.48151,39.01742],[-77.4817,39.01742],[-77.48173,39.01726],[-77.48258,39.01735],[-77.48247,39.01807],[-77.48233,39.01806],[-77.48228,39.01816],[-77.48222,39.01815],[-77.48215,39.01844],[-77.48208,39.01842],[-77.48204,39.0187]]]},"properties":{"kind":"building"}},{"type":"Feature","geometry":{"type":"Polygon","coordinates":[[[-77.47279,39.01705],[-77.47262,39.01695],[-77.47294,39.01668],[-77.47284,39.01663],[-77.47301,39.01652],[-77.47416,39.01733],[-77.47412,39.01739],[-77.47406,39.01736],[-77.47371,39.01767],[-77.47357,39.01757],[-77.4734,39.01768],[-77.47268,39.01723],[-77.47279,39.01705]]]},"properties":{"kind":"building"}},{"type":"Feature","geometry":{"type":"Polygon","coordinates":[[[-77.45744,38.99619],[-77.45663,38.99628],[-77.45653,38.99594],[-77.45679,38.99593],[-77.4565,38.99438],[-77.45633,38.99437],[-77.45632,38.99427],[-77.45695,38.99417],[-77.45698,38.99424],[-77.45709,38.99425],[-77.45744,38.99619]]]},"properties":{"kind":"building"}},{"type":"Feature","geometry":{"type":"Polygon","coordinates":[[[-77.46084,39.0184],[-77.45843,39.01823],[-77.45839,39.01837],[-77.45815,39.01836],[-77.45823,39.01766],[-77.45846,39.01768],[-77.45846,39.01771],[-77.461,39.01786],[-77.46098,39.01823],[-77.46086,39.01822],[-77.46084,39.0184]]]},"properties":{"kind":"building"}},{"type":"Feature","geometry":{"type":"Polygon","coordinates":[[[-77.46165,39.0109],[-77.46105,39.01211],[-77.4597,39.01175],[-77.45978,39.01156],[-77.45937,39.01148],[-77.45988,39.01043],[-77.46136,39.01089],[-77.46141,39.01083],[-77.46165,39.0109]]]},"properties":{"kind":"building"}},{"type":"Feature","geometry":{"type":"Polygon","coordinates":[[[-77.45592,38.99648],[-77.45512,38.99652],[-77.45475,38.99425],[-77.45544,38.99416],[-77.45549,38.9943],[-77.45534,38.99434],[-77.45567,38.9961],[-77.45588,38.99608],[-77.45592,38.99648]]]},"properties":{"kind":"building"}},{"type":"Feature","geometry":{"type":"Polygon","coordinates":[[[-77.44017,39.00259],[-77.43944,39.00372],[-77.43864,39.00339],[-77.43944,39.00228],[-77.44017,39.00259]]]},"properties":{"kind":"building"}},{"type":"Feature","geometry":{"type":"Polygon","coordinates":[[[-77.4415,38.98854],[-77.44085,38.98935],[-77.44017,38.98891],[-77.44081,38.98818],[-77.4415,38.98854]]]},"properties":{"kind":"building"}},{"type":"Feature","geometry":{"type":"Polygon","coordinates":[[[-77.47399,39.00285],[-77.47379,39.00336],[-77.4698,39.00261],[-77.47022,39.0014],[-77.47304,39.00198],[-77.4729,39.00228],[-77.47334,39.00239],[-77.47324,39.00268],[-77.47399,39.00285]]]},"properties":{"kind":"building"}},{"type":"Feature","geometry":{"type":"Polygon","coordinates":[[[-77.45224,39.02499],[-77.45164,39.02467],[-77.45257,39.02372],[-77.45312,39.02405],[-77.45224,39.02499]]]},"properties":{"kind":"building"}},{"type":"Feature","geometry":{"type":"Polygon","coordinates":[[[-77.43411,38.99024],[-77.43492,38.98876],[-77.43564,38.98901],[-77.43484,38.9905],[-77.43411,38.99024]]]},"properties":{"kind":"building"}},{"type":"Feature","geometry":{"type":"Polygon","coordinates":[[[-77.47637,39.02067],[-77.47463,39.02041],[-77.47468,39.0202],[-77.47475,39.02021],[-77.47485,39.01983],[-77.47653,39.02008],[-77.47637,39.02067]]]},"properties":{"kind":"building"}},{"type":"Feature","geometry":{"type":"Polygon","coordinates":[[[-77.54992,38.95054],[-77.54977,38.95077],[-77.54865,38.95036],[-77.54934,38.94919],[-77.54926,38.94916],[-77.54929,38.94914],[-77.54919,38.94909],[-77.54922,38.94906],[-77.55053,38.94953],[-77.55052,38.94956],[-77.55043,38.94954],[-77.54984,38.9505],[-77.54992,38.95054]]]},"properties":{"kind":"building"}},{"type":"Feature","geometry":{"type":"Polygon","coordinates":[[[-77.54981,39.05949],[-77.54879,39.05777],[-77.54971,39.05742],[-77.55072,39.05914],[-77.54981,39.05949]]]},"properties":{"kind":"building"}},{"type":"Feature","geometry":{"type":"Polygon","coordinates":[[[-77.45226,39.00156],[-77.45465,39.00151],[-77.45471,39.002],[-77.45227,39.00206],[-77.45102,39.00217],[-77.45102,39.00226],[-77.45093,39.00227],[-77.45081,39.00179],[-77.45091,39.00177],[-77.45088,39.00168],[-77.45226,39.00156]]]},"properties":{"kind":"building"}},{"type":"Feature","geometry":{"type":"Polygon","coordinates":[[[-77.43095,38.99775],[-77.42948,38.99808],[-77.42933,38.99776],[-77.42991,38.99762],[-77.42987,38.99754],[-77.43087,38.99733],[-77.43101,38.99773],[-77.43095,38.99775]]]},"properties":{"kind":"building"}},{"type":"Feature","geometry":{"type":"Polygon","coordinates":[[[-77.43364,38.99284],[-77.43355,38.99274],[-77.43342,38.99224],[-77.4335,38.99215],[-77.43405,38.99201],[-77.43395,38.99174],[-77.43429,38.99168],[-77.4346,38.99268],[-77.43364,38.99284]]]},"properties":{"kind":"building"}},{"type":"Feature","geometry":{"type":"Polygon","coordinates":[[[-77.43113,38.99836],[-77.42974,38.99869],[-77.42951,38.99811],[-77.43095,38.99774],[-77.43113,38.99836]]]},"properties":{"kind":"building"}},{"type":"Feature","geometry":{"type":"Polygon","coordinates":[[[-77.50751,39.07858],[-77.50683,39.07847],[-77.50682,39.0786],[-77.50663,39.07855],[-77.50688,39.0771],[-77.50775,39.0772],[-77.50751,39.07858]]]},"properties":{"kind":"building"}},{"type":"Feature","geometry":{"type":"Polygon","coordinates":[[[-77.55761,39.06638],[-77.55752,39.06637],[-77.5575,39.06581],[-77.55757,39.06579],[-77.55756,39.06584],[-77.55846,39.06581],[-77.55847,39.06578],[-77.55859,39.06576],[-77.55859,39.0658],[-77.55914,39.06577],[-77.55915,39.0658],[-77.55944,39.06582],[-77.55944,39.06579],[-77.55954,39.06577],[-77.55954,39.06581],[-77.55984,39.06582],[-77.55984,39.06578],[-77.55999,39.06577],[-77.56003,39.06632],[-77.55858,39.06631],[-77.55762,39.06634],[-77.55761,39.06638]]]},"properties":{"kind":"building"}},{"type":"Feature","geometry":{"type":"Polygon","coordinates":[[[-77.50589,39.07786],[-77.50549,39.07834],[-77.50402,39.07756],[-77.50502,39.07639],[-77.50649,39.07719],[-77.50608,39.07766],[-77.50616,39.07771],[-77.50598,39.07791],[-77.50589,39.07786]]]},"properties":{"kind":"building"}},{"type":"Feature","geometry":{"type":"Polygon","coordinates":[[[-77.43618,38.98624],[-77.43497,38.98737],[-77.43434,38.98696],[-77.43557,38.98588],[-77.43618,38.98624]]]},"properties":{"kind":"building"}},{"type":"Feature","geometry":{"type":"Polygon","coordinates":[[[-77.45192,39.01431],[-77.45188,39.01426],[-77.45148,39.0142],[-77.45145,39.01425],[-77.45138,39.01424],[-77.45137,39.0142],[-77.45128,39.01417],[-77.45152,39.01328],[-77.45168,39.01332],[-77.45168,39.01328],[-77.45214,39.01338],[-77.45216,39.01334],[-77.45232,39.01336],[-77.45209,39.01427],[-77.45201,39.01426],[-77.45199,39.01433],[-77.45192,39.01431]]]},"properties":{"kind":"building"}},{"type":"Feature","geometry":{"type":"Polygon","coordinates":[[[-77.5594,38.94935],[-77.55929,38.95099],[-77.55902,38.95098],[-77.55902,38.95093],[-77.55853,38.95092],[-77.55858,38.94932],[-77.5594,38.94935]]]},"properties":{"kind":"building"}},{"type":"Feature","geometry":{"type":"Polygon","coordinates":[[[-77.46005,38.99952],[-77.45986,38.99953],[-77.45984,38.99932],[-77.45993,38.99931],[-77.45992,38.99893],[-77.46193,38.99891],[-77.46194,38.9995],[-77.46005,38.99956],[-77.46005,38.99952]]]},"properties":{"kind":"building"}},{"type":"Feature","geometry":{"type":"Polygon","coordinates":[[[-77.46185,39.00072],[-77.45979,39.0008],[-77.45972,39.0002],[-77.46186,39.00011],[-77.46185,39.00072]]]},"properties":{"kind":"building"}},{"type":"Feature","geometry":{"type":"Polygon","coordinates":[[[-77.5473,39.0573],[-77.54708,39.0586],[-77.54629,39.05851],[-77.54654,39.05714],[-77.54679,39.05717],[-77.54679,39.05723],[-77.5473,39.0573]]]},"properties":{"kind":"building"}},{"type":"Feature","geometry":{"type":"Polygon","coordinates":[[[-77.55948,38.94731],[-77.5594,38.94895],[-77.55913,38.94893],[-77.55914,38.94888],[-77.55862,38.94887],[-77.55872,38.94729],[-77.55948,38.94731]]]},"properties":{"kind":"building"}},{"type":"Feature","geometry":{"type":"Polygon","coordinates":[[[-77.48997,38.96105],[-77.49025,38.9616],[-77.4902,38.96162],[-77.49063,38.96251],[-77.49077,38.96249],[-77.49083,38.96258],[-77.49075,38.96261],[-77.4908,38.9627],[-77.4907,38.96275],[-77.49074,38.96282],[-77.49084,38.96279],[-77.49099,38.96312],[-77.49089,38.96316],[-77.49124,38.96391],[-77.49023,38.96421],[-77.4888,38.9614],[-77.48997,38.96105]]]},"properties":{"kind":"building"}},{"type":"Feature","geometry":{"type":"Polygon","coordinates":[[[-77.56471,39.08126],[-77.56568,39.08129],[-77.56556,39.08331],[-77.56458,39.08327],[-77.56471,39.08126]]]},"properties":{"kind":"building"}},{"type":"Feature","geometry":{"type":"Polygon","coordinates":[[[-77.48468,38.96675],[-77.48721,38.96602],[-77.48762,38.96683],[-77.48668,38.96709],[-77.48676,38.96725],[-77.48664,38.96729],[-77.48659,38.96723],[-77.48646,38.96726],[-77.48643,38.96721],[-77.48586,38.96738],[-77.48582,38.96733],[-77.48509,38.96757],[-77.48468,38.96675]]]},"properties":{"kind":"building"}},{"type":"Feature","geometry":{"type":"Polygon","coordinates":[[[-77.43414,39.01479],[-77.43545,39.01498],[-77.43506,39.01667],[-77.43408,39.01652],[-77.4341,39.01637],[-77.43377,39.01633],[-77.43414,39.01479]]]},"properties":{"kind":"building"}},{"type":"Feature","geometry":{"type":"Polygon","coordinates":[[[-77.44099,39.01073],[-77.44121,39.00908],[-77.44205,39.00913],[-77.44183,39.01081],[-77.44099,39.01073]]]},"properties":{"kind":"building"}},{"type":"Feature","geometry":{"type":"Polygon","coordinates":[[[-77.44379,39.00739],[-77.44419,39.00797],[-77.4423,39.00871],[-77.44188,39.00811],[-77.44379,39.00739]]]},"properties":{"kind":"building"}},{"type":"Feature","geometry":{"type":"Polygon","coordinates":[[[-77.4452,39.00538],[-77.44524,39.00487],[-77.4475,39.00498],[-77.44747,39.00523],[-77.44733,39.00522],[-77.44729,39.00553],[-77.4452,39.00538]]]},"properties":{"kind":"building"}},{"type":"Feature","geometry":{"type":"Polygon","coordinates":[[[-77.44874,39.00447],[-77.44797,39.00437],[-77.44836,39.00269],[-77.44855,39.00272],[-77.44854,39.00282],[-77.44909,39.0029],[-77.44874,39.00447]]]},"properties":{"kind":"building"}},{"type":"Feature","geometry":{"type":"Polygon","coordinates":[[[-77.44723,39.00293],[-77.44698,39.00446],[-77.44672,39.00444],[-77.44675,39.00433],[-77.44623,39.00427],[-77.44648,39.00285],[-77.44723,39.00293]]]},"properties":{"kind":"building"}},{"type":"Feature","geometry":{"type":"Polygon","coordinates":[[[-77.48781,38.96336],[-77.48822,38.96416],[-77.48501,38.96508],[-77.48459,38.96423],[-77.48563,38.96393],[-77.48557,38.96379],[-77.48572,38.96376],[-77.48577,38.96384],[-77.48633,38.9637],[-77.48639,38.96376],[-77.48781,38.96336]]]},"properties":{"kind":"building"}},{"type":"Feature","geometry":{"type":"Polygon","coordinates":[[[-77.48784,38.96271],[-77.48672,38.96302],[-77.48644,38.96246],[-77.48658,38.96243],[-77.48625,38.96182],[-77.48598,38.9619],[-77.48587,38.96169],[-77.48596,38.96166],[-77.48576,38.96129],[-77.4859,38.96125],[-77.48536,38.96012],[-77.48639,38.95982],[-77.48784,38.96271]]]},"properties":{"kind":"building"}},{"type":"Feature","geometry":{"type":"Polygon","coordinates":[[[-77.45822,38.99497],[-77.45825,38.9941],[-77.45949,38.99411],[-77.45949,38.99415],[-77.46038,38.99415],[-77.4604,38.99495],[-77.45822,38.99497]]]},"properties":{"kind":"building"}},{"type":"Feature","geometry":{"type":"Polygon","coordinates":[[[-77.45854,38.99636],[-77.45853,38.99549],[-77.45934,38.99548],[-77.45933,38.99555],[-77.46065,38.99556],[-77.46069,38.99633],[-77.45854,38.99636]]]},"properties":{"kind":"building"}},{"type":"Feature","geometry":{"type":"Polygon","coordinates":[[[-77.46151,38.99411],[-77.46259,38.99411],[-77.46257,38.99504],[-77.46239,38.99504],[-77.46238,38.99522],[-77.46231,38.99523],[-77.46229,38.99589],[-77.46148,38.99589],[-77.46151,38.99411]]]},"properties":{"kind":"building"}},{"type":"Feature","geometry":{"type":"Polygon","coordinates":[[[-77.49503,38.98177],[-77.49435,38.98197],[-77.49347,38.98049],[-77.49417,38.98028],[-77.49503,38.98177]]]},"properties":{"kind":"building"}},{"type":"Feature","geometry":{"type":"Polygon","coordinates":[[[-77.49588,38.98158],[-77.49497,38.98005],[-77.49568,38.97985],[-77.49657,38.98138],[-77.49588,38.98158]]]},"properties":{"kind":"building"}},{"type":"Feature","geometry":{"type":"Polygon","coordinates":[[[-77.49399,38.98008],[-77.4933,38.9803],[-77.49246,38.97879],[-77.49319,38.97857],[-77.49399,38.98008]]]},"properties":{"kind":"building"}},{"type":"Feature","geometry":{"type":"Polygon","coordinates":[[[-77.49453,38.978],[-77.49559,38.97967],[-77.49485,38.97986],[-77.49383,38.97812],[-77.49401,38.97806],[-77.49408,38.97814],[-77.49453,38.978]]]},"properties":{"kind":"building"}},{"type":"Feature","geometry":{"type":"Polygon","coordinates":[[[-77.49367,38.97803],[-77.49351,38.9778],[-77.49414,38.97758],[-77.49427,38.9778],[-77.49383,38.97795],[-77.49384,38.97797],[-77.49367,38.97803]]]},"properties":{"kind":"building"}},{"type":"Feature","geometry":{"type":"Polygon","coordinates":[[[-77.49312,38.9582],[-77.49366,38.95926],[-77.49258,38.95956],[-77.49112,38.95686],[-77.49231,38.95651],[-77.49261,38.9571],[-77.49251,38.95712],[-77.49276,38.95762],[-77.49293,38.95758],[-77.49297,38.95767],[-77.49291,38.95768],[-77.49298,38.95784],[-77.49291,38.95786],[-77.49295,38.95794],[-77.49302,38.95791],[-77.49317,38.95819],[-77.49312,38.9582]]]},"properties":{"kind":"building"}},{"type":"Feature","geometry":{"type":"Polygon","coordinates":[[[-77.48859,38.96105],[-77.4876,38.9591],[-77.4887,38.95878],[-77.48917,38.95968],[-77.48935,38.95963],[-77.48944,38.9598],[-77.48927,38.95985],[-77.4893,38.95991],[-77.48938,38.9599],[-77.48975,38.96061],[-77.48964,38.96065],[-77.48969,38.96073],[-77.48859,38.96105]]]},"properties":{"kind":"building"}},{"type":"Feature","geometry":{"type":"Polygon","coordinates":[[[-77.49003,38.95932],[-77.48912,38.95739],[-77.49019,38.95708],[-77.49059,38.95788],[-77.49078,38.95783],[-77.4908,38.95788],[-77.49076,38.95789],[-77.49082,38.958],[-77.49071,38.95802],[-77.49074,38.95808],[-77.4908,38.95807],[-77.49117,38.95884],[-77.49107,38.95887],[-77.49112,38.95899],[-77.49003,38.95932]]]},"properties":{"kind":"building"}},{"type":"Feature","geometry":{"type":"Polygon","coordinates":[[[-77.49748,38.95487],[-77.49589,38.95549],[-77.49551,38.95492],[-77.4971,38.95431],[-77.49748,38.95487]]]},"properties":{"kind":"building"}},{"type":"Feature","geometry":{"type":"Polygon","coordinates":[[[-77.49674,38.95367],[-77.49516,38.95429],[-77.49479,38.95373],[-77.4964,38.95312],[-77.49674,38.95367]]]},"properties":{"kind":"building"}},{"type":"Feature","geometry":{"type":"Polygon","coordinates":[[[-77.49589,38.95232],[-77.49623,38.95288],[-77.49464,38.9535],[-77.4943,38.95293],[-77.49589,38.95232]]]},"properties":{"kind":"building"}},{"type":"Feature","geometry":{"type":"Polygon","coordinates":[[[-77.49322,38.95122],[-77.49393,38.95097],[-77.49478,38.95233],[-77.49405,38.95259],[-77.49322,38.95122]]]},"properties":{"kind":"building"}},{"type":"Feature","geometry":{"type":"Polygon","coordinates":[[[-77.49092,38.95475],[-77.48973,38.9551],[-77.48859,38.95264],[-77.48974,38.95233],[-77.49092,38.95475]]]},"properties":{"kind":"building"}},{"type":"Feature","geometry":{"type":"Polygon","coordinates":[[[-77.48932,38.95582],[-77.48819,38.95613],[-77.48729,38.95412],[-77.48841,38.95382],[-77.48932,38.95582]]]},"properties":{"kind":"building"}},{"type":"Feature","geometry":{"type":"Polygon","coordinates":[[[-77.48787,38.95678],[-77.48679,38.95707],[-77.48559,38.95458],[-77.48666,38.95429],[-77.48787,38.95678]]]},"properties":{"kind":"building"}},{"type":"Feature","geometry":{"type":"Polygon","coordinates":[[[-77.48594,38.95745],[-77.48477,38.95778],[-77.48341,38.95485],[-77.48458,38.95451],[-77.48594,38.95745]]]},"properties":{"kind":"building"}},{"type":"Feature","geometry":{"type":"Polygon","coordinates":[[[-77.4612,39.00251],[-77.46046,39.00254],[-77.46037,39.0009],[-77.46115,39.00088],[-77.4612,39.00251]]]},"properties":{"kind":"building"}},{"type":"Feature","geometry":{"type":"Polygon","coordinates":[[[-77.46923,39.00257],[-77.46899,39.00252],[-77.46893,39.00268],[-77.46751,39.00236],[-77.46756,39.00219],[-77.46728,39.00212],[-77.4676,39.00103],[-77.4696,39.00146],[-77.46923,39.00257]]]},"properties":{"kind":"building"}},{"type":"Feature","geometry":{"type":"Polygon","coordinates":[[[-77.41238,39.02675],[-77.41033,39.02616],[-77.41061,39.02556],[-77.41267,39.02616],[-77.41238,39.02675]]]},"properties":{"kind":"building"}},{"type":"Feature","geometry":{"type":"Polygon","coordinates":[[[-77.41017,39.02492],[-77.41002,39.02488],[-77.41006,39.02481],[-77.40949,39.02465],[-77.40991,39.02373],[-77.41063,39.02395],[-77.41017,39.02492]]]},"properties":{"kind":"building"}},{"type":"Feature","geometry":{"type":"Polygon","coordinates":[[[-77.40919,39.02546],[-77.40941,39.02496],[-77.40967,39.02505],[-77.40946,39.02555],[-77.40919,39.02546]]]},"properties":{"kind":"building"}},{"type":"Feature","geometry":{"type":"Polygon","coordinates":[[[-77.40863,39.02339],[-77.40813,39.02463],[-77.40739,39.02445],[-77.40791,39.02316],[-77.40805,39.02319],[-77.40802,39.02326],[-77.40863,39.02339]]]},"properties":{"kind":"building"}},{"type":"Feature","geometry":{"type":"Polygon","coordinates":[[[-77.41004,39.02265],[-77.40837,39.02217],[-77.40862,39.02159],[-77.41032,39.02209],[-77.41004,39.02265]]]},"properties":{"kind":"building"}},{"type":"Feature","geometry":{"type":"Polygon","coordinates":[[[-77.41461,39.02264],[-77.41392,39.02239],[-77.41481,39.02086],[-77.41553,39.02113],[-77.41461,39.02264]]]},"properties":{"kind":"building"}},{"type":"Feature","geometry":{"type":"Polygon","coordinates":[[[-77.41744,39.02316],[-77.41719,39.02357],[-77.41564,39.02295],[-77.41599,39.02242],[-77.41756,39.02307],[-77.41749,39.02318],[-77.41744,39.02316]]]},"properties":{"kind":"building"}},{"type":"Feature","geometry":{"type":"Polygon","coordinates":[[[-77.42465,39.02579],[-77.42479,39.02729],[-77.42382,39.02735],[-77.42368,39.02585],[-77.42465,39.02579]]]},"properties":{"kind":"building"}},{"type":"Feature","geometry":{"type":"Polygon","coordinates":[[[-77.4286,39.01974],[-77.42859,39.02045],[-77.42693,39.02043],[-77.42694,39.01972],[-77.4286,39.01974]]]},"properties":{"kind":"building"}},{"type":"Feature","geometry":{"type":"Polygon","coordinates":[[[-77.43404,39.03668],[-77.43404,39.03688],[-77.43386,39.03688],[-77.4339,39.03766],[-77.43402,39.03766],[-77.43402,39.03787],[-77.4339,39.03787],[-77.43388,39.03864],[-77.43401,39.03864],[-77.434,39.03874],[-77.43276,39.03873],[-77.43276,39.03845],[-77.43287,39.03845],[-77.43289,39.03685],[-77.43276,39.03685],[-77.43277,39.03665],[-77.43404,39.03668]]]},"properties":{"kind":"building"}},{"type":"Feature","geometry":{"type":"Polygon","coordinates":[[[-77.44736,39.02735],[-77.44737,39.02753],[-77.44698,39.02752],[-77.44697,39.02734],[-77.44674,39.02734],[-77.44673,39.02614],[-77.44659,39.02614],[-77.4466,39.02587],[-77.44674,39.02587],[-77.44674,39.02565],[-77.44733,39.02566],[-77.44733,39.02584],[-77.44756,39.02585],[-77.44759,39.02734],[-77.44736,39.02735]]]},"properties":{"kind":"building"}},{"type":"Feature","geometry":{"type":"Polygon","coordinates":[[[-77.44606,39.02687],[-77.44607,39.02736],[-77.44584,39.02736],[-77.44583,39.02754],[-77.44418,39.02754],[-77.44417,39.02736],[-77.44395,39.02736],[-77.44394,39.02705],[-77.44416,39.02705],[-77.44414,39.02688],[-77.44536,39.02687],[-77.44537,39.02676],[-77.44572,39.02676],[-77.44572,39.02687],[-77.44606,39.02687]]]},"properties":{"kind":"building"}},{"type":"Feature","geometry":{"type":"Polygon","coordinates":[[[-77.44577,39.02606],[-77.44578,39.02631],[-77.44519,39.02632],[-77.44519,39.02614],[-77.44495,39.02613],[-77.44493,39.02531],[-77.44515,39.02531],[-77.44516,39.02513],[-77.44555,39.02514],[-77.44555,39.02531],[-77.44578,39.02531],[-77.44578,39.0258],[-77.44592,39.02579],[-77.44591,39.02607],[-77.44577,39.02606]]]},"properties":{"kind":"building"}},{"type":"Feature","geometry":{"type":"Polygon","coordinates":[[[-77.50343,39.08074],[-77.50195,39.07997],[-77.50293,39.0788],[-77.50441,39.07959],[-77.504,39.08006],[-77.50409,39.0801],[-77.50391,39.08031],[-77.50383,39.08027],[-77.50343,39.08074]]]},"properties":{"kind":"building"}},{"type":"Feature","geometry":{"type":"Polygon","coordinates":[[[-77.50489,39.08081],[-77.50507,39.08059],[-77.50517,39.08064],[-77.50549,39.08021],[-77.50699,39.08095],[-77.50608,39.08214],[-77.5046,39.08137],[-77.50498,39.08086],[-77.50489,39.08081]]]},"properties":{"kind":"building"}},{"type":"Feature","geometry":{"type":"Polygon","coordinates":[[[-77.51696,39.07501],[-77.51948,39.07398],[-77.51985,39.07454],[-77.51733,39.07557],[-77.51696,39.07501]]]},"properties":{"kind":"building"}},{"type":"Feature","geometry":{"type":"Polygon","coordinates":[[[-77.51803,39.07334],[-77.51841,39.07383],[-77.51571,39.07495],[-77.51533,39.07446],[-77.51803,39.07334]]]},"properties":{"kind":"building"}},{"type":"Feature","geometry":{"type":"Polygon","coordinates":[[[-77.51512,39.074],[-77.51471,39.07348],[-77.51713,39.07249],[-77.51753,39.07301],[-77.51512,39.074]]]},"properties":{"kind":"building"}},{"type":"Feature","geometry":{"type":"Polygon","coordinates":[[[-77.53235,39.0785],[-77.5316,39.07704],[-77.53228,39.07685],[-77.53301,39.0783],[-77.53235,39.0785]]]},"properties":{"kind":"building"}},{"type":"Feature","geometry":{"type":"Polygon","coordinates":[[[-77.5345,39.0779],[-77.53382,39.07808],[-77.53312,39.07662],[-77.53379,39.07643],[-77.5345,39.0779]]]},"properties":{"kind":"building"}},{"type":"Feature","geometry":{"type":"Polygon","coordinates":[[[-77.53614,39.07742],[-77.53546,39.07762],[-77.53478,39.07615],[-77.53545,39.07595],[-77.53614,39.07742]]]},"properties":{"kind":"building"}},{"type":"Feature","geometry":{"type":"Polygon","coordinates":[[[-77.49408,39.07591],[-77.4946,39.07525],[-77.49599,39.07591],[-77.49549,39.07658],[-77.49408,39.07591]]]},"properties":{"kind":"building"}},{"type":"Feature","geometry":{"type":"Polygon","coordinates":[[[-77.49572,39.0767],[-77.49624,39.07603],[-77.49758,39.07667],[-77.4971,39.07735],[-77.49572,39.0767]]]},"properties":{"kind":"building"}},{"type":"Feature","geometry":{"type":"Polygon","coordinates":[[[-77.47943,39.06602],[-77.48031,39.06648],[-77.47905,39.06785],[-77.4782,39.06736],[-77.47943,39.06602]]]},"properties":{"kind":"building"}},{"type":"Feature","geometry":{"type":"Polygon","coordinates":[[[-77.47716,39.00569],[-77.47895,39.00649],[-77.47815,39.00747],[-77.4779,39.00738],[-77.47776,39.00757],[-77.47646,39.00696],[-77.47662,39.00676],[-77.47638,39.00666],[-77.47716,39.00569]]]},"properties":{"kind":"building"}},{"type":"Feature","geometry":{"type":"Polygon","coordinates":[[[-77.47989,39.00514],[-77.47919,39.00615],[-77.47894,39.00605],[-77.47879,39.00625],[-77.47749,39.00566],[-77.47762,39.00547],[-77.47738,39.00536],[-77.47808,39.00437],[-77.47989,39.00514]]]},"properties":{"kind":"building"}},{"type":"Feature","geometry":{"type":"Polygon","coordinates":[[[-77.48346,39.00628],[-77.48275,39.00663],[-77.48269,39.00655],[-77.48265,39.00657],[-77.48227,39.00611],[-77.4823,39.0061],[-77.48167,39.00533],[-77.48164,39.00534],[-77.48132,39.00493],[-77.48147,39.00486],[-77.48138,39.00473],[-77.48189,39.00449],[-77.48198,39.00459],[-77.48208,39.00454],[-77.48222,39.00471],[-77.48234,39.00465],[-77.48266,39.00507],[-77.48283,39.00499],[-77.48315,39.00539],[-77.4829,39.0055],[-77.48339,39.00611],[-77.48334,39.00613],[-77.48346,39.00628]]]},"properties":{"kind":"building"}},{"type":"Feature","geometry":{"type":"Polygon","coordinates":[[[-77.48024,39.00734],[-77.47966,39.00725],[-77.47985,39.00662],[-77.47995,39.00664],[-77.48022,39.00579],[-77.48011,39.00577],[-77.48031,39.00515],[-77.48088,39.00526],[-77.48085,39.00545],[-77.48096,39.00547],[-77.48091,39.00566],[-77.48097,39.00567],[-77.48071,39.00651],[-77.48083,39.00654],[-77.48078,39.0067],[-77.48065,39.00667],[-77.48049,39.00719],[-77.48032,39.00718],[-77.48024,39.00734]]]},"properties":{"kind":"building"}},{"type":"Feature","geometry":{"type":"Polygon","coordinates":[[[-77.55018,38.9445],[-77.54972,38.945],[-77.54802,38.94406],[-77.54845,38.94355],[-77.55018,38.9445]]]},"properties":{"kind":"building"}},{"type":"Feature","geometry":{"type":"Polygon","coordinates":[[[-77.54728,38.94262],[-77.54697,38.9431],[-77.5453,38.94243],[-77.54561,38.94195],[-77.54728,38.94262]]]},"properties":{"kind":"building"}},{"type":"Feature","geometry":{"type":"Polygon","coordinates":[[[-77.54832,38.94173],[-77.54795,38.94226],[-77.54587,38.94139],[-77.54618,38.94088],[-77.54832,38.94173]]]},"properties":{"kind":"building"}},{"type":"Feature","geometry":{"type":"Polygon","coordinates":[[[-77.54864,38.94653],[-77.54892,38.9471],[-77.54699,38.94767],[-77.54669,38.94711],[-77.54864,38.94653]]]},"properties":{"kind":"building"}},{"type":"Feature","geometry":{"type":"Polygon","coordinates":[[[-77.54618,38.94529],[-77.5469,38.94656],[-77.54618,38.94678],[-77.54545,38.94553],[-77.54618,38.94529]]]},"properties":{"kind":"building"}},{"type":"Feature","geometry":{"type":"Polygon","coordinates":[[[-77.54598,38.94666],[-77.54565,38.94676],[-77.54539,38.94627],[-77.54571,38.94618],[-77.54598,38.94666]]]},"properties":{"kind":"building"}},{"type":"Feature","geometry":{"type":"Polygon","coordinates":[[[-77.54856,38.9552],[-77.547,38.95525],[-77.54698,38.95436],[-77.54854,38.95432],[-77.54856,38.9552]]]},"properties":{"kind":"building"}},{"type":"Feature","geometry":{"type":"Polygon","coordinates":[[[-77.54739,38.95693],[-77.54586,38.957],[-77.54578,38.95606],[-77.54734,38.95601],[-77.54739,38.95693]]]},"properties":{"kind":"building"}},{"type":"Feature","geometry":{"type":"Polygon","coordinates":[[[-77.54581,38.95651],[-77.54427,38.95654],[-77.54422,38.95611],[-77.54578,38.95607],[-77.54581,38.95651]]]},"properties":{"kind":"building"}},{"type":"Feature","geometry":{"type":"Polygon","coordinates":[[[-77.54636,38.95438],[-77.54639,38.95525],[-77.54485,38.9553],[-77.5448,38.95442],[-77.54636,38.95438]]]},"properties":{"kind":"building"}},{"type":"Feature","geometry":{"type":"Polygon","coordinates":[[[-77.5448,38.95441],[-77.54485,38.9553],[-77.54328,38.95533],[-77.54324,38.95445],[-77.5448,38.95441]]]},"properties":{"kind":"building"}},{"type":"Feature","geometry":{"type":"Polygon","coordinates":[[[-77.55118,38.94834],[-77.55046,38.9495],[-77.54941,38.94913],[-77.55017,38.94787],[-77.55126,38.94829],[-77.55122,38.94835],[-77.55118,38.94834]]]},"properties":{"kind":"building"}},{"type":"Feature","geometry":{"type":"Polygon","coordinates":[[[-77.53298,38.94212],[-77.532,38.9426],[-77.53127,38.94167],[-77.53224,38.94119],[-77.53298,38.94212]]]},"properties":{"kind":"building"}},{"type":"Feature","geometry":{"type":"Polygon","coordinates":[[[-77.53224,38.94119],[-77.53128,38.94166],[-77.53061,38.9408],[-77.53158,38.94032],[-77.53224,38.94119]]]},"properties":{"kind":"building"}},{"type":"Feature","geometry":{"type":"Polygon","coordinates":[[[-77.53975,38.9467],[-77.54057,38.94541],[-77.54112,38.94565],[-77.54028,38.94695],[-77.53975,38.9467]]]},"properties":{"kind":"building"}},{"type":"Feature","geometry":{"type":"Polygon","coordinates":[[[-77.48481,38.92186],[-77.48479,38.92202],[-77.4847,38.92201],[-77.48465,38.92244],[-77.48264,38.92228],[-77.4827,38.92168],[-77.48481,38.92186]]]},"properties":{"kind":"building"}},{"type":"Feature","geometry":{"type":"Polygon","coordinates":[[[-77.4849,38.92051],[-77.48483,38.92113],[-77.48273,38.92096],[-77.48274,38.92085],[-77.48281,38.92086],[-77.48287,38.92036],[-77.4849,38.92051]]]},"properties":{"kind":"building"}},{"type":"Feature","geometry":{"type":"Polygon","coordinates":[[[-77.56572,39.08063],[-77.56469,39.08088],[-77.56433,39.07975],[-77.56477,39.07965],[-77.56479,39.07974],[-77.565,39.07969],[-77.56506,39.07991],[-77.56541,39.07981],[-77.56572,39.08063]]]},"properties":{"kind":"building"}},{"type":"Feature","geometry":{"type":"Polygon","coordinates":[[[-77.5239,39.03089],[-77.52505,39.0313],[-77.525,39.03137],[-77.52496,39.03135],[-77.52442,39.03221],[-77.52446,39.03222],[-77.52441,39.0323],[-77.52326,39.0319],[-77.5233,39.03182],[-77.52335,39.03183],[-77.52389,39.03098],[-77.52385,39.03096],[-77.5239,39.03089]]]},"properties":{"kind":"building"}},{"type":"Feature","geometry":{"type":"Polygon","coordinates":[[[-77.52322,39.03189],[-77.52436,39.03228],[-77.5238,39.03317],[-77.52384,39.03318],[-77.5238,39.03326],[-77.52265,39.03283],[-77.5227,39.03276],[-77.52276,39.03278],[-77.52327,39.03198],[-77.52318,39.03194],[-77.52322,39.03189]]]},"properties":{"kind":"building"}},{"type":"Feature","geometry":{"type":"Polygon","coordinates":[[[-77.52271,39.03285],[-77.52373,39.03324],[-77.52316,39.03413],[-77.52321,39.03415],[-77.52317,39.03421],[-77.52204,39.03381],[-77.52209,39.03374],[-77.52213,39.03376],[-77.52271,39.03285]]]},"properties":{"kind":"building"}},{"type":"Feature","geometry":{"type":"Polygon","coordinates":[[[-77.53194,38.96053],[-77.53184,38.96073],[-77.53126,38.96055],[-77.53127,38.96053],[-77.53114,38.96049],[-77.53115,38.96046],[-77.53036,38.96023],[-77.53035,38.96026],[-77.53022,38.96022],[-77.53023,38.96019],[-77.52944,38.95996],[-77.52943,38.95998],[-77.5293,38.95995],[-77.5293,38.95992],[-77.52891,38.95979],[-77.52925,38.95913],[-77.53223,38.9601],[-77.53201,38.96056],[-77.53194,38.96053]]]},"properties":{"kind":"building"}},{"type":"Feature","geometry":{"type":"Polygon","coordinates":[[[-77.52655,38.95953],[-77.52655,38.96014],[-77.52633,38.96014],[-77.52633,38.96011],[-77.52557,38.96011],[-77.52557,38.96013],[-77.52542,38.96013],[-77.52542,38.9601],[-77.52496,38.9601],[-77.52496,38.96013],[-77.52481,38.96012],[-77.52445,38.95986],[-77.5244,38.95976],[-77.52445,38.95974],[-77.52385,38.95898],[-77.5238,38.95899],[-77.52372,38.95883],[-77.52455,38.95859],[-77.52516,38.95952],[-77.52655,38.95953]]]},"properties":{"kind":"building"}},{"type":"Feature","geometry":{"type":"Polygon","coordinates":[[[-77.52135,38.95439],[-77.5206,38.95448],[-77.52022,38.95286],[-77.52097,38.95276],[-77.52135,38.95439]]]},"properties":{"kind":"building"}},{"type":"Feature","geometry":{"type":"Polygon","coordinates":[[[-77.51657,38.955],[-77.51623,38.95328],[-77.51773,38.95313],[-77.51808,38.95486],[-77.51657,38.955]]]},"properties":{"kind":"building"}},{"type":"Feature","geometry":{"type":"Polygon","coordinates":[[[-77.53506,38.95686],[-77.53731,38.95755],[-77.53723,38.95773],[-77.53716,38.95772],[-77.53698,38.95811],[-77.5348,38.95742],[-77.53506,38.95686]]]},"properties":{"kind":"building"}},{"type":"Feature","geometry":{"type":"Polygon","coordinates":[[[-77.53775,38.9572],[-77.53552,38.95648],[-77.53559,38.9563],[-77.53568,38.95633],[-77.53588,38.95597],[-77.53803,38.95665],[-77.53775,38.9572]]]},"properties":{"kind":"building"}},{"type":"Feature","geometry":{"type":"Polygon","coordinates":[[[-77.53525,38.95641],[-77.53294,38.95567],[-77.53303,38.95549],[-77.53317,38.95554],[-77.53337,38.95516],[-77.53552,38.95583],[-77.53525,38.95641]]]},"properties":{"kind":"building"}},{"type":"Feature","geometry":{"type":"Polygon","coordinates":[[[-77.53249,38.95602],[-77.53472,38.95672],[-77.53466,38.95688],[-77.53454,38.95684],[-77.53436,38.95727],[-77.5322,38.95658],[-77.53249,38.95602]]]},"properties":{"kind":"building"}},{"type":"Feature","geometry":{"type":"Polygon","coordinates":[[[-77.44677,38.99479],[-77.44595,38.99561],[-77.44574,38.99568],[-77.44547,38.99554],[-77.44563,38.99538],[-77.44542,38.99527],[-77.44619,38.9945],[-77.44625,38.99454],[-77.4463,38.99449],[-77.44633,38.99451],[-77.44638,38.99447],[-77.44674,38.99467],[-77.44671,38.99471],[-77.44677,38.99473],[-77.44672,38.99477],[-77.44677,38.99479]]]},"properties":{"kind":"building"}},{"type":"Feature","geometry":{"type":"Polygon","coordinates":[[[-77.44149,38.98854],[-77.44081,38.98818],[-77.44118,38.98777],[-77.44186,38.98812],[-77.44149,38.98854]]]},"properties":{"kind":"building"}}]}
