{"type":"FeatureCollection","generated":"2026-08-06","source":"Loudoun County GIS","features":[{"type":"Feature","geometry":{"type":"Point","coordinates":[-77.413159,39.023261]},"properties":{"id":"lc-ex-001","name":"Nokes Plaza","operator":"Medina DC 2 Assets LLC","status":"operational","status_raw":"BUILT","district":"Sterling","sqft":88490,"acres":6.24,"zoning":"PDIP","zoning_case":null,"parcel_id":"030297084000","policy_area":"Suburban","source":"Loudoun County GIS \u2014 Existing Data Center Parcels"}},{"type":"Feature","geometry":{"type":"Point","coordinates":[-77.415248,39.023877]},"properties":{"id":"lc-ex-002","name":"Nokes Plaza","operator":"Medina DC 2 Assets LLC","status":"operational","status_raw":"BUILT","district":"Sterling","sqft":76811,"acres":6.02,"zoning":"PDIP","zoning_case":null,"parcel_id":"030391106000","policy_area":"Suburban","source":"Loudoun County GIS \u2014 Existing Data Center Parcels"}},{"type":"Feature","geometry":{"type":"Point","coordinates":[-77.440864,38.98852]},"properties":{"id":"lc-ex-003","name":"Aligned Energy","operator":"Aligned Data Centers Relo Propco LLC","status":"operational","status_raw":"BUILT","district":"Sterling","sqft":372751,"acres":10.18,"zoning":"OP","zoning_case":"ZMAP-2022-0008","parcel_id":"045279612000","policy_area":"Suburban","source":"Loudoun County GIS \u2014 Existing Data Center Parcels"}},{"type":"Feature","geometry":{"type":"Point","coordinates":[-77.434731,39.021509]},"properties":{"id":"lc-ex-004","name":"Staverton/severn","operator":"Electric Building LLC","status":"operational","status_raw":"BUILT","district":"Sterling","sqft":36000,"acres":2.75,"zoning":"PDIP","zoning_case":null,"parcel_id":"042295813000","policy_area":"Suburban","source":"Loudoun County GIS \u2014 Existing Data Center Parcels"}},{"type":"Feature","geometry":{"type":"Point","coordinates":[-77.454865,39.022651]},"properties":{"id":"lc-ex-005","name":"Beaumeade","operator":"Ragingwire Data Centers Inc","status":"operational","status_raw":"BUILT","district":"Broad Run","sqft":109320,"acres":7.2,"zoning":"IP","zoning_case":"ZRTD-2010-0005","parcel_id":"060298548000","policy_area":"Suburban","source":"Loudoun County GIS \u2014 Existing Data Center Parcels"}},{"type":"Feature","geometry":{"type":"Point","coordinates":[-77.45114,39.020877]},"properties":{"id":"lc-ex-006","name":"Beaumeade","operator":"Beaumeade Technology Partners LLC","status":"operational","status_raw":"BUILT","district":"Broad Run","sqft":152504,"acres":10.71,"zoning":"IP","zoning_case":null,"parcel_id":"060108050000","policy_area":"Suburban","source":"Loudoun County GIS \u2014 Existing Data Center Parcels"}},{"type":"Feature","geometry":{"type":"Point","coordinates":[-77.412337,39.024797]},"properties":{"id":"lc-ex-007","name":"Loudoun Tech Center","operator":"Medina DC 2 Assets LLC","status":"operational","status_raw":"BUILT","district":"Sterling","sqft":136482,"acres":8.49,"zoning":"PDIP","zoning_case":null,"parcel_id":"030399036000","policy_area":"Suburban","source":"Loudoun County GIS \u2014 Existing Data Center Parcels"}},{"type":"Feature","geometry":{"type":"Point","coordinates":[-77.453288,39.021935]},"properties":{"id":"lc-ex-008","name":"Beaumeade","operator":"Monterey DC Assets LLC","status":"operational","status_raw":"BUILT","district":"Broad Run","sqft":164405,"acres":14.01,"zoning":"IP","zoning_case":null,"parcel_id":"060202337000","policy_area":"Suburban","source":"Loudoun County GIS \u2014 Existing Data Center Parcels"}},{"type":"Feature","geometry":{"type":"Point","coordinates":[-77.443685,38.997733]},"properties":{"id":"lc-ex-009","name":"Broad Run Technology Park","operator":"Verisign Inc","status":"operational","status_raw":"BUILT","district":"Sterling","sqft":136908,"acres":14.47,"zoning":"IP","zoning_case":null,"parcel_id":"044174648000","policy_area":"Suburban","source":"Loudoun County GIS \u2014 Existing Data Center Parcels"}},{"type":"Feature","geometry":{"type":"Point","coordinates":[-77.485344,39.002684]},"properties":{"id":"lc-ex-010","name":"Digital Realty Campus 1","operator":"G I P Stoughton LLC","status":"operational","status_raw":"BUILT","district":"Broad Run","sqft":135000,"acres":6.76,"zoning":"OP","zoning_case":"ZMAP-1989-0038","parcel_id":"089372808000","policy_area":"Urban","source":"Loudoun County GIS \u2014 Existing Data Center Parcels"}},{"type":"Feature","geometry":{"type":"Point","coordinates":[-77.487219,39.003291]},"properties":{"id":"lc-ex-011","name":"Digital Realty Campus 1","operator":"Digital Devin Shafron D LLC","status":"operational","status_raw":"BUILT","district":"Broad Run","sqft":117000,"acres":7.74,"zoning":"OP","zoning_case":"ZMAP-1989-0038","parcel_id":"089367531000","policy_area":"Urban","source":"Loudoun County GIS \u2014 Existing Data Center Parcels"}},{"type":"Feature","geometry":{"type":"Point","coordinates":[-77.447617,38.988722]},"properties":{"id":"lc-ex-012","name":"Summit at Dulles","operator":"Fr Summit LLC","status":"operational","status_raw":"BUILT","district":"Sterling","sqft":133620,"acres":10.31,"zoning":"PDGI","zoning_case":null,"parcel_id":"045159083000","policy_area":"Suburban","source":"Loudoun County GIS \u2014 Existing Data Center Parcels"}},{"type":"Feature","geometry":{"type":"Point","coordinates":[-77.481912,39.002852]},"properties":{"id":"lc-ex-013","name":"Digital Realty Campus 1","operator":"Gi Tc Devin Shafron LLC","status":"operational","status_raw":"BUILT","district":"Broad Run","sqft":133560,"acres":8.17,"zoning":"IP","zoning_case":"ZMAP-1989-0038","parcel_id":"089382215000","policy_area":"Urban","source":"Loudoun County GIS \u2014 Existing Data Center Parcels"}},{"type":"Feature","geometry":{"type":"Point","coordinates":[-77.483322,39.001977]},"properties":{"id":"lc-ex-014","name":"Digital Realty Campus 1","operator":"Digital Devin Shafron B LLC","status":"operational","status_raw":"BUILT","district":"Broad Run","sqft":180000,"acres":10.36,"zoning":"OP","zoning_case":"ZMAP-1989-0038","parcel_id":"089278681000","policy_area":"Urban","source":"Loudoun County GIS \u2014 Existing Data Center Parcels"}},{"type":"Feature","geometry":{"type":"Point","coordinates":[-77.466188,39.006618]},"properties":{"id":"lc-ex-015","name":"Digital Loudoun III (Digitial Reality Campus 2)","operator":"Digital Loudoun 3 LLC","status":"operational","status_raw":"BUILT","district":"Sterling","sqft":1535869,"acres":93.61,"zoning":"OP","zoning_case":"ZMAP-1998-0003","parcel_id":"062462761000","policy_area":"Suburban","source":"Loudoun County GIS \u2014 Existing Data Center Parcels"}},{"type":"Feature","geometry":{"type":"Point","coordinates":[-77.451358,39.014852]},"properties":{"id":"lc-ex-016","name":"Beaumeade","operator":"Equinix LLC","status":"operational","status_raw":"BUILT","district":"Sterling","sqft":69800,"acres":4.78,"zoning":"PDIP","zoning_case":null,"parcel_id":"061307725000","policy_area":"Suburban","source":"Loudoun County GIS \u2014 Existing Data Center Parcels"}},{"type":"Feature","geometry":{"type":"Point","coordinates":[-77.481725,39.017786]},"properties":{"id":"lc-ex-017","name":"Ashburn Center North","operator":"Zcolo LLC","status":"operational","status_raw":"BUILT","district":"Broad Run","sqft":286800,"acres":11.0,"zoning":"IP","zoning_case":"ZMAP-1988-0270","parcel_id":"088481748000","policy_area":"Suburban","source":"Loudoun County GIS \u2014 Existing Data Center Parcels"}},{"type":"Feature","geometry":{"type":"Point","coordinates":[-77.449929,38.989596]},"properties":{"id":"lc-ex-018","name":"Prologis Nova 1","operator":"Dct Dulles Phase I LLC","status":"under_construction","status_raw":"UNDER CONSTRUCTION","district":"Sterling","sqft":243908,"acres":19.51,"zoning":"GI","zoning_case":"ZRTD-2021-0003","parcel_id":"045252512000","policy_area":"Suburban","source":"Loudoun County GIS \u2014 Existing Data Center Parcels"}},{"type":"Feature","geometry":{"type":"Point","coordinates":[-77.448817,38.990627]},"properties":{"id":"lc-ex-019","name":"Summit at Dulles","operator":"Dct Dulles Phase II LLC","status":"operational","status_raw":"BUILT","district":"Sterling","sqft":75802,"acres":5.85,"zoning":"PDGI","zoning_case":null,"parcel_id":"045254455000","policy_area":"Suburban","source":"Loudoun County GIS \u2014 Existing Data Center Parcels"}},{"type":"Feature","geometry":{"type":"Point","coordinates":[-77.448528,38.991734]},"properties":{"id":"lc-ex-020","name":"Summit at Dulles","operator":"Dct Dulles Phase II LLC","status":"operational","status_raw":"BUILT","district":"Sterling","sqft":103045,"acres":7.42,"zoning":"PDGI","zoning_case":null,"parcel_id":"045358110000","policy_area":"Suburban","source":"Loudoun County GIS \u2014 Existing Data Center Parcels"}},{"type":"Feature","geometry":{"type":"Point","coordinates":[-77.432888,39.021688]},"properties":{"id":"lc-ex-021","name":"Staverton/severn","operator":"Gi Tc 45360 Severn Way LLC","status":"operational","status_raw":"BUILT","district":"Sterling","sqft":126869,"acres":7.66,"zoning":"PDIP","zoning_case":null,"parcel_id":"042200988000","policy_area":"Suburban","source":"Loudoun County GIS \u2014 Existing Data Center Parcels"}},{"type":"Feature","geometry":{"type":"Point","coordinates":[-77.458961,39.02907]},"properties":{"id":"lc-ex-022","name":"Ashburn Village","operator":"DC-8-9-10 De LLC","status":"operational","status_raw":"BUILT","district":"Broad Run","sqft":321291,"acres":35.0,"zoning":"PDH4","zoning_case":"ZMAP-1984-0007","parcel_id":"060485060000","policy_area":"Suburban","source":"Loudoun County GIS \u2014 Existing Data Center Parcels"}},{"type":"Feature","geometry":{"type":"Point","coordinates":[-77.457648,39.024891]},"properties":{"id":"lc-ex-023","name":"Beaumeade","operator":"NTT Global Data Centers Americas Inc","status":"operational","status_raw":"BUILT","district":"Broad Run","sqft":123200,"acres":4.77,"zoning":"IP","zoning_case":"ZRTD-2015-0002","parcel_id":"060386530000","policy_area":"Suburban","source":"Loudoun County GIS \u2014 Existing Data Center Parcels"}},{"type":"Feature","geometry":{"type":"Point","coordinates":[-77.460085,39.021126]},"properties":{"id":"lc-ex-024","name":"Ashburn Corporate Center","operator":null,"status":"operational","status_raw":"BUILT","district":"Broad Run","sqft":287980,"acres":22.11,"zoning":"IP","zoning_case":null,"parcel_id":"060182916000","policy_area":"Suburban","source":"Loudoun County GIS \u2014 Existing Data Center Parcels"}},{"type":"Feature","geometry":{"type":"Point","coordinates":[-77.484967,39.004656]},"properties":{"id":"lc-ex-025","name":"Digital Realty Campus 1","operator":null,"status":"operational","status_raw":"BUILT","district":"Broad Run","sqft":240326,"acres":16.5,"zoning":"IP","zoning_case":"ZMAP-1989-0038","parcel_id":"089374763000","policy_area":"Urban","source":"Loudoun County GIS \u2014 Existing Data Center Parcels"}},{"type":"Feature","geometry":{"type":"Point","coordinates":[-77.442241,38.986499]},"properties":{"id":"lc-ex-026","name":"Concorde Industrial Park","operator":"Mcp 22745 & 22755 Relocation Drive LLC","status":"operational","status_raw":"BUILT","district":"Sterling","sqft":251091,"acres":16.67,"zoning":"IP","zoning_case":"ZMAP-2012-0018","parcel_id":"045175529000","policy_area":"Suburban","source":"Loudoun County GIS \u2014 Existing Data Center Parcels"}},{"type":"Feature","geometry":{"type":"Point","coordinates":[-77.479198,39.000821]},"properties":{"id":"lc-ex-027","name":"Digital Realty Campus 1","operator":"Digital Loudoun Pkwy Ctr North LLC","status":"operational","status_raw":"BUILT","district":"Broad Run","sqft":1140175,"acres":38.2,"zoning":"OP","zoning_case":"ZMAP-2011-0006","parcel_id":"089291706000","policy_area":"Urban","source":"Loudoun County GIS \u2014 Existing Data Center Parcels"}},{"type":"Feature","geometry":{"type":"Point","coordinates":[-77.475332,39.012595]},"properties":{"id":"lc-ex-028","name":"Quantum Park (Verizon Campus)","operator":"Equinix LLC","status":"operational","status_raw":"BUILT","district":"Broad Run","sqft":108336,"acres":6.21,"zoning":"OP","zoning_case":"ZMAP-1998-0003","parcel_id":"088200644000","policy_area":"Suburban","source":"Loudoun County GIS \u2014 Existing Data Center Parcels"}},{"type":"Feature","geometry":{"type":"Point","coordinates":[-77.424031,38.984171]},"properties":{"id":"lc-ex-029","name":"Dulles International","operator":"22810-22860 International Drive LLC","status":"operational","status_raw":"BUILT","district":"Sterling","sqft":121008,"acres":12.15,"zoning":"IP","zoning_case":"ZRTD-2011-0003","parcel_id":"034468458000","policy_area":"Suburban","source":"Loudoun County GIS \u2014 Existing Data Center Parcels"}},{"type":"Feature","geometry":{"type":"Point","coordinates":[-77.425826,38.984666]},"properties":{"id":"lc-ex-030","name":"Dulles International","operator":"C1 Northern Virginia - Sterling IV LLC","status":"operational","status_raw":"BUILT","district":"Sterling","sqft":128521,"acres":9.96,"zoning":"IP","zoning_case":"ZRTD-2011-0003","parcel_id":"034462865000","policy_area":"Suburban","source":"Loudoun County GIS \u2014 Existing Data Center Parcels"}},{"type":"Feature","geometry":{"type":"Point","coordinates":[-77.452958,39.004549]},"properties":{"id":"lc-ex-031","name":"Digital Loudoun IV","operator":"Digital Loudoun IV LLC","status":"operational","status_raw":"BUILT","district":"Sterling","sqft":788982,"acres":111.78,"zoning":"IP","zoning_case":"ZRTD-2017-0005","parcel_id":"044370416000","policy_area":"Suburban","source":"Loudoun County GIS \u2014 Existing Data Center Parcels"}},{"type":"Feature","geometry":{"type":"Point","coordinates":[-77.451147,39.02639]},"properties":{"id":"lc-ex-032","name":"Beaumeade","operator":"Bcore Copt DC-15 LLC","status":"operational","status_raw":"BUILT","district":"Broad Run","sqft":447228,"acres":37.94,"zoning":"IP","zoning_case":"ZRTD-2011-0007","parcel_id":"060307119000","policy_area":"Suburban","source":"Loudoun County GIS \u2014 Existing Data Center Parcels"}},{"type":"Feature","geometry":{"type":"Point","coordinates":[-77.449786,39.036371]},"properties":{"id":"lc-ex-033","name":"St John & Beaumeade","operator":"Beaumeade LC Phase III LLC","status":"operational","status_raw":"BUILT","district":"Broad Run","sqft":147615,"acres":10.12,"zoning":"IP","zoning_case":null,"parcel_id":"041352218000","policy_area":"Suburban","source":"Loudoun County GIS \u2014 Existing Data Center Parcels"}},{"type":"Feature","geometry":{"type":"Point","coordinates":[-77.450934,39.035622]},"properties":{"id":"lc-ex-034","name":"St John & Beaumeade","operator":"Beaumeade LC Phase III LLC","status":"operational","status_raw":"BUILT","district":"Broad Run","sqft":147615,"acres":10.7,"zoning":"IP","zoning_case":null,"parcel_id":"059309091000","policy_area":"Suburban","source":"Loudoun County GIS \u2014 Existing Data Center Parcels"}},{"type":"Feature","geometry":{"type":"Point","coordinates":[-77.450459,39.023324]},"properties":{"id":"lc-ex-035","name":"Beaumeade","operator":"Equinix Rp II LLC","status":"operational","status_raw":"BUILT","district":"Broad Run","sqft":1323762,"acres":45.47,"zoning":"IP","zoning_case":"ZRTD-2015-0003","parcel_id":"060209652000","policy_area":"Suburban","source":"Loudoun County GIS \u2014 Existing Data Center Parcels"}},{"type":"Feature","geometry":{"type":"Point","coordinates":[-77.505083,38.95866]},"properties":{"id":"lc-ex-036","name":"Cyrusone","operator":"C1 Northern Virginia - Sterling IX LLC","status":"under_construction","status_raw":"BUILT/UNDER CONSTRUCTION","district":"Dulles","sqft":691656,"acres":39.81,"zoning":"GI","zoning_case":null,"parcel_id":"124369522000","policy_area":"Suburban","source":"Loudoun County GIS \u2014 Existing Data Center Parcels"}},{"type":"Feature","geometry":{"type":"Point","coordinates":[-77.467576,39.015484]},"properties":{"id":"lc-ex-037","name":"Dupont Fabros 1","operator":"Blue Sling Acc 9 LLC","status":"operational","status_raw":"BUILT","district":"Broad Run","sqft":362108,"acres":18.83,"zoning":"OP","zoning_case":"ZMAP-1998-0003","parcel_id":"061361948000","policy_area":"Suburban","source":"Loudoun County GIS \u2014 Existing Data Center Parcels"}},{"type":"Feature","geometry":{"type":"Point","coordinates":[-77.466014,39.013268]},"properties":{"id":"lc-ex-038","name":"Dupont Fabros 1","operator":"Blue Sling Acc 10 LLC","status":"operational","status_raw":"BUILT","district":"Broad Run","sqft":318143,"acres":16.56,"zoning":"OP","zoning_case":"ZMAP-1998-0003","parcel_id":"061268762000","policy_area":"Suburban","source":"Loudoun County GIS \u2014 Existing Data Center Parcels"}},{"type":"Feature","geometry":{"type":"Point","coordinates":[-77.434,39.019449]},"properties":{"id":"lc-ex-039","name":"Paragon Park","operator":"Bcore Copt DC-21 LLC","status":"operational","status_raw":"BUILT","district":"Sterling","sqft":296380,"acres":24.36,"zoning":"IP","zoning_case":"ZRTD-2016-0012","parcel_id":"042197707000","policy_area":"Suburban","source":"Loudoun County GIS \u2014 Existing Data Center Parcels"}},{"type":"Feature","geometry":{"type":"Point","coordinates":[-77.413351,39.021227]},"properties":{"id":"lc-ex-040","name":"Tall Oaks","operator":"C1 Northern Virginia - Sterling VIII LLC","status":"operational","status_raw":"BUILT","district":"Sterling","sqft":154125,"acres":9.72,"zoning":"IP","zoning_case":"ZRTD-2016-0010","parcel_id":"030296913000","policy_area":"Suburban","source":"Loudoun County GIS \u2014 Existing Data Center Parcels"}},{"type":"Feature","geometry":{"type":"Point","coordinates":[-77.4195,39.023985]},"properties":{"id":"lc-ex-041","name":"Tall Oaks","operator":"Maries Tech Park LLC","status":"operational","status_raw":"BUILT","district":"Sterling","sqft":426710,"acres":19.57,"zoning":"IP","zoning_case":"ZRTD-2017-0009","parcel_id":"030382006000","policy_area":"Suburban","source":"Loudoun County GIS \u2014 Existing Data Center Parcels"}},{"type":"Feature","geometry":{"type":"Point","coordinates":[-77.410855,38.987746]},"properties":{"id":"lc-ex-042","name":"Transdulles","operator":"Amazon Data Services Inc","status":"operational","status_raw":"BUILT","district":"Sterling","sqft":437160,"acres":33.08,"zoning":"PDIP","zoning_case":null,"parcel_id":"033201325000","policy_area":"Suburban","source":"Loudoun County GIS \u2014 Existing Data Center Parcels"}},{"type":"Feature","geometry":{"type":"Point","coordinates":[-77.424868,38.982382]},"properties":{"id":"lc-ex-043","name":"Jk Corporate Campus","operator":"Dulles Ncp LLC","status":"operational","status_raw":"BUILT","district":"Sterling","sqft":203200,"acres":13.0,"zoning":"IP","zoning_case":"ZRTD-2018-0002","parcel_id":"034365461000","policy_area":"Suburban","source":"Loudoun County GIS \u2014 Existing Data Center Parcels"}},{"type":"Feature","geometry":{"type":"Point","coordinates":[-77.439853,39.000596]},"properties":{"id":"lc-ex-044","name":"Broad Run Technology Park","operator":"Gi Tc Loudoun LLC","status":"operational","status_raw":"BUILT","district":"Sterling","sqft":234125,"acres":23.84,"zoning":"OP","zoning_case":"ZRTD-2017-0010","parcel_id":"044282013000","policy_area":"Suburban","source":"Loudoun County GIS \u2014 Existing Data Center Parcels"}},{"type":"Feature","geometry":{"type":"Point","coordinates":[-77.478351,38.916296]},"properties":{"id":"lc-ex-045","name":"Ml-ai Qcc Owner LLC","operator":"Ml-ai Qcc Owner LLC","status":"operational","status_raw":"BUILT","district":"Dulles","sqft":508026,"acres":43.4,"zoning":"GI","zoning_case":"ZMAP-2017-0004","parcel_id":"097398776000","policy_area":"Suburban","source":"Loudoun County GIS \u2014 Existing Data Center Parcels"}},{"type":"Feature","geometry":{"type":"Point","coordinates":[-77.497507,38.956936]},"properties":{"id":"lc-ex-046","name":"Prologis Park Gateway - Rt 606","operator":"Prologis-exchange 43461 Old Ox Road LLC","status":"operational","status_raw":"BUILT","district":"Dulles","sqft":474570,"acres":37.53,"zoning":"GI","zoning_case":"ZMAP-1986-0500","parcel_id":"124299328000","policy_area":"Suburban","source":"Loudoun County GIS \u2014 Existing Data Center Parcels"}},{"type":"Feature","geometry":{"type":"Point","coordinates":[-77.474972,39.010247]},"properties":{"id":"lc-ex-047","name":"Quantum Park (Verizon Campus)","operator":"Aligned Energy Data Centers IAD Propco LLC","status":"operational","status_raw":"BUILT","district":"Broad Run","sqft":443260,"acres":10.85,"zoning":"OP","zoning_case":"ZMAP-1998-0003","parcel_id":"088101859000","policy_area":"Suburban","source":"Loudoun County GIS \u2014 Existing Data Center Parcels"}},{"type":"Feature","geometry":{"type":"Point","coordinates":[-77.469971,39.013928]},"properties":{"id":"lc-ex-048","name":"Quantum Park (Verizon Campus)","operator":"Aligned Energy Data Centers (Ashburn)\\ Propco LLC","status":"operational","status_raw":"BUILT","district":"Broad Run","sqft":368325,"acres":8.85,"zoning":"OP","zoning_case":"ZMAP-1998-0003","parcel_id":"061355894000","policy_area":"Suburban","source":"Loudoun County GIS \u2014 Existing Data Center Parcels"}},{"type":"Feature","geometry":{"type":"Point","coordinates":[-77.560434,38.949042]},"properties":{"id":"lc-ex-049","name":"Quail Ridge","operator":"Amazon Data Services Inc","status":"operational","status_raw":"BUILT","district":"Little River","sqft":408026,"acres":23.47,"zoning":"IP","zoning_case":"ZMAP-2005-0036","parcel_id":"246200886000","policy_area":"Suburban","source":"Loudoun County GIS \u2014 Existing Data Center Parcels"}},{"type":"Feature","geometry":{"type":"Point","coordinates":[-77.558605,38.949387]},"properties":{"id":"lc-ex-050","name":"Quail Ridge","operator":"Amazon Data Services Inc","status":"under_construction","status_raw":"UNDER CONSTRUCTION","district":"Little River","sqft":505200,"acres":33.08,"zoning":"IP","zoning_case":"ZMAP-2005-0036","parcel_id":"246203645000","policy_area":"Suburban","source":"Loudoun County GIS \u2014 Existing Data Center Parcels"}},{"type":"Feature","geometry":{"type":"Point","coordinates":[-77.459607,39.011146]},"properties":{"id":"lc-ex-051","name":"Loudoun Center - Worldcom/uunet","operator":"Lohrasp Ventures LLC","status":"operational","status_raw":"BUILT","district":"Broad Run","sqft":585593,"acres":15.36,"zoning":"OP","zoning_case":"ZRTD-2018-0001","parcel_id":"061285496000","policy_area":"Suburban","source":"Loudoun County GIS \u2014 Existing Data Center Parcels"}},{"type":"Feature","geometry":{"type":"Point","coordinates":[-77.45797,39.008362]},"properties":{"id":"lc-ex-052","name":"Digital Loudoun III (Digitial Reality Campus 2)","operator":"Digital Loudoun 3 LLC","status":"operational","status_raw":"BUILT","district":"Sterling","sqft":789350,"acres":31.73,"zoning":"OP","zoning_case":"ZRTD-2017-0005","parcel_id":"062493798000","policy_area":"Suburban","source":"Loudoun County GIS \u2014 Existing Data Center Parcels"}},{"type":"Feature","geometry":{"type":"Point","coordinates":[-77.437379,39.002127]},"properties":{"id":"lc-ex-053","name":"Ashburn Nexus/project Viper","operator":"Vantage Data Centers VA11 LLC","status":"operational","status_raw":"BUILT","district":"Sterling","sqft":484862,"acres":19.04,"zoning":"OP","zoning_case":"ZRTD-2017-0010","parcel_id":"044288975000","policy_area":"Suburban","source":"Loudoun County GIS \u2014 Existing Data Center Parcels"}},{"type":"Feature","geometry":{"type":"Point","coordinates":[-77.44557,39.049199]},"properties":{"id":"lc-ex-054","name":"Commonwealth Center","operator":"Visa USA Inc","status":"operational","status_raw":"BUILT","district":"Broad Run","sqft":365855,"acres":41.27,"zoning":"IP","zoning_case":"ZRTD-2014-0006","parcel_id":"040464286000","policy_area":"Suburban","source":"Loudoun County GIS \u2014 Existing Data Center Parcels"}},{"type":"Feature","geometry":{"type":"Point","coordinates":[-77.462912,39.012139]},"properties":{"id":"lc-ex-055","name":"Loudoun Center - Worldcom/uunet","operator":"Kaveh Ventures LLC","status":"operational","status_raw":"BUILT","district":"Broad Run","sqft":499438,"acres":15.72,"zoning":"OP","zoning_case":"ZMAP-1998-0003","parcel_id":"061275931000","policy_area":"Suburban","source":"Loudoun County GIS \u2014 Existing Data Center Parcels"}},{"type":"Feature","geometry":{"type":"Point","coordinates":[-77.425642,38.979983]},"properties":{"id":"lc-ex-056","name":"Jk Corporate Campus","operator":"Dulles Ncp II LLC","status":"operational","status_raw":"BUILT","district":"Sterling","sqft":169960,"acres":8.31,"zoning":"IP","zoning_case":"ZRTD-2011-0003","parcel_id":"034263373000","policy_area":"Suburban","source":"Loudoun County GIS \u2014 Existing Data Center Parcels"}},{"type":"Feature","geometry":{"type":"Point","coordinates":[-77.427524,38.982137]},"properties":{"id":"lc-ex-057","name":"Jk Corporate Campus","operator":"Dulles Ncp LLC","status":"operational","status_raw":"BUILT","district":"Sterling","sqft":147890,"acres":17.44,"zoning":"IP","zoning_case":"ZRTD-2011-0003","parcel_id":"034357851000","policy_area":"Suburban","source":"Loudoun County GIS \u2014 Existing Data Center Parcels"}},{"type":"Feature","geometry":{"type":"Point","coordinates":[-77.435415,38.994907]},"properties":{"id":"lc-ex-058","name":"Highpoint","operator":"22350 Kipper (VA) LLC","status":"operational","status_raw":"BUILT","district":"Sterling","sqft":203460,"acres":10.64,"zoning":"IP","zoning_case":"ZMAP-2016-0022","parcel_id":"045494813000","policy_area":"Suburban","source":"Loudoun County GIS \u2014 Existing Data Center Parcels"}},{"type":"Feature","geometry":{"type":"Point","coordinates":[-77.435916,38.996894]},"properties":{"id":"lc-ex-059","name":"Highpoint","operator":"22350 Kipper VA LLC","status":"operational","status_raw":"BUILT","district":"Sterling","sqft":214360,"acres":14.37,"zoning":"IP","zoning_case":"ZMAP-2016-0022","parcel_id":"044193385000","policy_area":"Suburban","source":"Loudoun County GIS \u2014 Existing Data Center Parcels"}},{"type":"Feature","geometry":{"type":"Point","coordinates":[-77.462736,39.010027]},"properties":{"id":"lc-ex-060","name":"Dupont Fabros 1","operator":null,"status":"operational","status_raw":"BUILT","district":"Broad Run","sqft":984055,"acres":29.96,"zoning":"OP","zoning_case":"ZMAP-1998-0003","parcel_id":"061177666000","policy_area":"Suburban","source":"Loudoun County GIS \u2014 Existing Data Center Parcels"}},{"type":"Feature","geometry":{"type":"Point","coordinates":[-77.417902,38.981306]},"properties":{"id":"lc-ex-061","name":"Waterside North","operator":"Waterside I LLC","status":"operational","status_raw":"BUILT","district":"Sterling","sqft":976046,"acres":73.9,"zoning":"IP","zoning_case":"ZMAP-2018-0011","parcel_id":"034385918000","policy_area":"Suburban","source":"Loudoun County GIS \u2014 Existing Data Center Parcels"}},{"type":"Feature","geometry":{"type":"Point","coordinates":[-77.450231,38.994053]},"properties":{"id":"lc-ex-062","name":"Broad Run Technology Park","operator":"Fr Randolph Drive LLC","status":"operational","status_raw":"BUILT","district":"Sterling","sqft":143797,"acres":13.96,"zoning":"GI","zoning_case":"ZRTD-2012-0006","parcel_id":"045352692000","policy_area":"Suburban","source":"Loudoun County GIS \u2014 Existing Data Center Parcels"}},{"type":"Feature","geometry":{"type":"Point","coordinates":[-77.44815,38.994437]},"properties":{"id":"lc-ex-063","name":"Four Corners","operator":"QTS Dulles LLC","status":"operational","status_raw":"BUILT","district":"Sterling","sqft":64669,"acres":2.99,"zoning":"IP","zoning_case":"ZMAP-2011-0002","parcel_id":"045458114000","policy_area":"Suburban","source":"Loudoun County GIS \u2014 Existing Data Center Parcels"}},{"type":"Feature","geometry":{"type":"Point","coordinates":[-77.474195,38.998659]},"properties":{"id":"lc-ex-064","name":"Project Samuel","operator":"QTS Shellhorn, LLC","status":"operational","status_raw":"BUILT","district":"Sterling","sqft":256348,"acres":10.92,"zoning":"OP","zoning_case":"ZMAP-1990-0015","parcel_id":"089104437000","policy_area":"Urban","source":"Loudoun County GIS \u2014 Existing Data Center Parcels"}},{"type":"Feature","geometry":{"type":"Point","coordinates":[-77.475446,38.998537]},"properties":{"id":"lc-ex-065","name":"Project Samuel","operator":"QTS Shellhorn, LLC","status":"operational","status_raw":"BUILT","district":"Sterling","sqft":310717,"acres":14.31,"zoning":"OP","zoning_case":"ZMAP-1990-0015","parcel_id":"089100937000","policy_area":"Urban","source":"Loudoun County GIS \u2014 Existing Data Center Parcels"}},{"type":"Feature","geometry":{"type":"Point","coordinates":[-77.451887,39.016872]},"properties":{"id":"lc-ex-066","name":"Beaumeade","operator":"Beaumeade DC Building LLC","status":"operational","status_raw":"BUILT","district":"Sterling","sqft":190250,"acres":9.56,"zoning":"IP","zoning_case":"ZRTD-2019-0007","parcel_id":"061407107000","policy_area":"Suburban","source":"Loudoun County GIS \u2014 Existing Data Center Parcels"}},{"type":"Feature","geometry":{"type":"Point","coordinates":[-77.453239,39.015829]},"properties":{"id":"lc-ex-067","name":"Beaumeade","operator":"Beaumeade DC Building LLC","status":"operational","status_raw":"BUILT","district":"Sterling","sqft":190250,"acres":8.68,"zoning":"IP","zoning_case":"ZRTD-2019-0007","parcel_id":"061303369000","policy_area":"Suburban","source":"Loudoun County GIS \u2014 Existing Data Center Parcels"}},{"type":"Feature","geometry":{"type":"Point","coordinates":[-77.450147,39.019712]},"properties":{"id":"lc-ex-068","name":"Beaumeade","operator":"Arep Beaumeade LLC","status":"operational","status_raw":"BUILT","district":"Broad Run","sqft":247420,"acres":10.17,"zoning":"IP","zoning_case":"ZRTD-2017-0012","parcel_id":"042152579000","policy_area":"Suburban","source":"Loudoun County GIS \u2014 Existing Data Center Parcels"}},{"type":"Feature","geometry":{"type":"Point","coordinates":[-77.521473,38.948948]},"properties":{"id":"lc-ex-069","name":"Icsp @ Arcola","operator":"Amazon Data Services Inc","status":"operational","status_raw":"BUILT","district":"Little River","sqft":710921,"acres":63.6,"zoning":"GI","zoning_case":null,"parcel_id":"162392026000","policy_area":"Suburban","source":"Loudoun County GIS \u2014 Existing Data Center Parcels"}},{"type":"Feature","geometry":{"type":"Point","coordinates":[-77.560169,39.067812]},"properties":{"id":"lc-ex-070","name":"Compass Creek","operator":"Microsoft Corp","status":"under_construction","status_raw":"BUILT/UNDER CONSTRUCTION","district":"Leesburg","sqft":1289688,"acres":323.42,"zoning":"TOWNS","zoning_case":null,"parcel_id":"235297431000","policy_area":"Town","source":"Loudoun County GIS \u2014 Existing Data Center Parcels"}},{"type":"Feature","geometry":{"type":"Point","coordinates":[-77.528453,38.942759]},"properties":{"id":"lc-ex-071","name":"Arcola Center","operator":"Wheeler Survey Company LLC","status":"under_construction","status_raw":"BUILT/UNDER CONSTRUCTION","district":"Dulles","sqft":923505,"acres":135.21,"zoning":"IP","zoning_case":"ZMAP-2016-0013","parcel_id":"162176713000","policy_area":"Suburban","source":"Loudoun County GIS \u2014 Existing Data Center Parcels"}},{"type":"Feature","geometry":{"type":"Point","coordinates":[-77.439377,39.018108]},"properties":{"id":"lc-ex-072","name":"Paragon Park","operator":"Cabin Branch Creek LLC","status":"operational","status_raw":"BUILT","district":"Sterling","sqft":685682,"acres":53.96,"zoning":"IP","zoning_case":"ZRTD-2016-0012","parcel_id":"043482656000","policy_area":"Suburban","source":"Loudoun County GIS \u2014 Existing Data Center Parcels"}},{"type":"Feature","geometry":{"type":"Point","coordinates":[-77.441968,39.004523]},"properties":{"id":"lc-ex-073","name":"Broad Run Technology Park","operator":"Si NVA01, LLC","status":"operational","status_raw":"BUILT","district":"Sterling","sqft":180039,"acres":15.98,"zoning":"OP","zoning_case":"ZMAP-2008-0011","parcel_id":"044261032000","policy_area":"Suburban","source":"Loudoun County GIS \u2014 Existing Data Center Parcels"}},{"type":"Feature","geometry":{"type":"Point","coordinates":[-77.434718,38.989686]},"properties":{"id":"lc-ex-074","name":"Digital Sterling Premeire","operator":"Digital Sterling Premier LLC","status":"operational","status_raw":"BUILT","district":"Sterling","sqft":258200,"acres":13.88,"zoning":"IP","zoning_case":"ZRTD-2019-0006","parcel_id":"045299249000","policy_area":"Suburban","source":"Loudoun County GIS \u2014 Existing Data Center Parcels"}},{"type":"Feature","geometry":{"type":"Point","coordinates":[-77.456792,38.995138]},"properties":{"id":"lc-ex-075","name":"West Dulles Station","operator":"QTS Lockridge DC2 LLC","status":"operational","status_raw":"BUILT","district":"Sterling","sqft":274450,"acres":9.02,"zoning":"IP","zoning_case":"ZRTD-2016-0002","parcel_id":"063494014000","policy_area":"Urban","source":"Loudoun County GIS \u2014 Existing Data Center Parcels"}},{"type":"Feature","geometry":{"type":"Point","coordinates":[-77.455347,38.995843]},"properties":{"id":"lc-ex-076","name":"West Dulles Station","operator":"Ashburn Acquisition Co II LLC","status":"operational","status_raw":"BUILT","district":"Sterling","sqft":308630,"acres":14.44,"zoning":"IP","zoning_case":"ZRTD-2016-0002","parcel_id":"063498140000","policy_area":"Urban","source":"Loudoun County GIS \u2014 Existing Data Center Parcels"}},{"type":"Feature","geometry":{"type":"Point","coordinates":[-77.440098,39.003045]},"properties":{"id":"lc-ex-077","name":"Broad Run Technology Park","operator":"Vantage Data Centers VA13 LLC","status":"operational","status_raw":"BUILT","district":"Sterling","sqft":729298,"acres":17.68,"zoning":"OP","zoning_case":"ZRTD-2017-0010","parcel_id":"044381108000","policy_area":"Suburban","source":"Loudoun County GIS \u2014 Existing Data Center Parcels"}},{"type":"Feature","geometry":{"type":"Point","coordinates":[-77.565266,39.080866]},"properties":{"id":"lc-ex-078","name":"Compass Creek","operator":"Si NVA06B LLC","status":"under_construction","status_raw":"BUILT/UNDER CONSTRUCTION","district":"Leesburg","sqft":621036,"acres":33.17,"zoning":"TOWNS","zoning_case":null,"parcel_id":"234371847000","policy_area":"Town","source":"Loudoun County GIS \u2014 Existing Data Center Parcels"}},{"type":"Feature","geometry":{"type":"Point","coordinates":[-77.435243,38.986716]},"properties":{"id":"lc-ex-079","name":"Loudoun Gateway Center","operator":"Amazon Data Services Inc","status":"operational","status_raw":"BUILT","district":"Sterling","sqft":226456,"acres":17.09,"zoning":"IP","zoning_case":"ZRTD-2018-0008","parcel_id":"045195615000","policy_area":"Suburban","source":"Loudoun County GIS \u2014 Existing Data Center Parcels"}},{"type":"Feature","geometry":{"type":"Point","coordinates":[-77.450129,38.999541]},"properties":{"id":"lc-ex-080","name":"Broad Run Business Center","operator":"QTS Investment Properties Ashburn LLC","status":"operational","status_raw":"BUILT","district":"Sterling","sqft":427337,"acres":16.33,"zoning":"IP","zoning_case":"ZRTD-2016-0004","parcel_id":"044152877000","policy_area":"Suburban","source":"Loudoun County GIS \u2014 Existing Data Center Parcels"}},{"type":"Feature","geometry":{"type":"Point","coordinates":[-77.493192,38.916589]},"properties":{"id":"lc-ex-081","name":"Icsp @ Eastgate","operator":"Amazon Data Services, Inc","status":"operational","status_raw":"BUILT","district":"Dulles","sqft":629505,"acres":48.04,"zoning":"CLI","zoning_case":null,"parcel_id":"097354183000","policy_area":"Suburban","source":"Loudoun County GIS \u2014 Existing Data Center Parcels"}},{"type":"Feature","geometry":{"type":"Point","coordinates":[-77.427605,39.028748]},"properties":{"id":"lc-ex-082","name":"Edgecore Dulles","operator":"MECP1 Ashburn 1 LLC","status":"operational","status_raw":"BUILT","district":"Sterling","sqft":258716,"acres":12.55,"zoning":"OP","zoning_case":"ZMAP-2007-0001","parcel_id":"030455548000","policy_area":"Suburban","source":"Loudoun County GIS \u2014 Existing Data Center Parcels"}},{"type":"Feature","geometry":{"type":"Point","coordinates":[-77.429003,39.030404]},"properties":{"id":"lc-ex-083","name":"Edgecore Dulles","operator":"MECP2 Ashburn 2 LLC","status":"operational","status_raw":"BUILT","district":"Sterling","sqft":258716,"acres":10.61,"zoning":"OP","zoning_case":"ZMAP-2007-0001","parcel_id":"029151508000","policy_area":"Suburban","source":"Loudoun County GIS \u2014 Existing Data Center Parcels"}},{"type":"Feature","geometry":{"type":"Point","coordinates":[-77.430026,39.032017]},"properties":{"id":"lc-ex-084","name":"Edgecore Dulles","operator":"MECP3 Ashburn 3 LLC","status":"operational","status_raw":"BUILT","district":"Sterling","sqft":258716,"acres":13.64,"zoning":"OP","zoning_case":"ZMAP-2007-0001","parcel_id":"041108666000","policy_area":"Suburban","source":"Loudoun County GIS \u2014 Existing Data Center Parcels"}},{"type":"Feature","geometry":{"type":"Point","coordinates":[-77.45172,39.013689]},"properties":{"id":"lc-ex-085","name":"Beaumeade","operator":"Ashburn Data Property Owner LP","status":"under_construction","status_raw":"UNDER CONSTRUCTION","district":"Sterling","sqft":210170,"acres":5.24,"zoning":"IP","zoning_case":"ZRTD-2011-0004","parcel_id":"061307791000","policy_area":"Suburban","source":"Loudoun County GIS \u2014 Existing Data Center Parcels"}},{"type":"Feature","geometry":{"type":"Point","coordinates":[-77.555808,38.949247]},"properties":{"id":"lc-ex-086","name":"Arcola Business Park","operator":"Microsoft Corp","status":"operational","status_raw":"BUILT","district":"Little River","sqft":735117,"acres":64.76,"zoning":"IP","zoning_case":"ZMAP-2005-0036","parcel_id":"203354208000","policy_area":"Suburban","source":"Loudoun County GIS \u2014 Existing Data Center Parcels"}},{"type":"Feature","geometry":{"type":"Point","coordinates":[-77.41453,39.026057]},"properties":{"id":"lc-ex-087","name":"Loudoun Tech Center","operator":null,"status":"operational","status_raw":"BUILT","district":"Sterling","sqft":464430,"acres":14.34,"zoning":"IP","zoning_case":"ZRTD-2014-0001","parcel_id":"030393965000","policy_area":"Suburban","source":"Loudoun County GIS \u2014 Existing Data Center Parcels"}},{"type":"Feature","geometry":{"type":"Point","coordinates":[-77.429655,38.997634]},"properties":{"id":"lc-ex-088","name":"Vantage Data Center - Sterling","operator":"Vantage Data Centers VA2 LLC","status":"operational","status_raw":"BUILT","district":"Sterling","sqft":550453,"acres":18.47,"zoning":"IP","zoning_case":"ZMAP-2022-0007","parcel_id":"032155119000","policy_area":"Suburban","source":"Loudoun County GIS \u2014 Existing Data Center Parcels"}},{"type":"Feature","geometry":{"type":"Point","coordinates":[-77.537598,39.043813]},"properties":{"id":"lc-ex-089","name":"True North","operator":"Compass Datacenters IAD I LLC","status":"under_construction","status_raw":"BULT/UNDER CONSTRUCTION","district":"Little River","sqft":547475,"acres":97.18,"zoning":"OP","zoning_case":"ZMAP-2017-0003","parcel_id":"194103673000","policy_area":"Transition","source":"Loudoun County GIS \u2014 Existing Data Center Parcels"}},{"type":"Feature","geometry":{"type":"Point","coordinates":[-77.54717,39.055771]},"properties":{"id":"lc-ex-090","name":"Stonewall Secure Business Park (Loudoun West)","operator":"Nova Building 2 LLC","status":"under_construction","status_raw":"UNDER CONSTRUCTION","district":"Leesburg","sqft":413099,"acres":10.19,"zoning":"IP","zoning_case":"ZMAP-2008-0017","parcel_id":"193274995000","policy_area":"Transition","source":"Loudoun County GIS \u2014 Existing Data Center Parcels"}},{"type":"Feature","geometry":{"type":"Point","coordinates":[-77.546555,39.057792]},"properties":{"id":"lc-ex-091","name":"Stonewall Secure Business Park (Loudoun West)","operator":"Nova Building 1 LLC","status":"operational","status_raw":"BUILT","district":"Leesburg","sqft":414253,"acres":7.11,"zoning":"IP","zoning_case":"ZMAP-2008-0017","parcel_id":"193276668000","policy_area":"Transition","source":"Loudoun County GIS \u2014 Existing Data Center Parcels"}},{"type":"Feature","geometry":{"type":"Point","coordinates":[-77.436435,39.000539]},"properties":{"id":"lc-ex-092","name":"Unnamed data center parcel","operator":null,"status":"under_construction","status_raw":"UNDER CONSTRUCTION","district":"Sterling","sqft":182782,"acres":4.78,"zoning":"OP","zoning_case":"ZRTD-2017-0010","parcel_id":"044292829000","policy_area":"Suburban","source":"Loudoun County GIS \u2014 Existing Data Center Parcels"}},{"type":"Feature","geometry":{"type":"Point","coordinates":[-77.441568,38.999045]},"properties":{"id":"lc-ex-093","name":"Broad Run Technology Park","operator":"Vantage Data Centers VA16 LLC","status":"under_construction","status_raw":"UNDER CONSTRUCTION","district":"Sterling","sqft":255935,"acres":9.8,"zoning":"IP","zoning_case":"ZRTD-2023-0001","parcel_id":"044175589000","policy_area":"Suburban","source":"Loudoun County GIS \u2014 Existing Data Center Parcels"}},{"type":"Feature","geometry":{"type":"Point","coordinates":[-77.491683,38.960832]},"properties":{"id":"lc-ex-094","name":"Digital Dulles","operator":"Digital Wl 2834 LLC","status":"under_construction","status_raw":"BUILT/UNDER CONSTRUCTION","district":"Dulles","sqft":2603391,"acres":447.61,"zoning":"GI","zoning_case":null,"parcel_id":"093365404000","policy_area":"Suburban","source":"Loudoun County GIS \u2014 Existing Data Center Parcels"}},{"type":"Feature","geometry":{"type":"Point","coordinates":[-77.441369,38.991209]},"properties":{"id":"lc-ex-095","name":"Downs Industrial Park","operator":"Dct Dulles Downs LLC","status":"operational","status_raw":"BUILT","district":"Sterling","sqft":287460,"acres":22.69,"zoning":"PDIP","zoning_case":null,"parcel_id":"045282657000","policy_area":"Suburban","source":"Loudoun County GIS \u2014 Existing Data Center Parcels"}},{"type":"Feature","geometry":{"type":"Point","coordinates":[-77.482464,39.015606]},"properties":{"id":"lc-ex-096","name":"Ashburn Center North","operator":null,"status":"operational","status_raw":"BUILT","district":"Broad Run","sqft":280088,"acres":15.19,"zoning":"IP","zoning_case":"ZMAP-1988-0270","parcel_id":"088381462000","policy_area":"Suburban","source":"Loudoun County GIS \u2014 Existing Data Center Parcels"}},{"type":"Feature","geometry":{"type":"Point","coordinates":[-77.436737,38.99102]},"properties":{"id":"lc-ex-097","name":"Prologis","operator":"Prologis","status":"operational","status_raw":"BUILT","district":"Sterling","sqft":143337,"acres":9.58,"zoning":"IP","zoning_case":null,"parcel_id":"045391908000","policy_area":"Suburban","source":"Loudoun County GIS \u2014 Existing Data Center Parcels"}},{"type":"Feature","geometry":{"type":"Point","coordinates":[-77.476937,39.013824]},"properties":{"id":"lc-ex-098","name":"Ashburn Technology Park","operator":"Intergate Ashburn I LLC","status":"under_construction","status_raw":"UNDER CONSTRUCTION","district":"Broad Run","sqft":324000,"acres":12.97,"zoning":"IP","zoning_case":"ZMAP-1988-0270","parcel_id":"088392214000","policy_area":"Suburban","source":"Loudoun County GIS \u2014 Existing Data Center Parcels"}},{"type":"Feature","geometry":{"type":"Point","coordinates":[-77.505509,39.077271]},"properties":{"id":"lc-ex-099","name":"Vantage Data Center - VA3","operator":null,"status":"operational","status_raw":"BUILT","district":"Ashburn","sqft":385398,"acres":29.74,"zoning":"IP","zoning_case":null,"parcel_id":"113272390000","policy_area":"Suburban","source":"Loudoun County GIS \u2014 Existing Data Center Parcels"}},{"type":"Feature","geometry":{"type":"Point","coordinates":[-77.472568,39.001847]},"properties":{"id":"lc-ex-100","name":"Dulles Berry (Dupont Fabros 3)","operator":"Darab Ventures One LLC","status":"under_construction","status_raw":"UNDER CONSTRUCTION","district":"Sterling","sqft":616650,"acres":30.9,"zoning":"PDRDP","zoning_case":"ZMAP-1986-0056","parcel_id":"089208954000","policy_area":"Urban","source":"Loudoun County GIS \u2014 Existing Data Center Parcels"}},{"type":"Feature","geometry":{"type":"Point","coordinates":[-77.479088,39.014993]},"properties":{"id":"lc-ex-101","name":"Ashburn Technology Park","operator":"Intergate Ashburn I LLC","status":"operational","status_raw":"BUILT","district":"Broad Run","sqft":580498,"acres":21.33,"zoning":"IP","zoning_case":"ZMAP-1988-0270","parcel_id":"088389930000","policy_area":"Suburban","source":"Loudoun County GIS \u2014 Existing Data Center Parcels"}},{"type":"Feature","geometry":{"type":"Point","coordinates":[-77.434306,39.025032]},"properties":{"id":"lc-ex-102","name":"Kincora","operator":"Unit Owners-general Common Element","status":"operational","status_raw":"BUILT","district":"Sterling","sqft":516426,"acres":39.7,"zoning":"PDMUB","zoning_case":"ZMAP-2008-0021","parcel_id":"042394385000","policy_area":"Suburban","source":"Loudoun County GIS \u2014 Existing Data Center Parcels"}},{"type":"Feature","geometry":{"type":"Point","coordinates":[-77.494591,38.979947]},"properties":{"id":"lc-ex-103","name":"Northwoods","operator":"Amazon Data Services Inc","status":"under_construction","status_raw":"UNDER CONSTRUCTION","district":"Sterling","sqft":1334306,"acres":79.62,"zoning":"GI","zoning_case":"ZMAP-1988-0200","parcel_id":"122207249000","policy_area":"Suburban","source":"Loudoun County GIS \u2014 Existing Data Center Parcels"}},{"type":"Feature","geometry":{"type":"Point","coordinates":[-77.44162,39.009996]},"properties":{"id":"lc-ex-104","name":"Dulles 28 Technology Park","operator":"Long Drive Land Co LLC","status":"under_construction","status_raw":"UNDER CONSTRUCTION","district":"Sterling","sqft":254174,"acres":13.28,"zoning":"IP","zoning_case":"ZMAP-2020-0015","parcel_id":"043176560000","policy_area":"Suburban","source":"Loudoun County GIS \u2014 Existing Data Center Parcels"}},{"type":"Feature","geometry":{"type":"Point","coordinates":[-77.44335,39.008209]},"properties":{"id":"lc-ex-105","name":"Dulles 28 Technology Park","operator":"Long Drive Land Co LLC","status":"under_construction","status_raw":"UNDER CONSTRUCTION","district":"Sterling","sqft":254144,"acres":15.02,"zoning":"IP","zoning_case":"ZMAP-2020-0015","parcel_id":"043171795000","policy_area":"Suburban","source":"Loudoun County GIS \u2014 Existing Data Center Parcels"}},{"type":"Feature","geometry":{"type":"Point","coordinates":[-77.414962,39.021872]},"properties":{"id":"lc-ex-106","name":"45865 Maries Road","operator":"Mecp 1 Ashburn 2 LLC","status":"under_construction","status_raw":"UNDER CONSTRUCTION","district":"Sterling","sqft":416115,"acres":9.94,"zoning":"IP","zoning_case":"ZMAP-2021-0014","parcel_id":"030292034000","policy_area":"Suburban","source":"Loudoun County GIS \u2014 Existing Data Center Parcels"}},{"type":"Feature","geometry":{"type":"Point","coordinates":[-77.449163,38.998116]},"properties":{"id":"lc-ex-107","name":"Broad Run Technology Park","operator":"QTS Investment Properties Ashburn LLC","status":"under_construction","status_raw":"UNDER CONSTRUCTION","district":"Sterling","sqft":189890,"acres":7.26,"zoning":"IP","zoning_case":"ZRTD-2016-0004","parcel_id":"044155625000","policy_area":"Suburban","source":"Loudoun County GIS \u2014 Existing Data Center Parcels"}},{"type":"Feature","geometry":{"type":"Point","coordinates":[-77.476728,39.006496]},"properties":{"id":"lc-ex-108","name":"Loudoun Metro","operator":"Condominium Common Element","status":"under_construction","status_raw":"UNDER CONSTRUCTION","district":"Broad Run","sqft":478908,"acres":63.02,"zoning":"OP","zoning_case":"ZMAP-1998-0003","parcel_id":"089496314000","policy_area":"Urban","source":"Loudoun County GIS \u2014 Existing Data Center Parcels"}},{"type":"Feature","geometry":{"type":"Point","coordinates":[-77.46344,39.020653]},"properties":{"id":"lc-ex-109","name":"Ashburn Corporate Center","operator":"Fox Properties LLC","status":"operational","status_raw":"BUILT","district":"Broad Run","sqft":611491,"acres":32.11,"zoning":"IP","zoning_case":"ZRTD-2017-0008","parcel_id":"060170268000","policy_area":"Suburban","source":"Loudoun County GIS \u2014 Existing Data Center Parcels"}},{"type":"Feature","geometry":{"type":"Point","coordinates":[-77.465599,39.017553]},"properties":{"id":"lc-ex-110","name":"Ashburn Corporate Center","operator":"Alshain Ventures LLC","status":"operational","status_raw":"BUILT","district":"Broad Run","sqft":446513,"acres":25.42,"zoning":"IP","zoning_case":"ZRTD-2017-0008","parcel_id":"061467942000","policy_area":"Suburban","source":"Loudoun County GIS \u2014 Existing Data Center Parcels"}},{"type":"Feature","geometry":{"type":"Point","coordinates":[-77.462725,39.017962]},"properties":{"id":"lc-ex-111","name":"Ashburn Corporate Center","operator":"Grizzly Ventures LLC","status":"operational","status_raw":"BUILT","district":"Broad Run","sqft":286865,"acres":18.56,"zoning":"IP","zoning_case":"ZRTD-2017-0008","parcel_id":"060178810000","policy_area":"Suburban","source":"Loudoun County GIS \u2014 Existing Data Center Parcels"}},{"type":"Feature","geometry":{"type":"Point","coordinates":[-77.458899,39.018508]},"properties":{"id":"lc-ex-112","name":"Beaumeade","operator":"21673 Beaumeade Circle LLC","status":"operational","status_raw":"BUILT","district":"Broad Run","sqft":455795,"acres":22.63,"zoning":"IP","zoning_case":"ZRTD-2017-0016","parcel_id":"060189720000","policy_area":"Suburban","source":"Loudoun County GIS \u2014 Existing Data Center Parcels"}},{"type":"Feature","geometry":{"type":"Point","coordinates":[-77.459891,39.01585]},"properties":{"id":"lc-ex-113","name":"Beaumeade","operator":"Equinix LLC","status":"operational","status_raw":"BUILT","district":"Broad Run","sqft":296539,"acres":31.92,"zoning":"IP","zoning_case":"ZMAP-2008-0013","parcel_id":"061483407000","policy_area":"Suburban","source":"Loudoun County GIS \u2014 Existing Data Center Parcels"}},{"type":"Feature","geometry":{"type":"Point","coordinates":[-77.471809,39.017718]},"properties":{"id":"lc-ex-114","name":"Ashburn Technology Park (BOS of Loudoun County)","operator":"NTT Global Data Centers VA LLC","status":"under_construction","status_raw":"BUILT/UNDER CONSTRUCTION","district":"Broad Run","sqft":1085670,"acres":53.73,"zoning":"IP","zoning_case":"ZMAP-1988-0270","parcel_id":"061450432000","policy_area":"Suburban","source":"Loudoun County GIS \u2014 Existing Data Center Parcels"}},{"type":"Feature","geometry":{"type":"Point","coordinates":[-77.47526,39.019091]},"properties":{"id":"lc-ex-115","name":"Ashburn Technology Park (BOS of Loudoun County)","operator":"NTT Global Data Centers VA LLC","status":"operational","status_raw":"BUILT","district":"Broad Run","sqft":217934,"acres":24.19,"zoning":"IP","zoning_case":"ZMAP-1988-0270","parcel_id":"087100681000","policy_area":"Suburban","source":"Loudoun County GIS \u2014 Existing Data Center Parcels"}},{"type":"Feature","geometry":{"type":"Point","coordinates":[-77.54603,39.053972]},"properties":{"id":"lc-ex-116","name":"Stonewall Secure Business Park (Loudoun West)","operator":"Nova Building 4 LLC","status":"under_construction","status_raw":"UNDER CONSTRUCTION","district":"Leesburg","sqft":353319,"acres":8.87,"zoning":"IP","zoning_case":"ZMAP-2008-0017","parcel_id":"193178229000","policy_area":"Transition","source":"Loudoun County GIS \u2014 Existing Data Center Parcels"}},{"type":"Feature","geometry":{"type":"Point","coordinates":[-77.544738,39.055424]},"properties":{"id":"lc-ex-117","name":"Stonewall Secure Business Park (Loudoun West)","operator":"Nova Building 3 LLC","status":"under_construction","status_raw":"UNDER CONSTRUCTION","district":"Leesburg","sqft":413099,"acres":9.88,"zoning":"IP","zoning_case":"ZMAP-2008-0017","parcel_id":"193281883000","policy_area":"Transition","source":"Loudoun County GIS \u2014 Existing Data Center Parcels"}},{"type":"Feature","geometry":{"type":"Point","coordinates":[-77.444348,38.981057]},"properties":{"id":"lc-ex-118","name":"Le Bourget Business Park","operator":"22995 Wilder Court LLC","status":"operational","status_raw":"BUILT","district":"Sterling","sqft":130432,"acres":11.51,"zoning":"PDGI","zoning_case":"ZMAP-1986-0015","parcel_id":"046368231000","policy_area":"Suburban","source":"Loudoun County GIS \u2014 Existing Data Center Parcels"}},{"type":"Feature","geometry":{"type":"Point","coordinates":[-77.549818,38.949312]},"properties":{"id":"lc-ex-119","name":"Evergreen Meadows","operator":"Yondr Jk 2 LLC","status":"operational","status_raw":"BUILT","district":"Dulles","sqft":335638,"acres":33.98,"zoning":"IP","zoning_case":"ZMAP-2005-0036","parcel_id":"203371445000","policy_area":"Suburban","source":"Loudoun County GIS \u2014 Existing Data Center Parcels"}},{"type":"Feature","geometry":{"type":"Point","coordinates":[-77.446698,39.004784]},"properties":{"id":"lc-ex-120","name":"Pacific Corporate Park","operator":"Pacific-ashburn Campus LLC","status":"under_construction","status_raw":"UNDER CONSTRUCTION","district":"Sterling","sqft":1027499,"acres":43.08,"zoning":"IP","zoning_case":"ZRTD-2022-0001","parcel_id":"044461959000","policy_area":"Suburban","source":"Loudoun County GIS \u2014 Existing Data Center Parcels"}},{"type":"Feature","geometry":{"type":"Point","coordinates":[-77.550088,38.944903]},"properties":{"id":"lc-ex-121","name":"Inova Health System Plan","operator":"Amazon Data Services, Inc","status":"under_construction","status_raw":"UNDER CONSTRUCTION","district":"Dulles","sqft":429213,"acres":39.24,"zoning":"IP","zoning_case":"ZMAP-2005-0036","parcel_id":"203170856000","policy_area":"Suburban","source":"Loudoun County GIS \u2014 Existing Data Center Parcels"}},{"type":"Feature","geometry":{"type":"Point","coordinates":[-77.456498,39.014039]},"properties":{"id":"lc-ex-122","name":"Beaumeade","operator":"Digital Filigree LLC","status":"under_construction","status_raw":"UNDER CONSTRUCTION","district":"Broad Run","sqft":336544,"acres":13.13,"zoning":"IP","zoning_case":"ZMAP-2006-0022","parcel_id":"061394321000","policy_area":"Suburban","source":"Loudoun County GIS \u2014 Existing Data Center Parcels"}},{"type":"Feature","geometry":{"type":"Point","coordinates":[-77.508864,39.075773]},"properties":{"id":"lc-ex-123","name":"Belmont Innovation Station","operator":"Loudoun Prop 7 LLC","status":"under_construction","status_raw":"UNDER CONSTRUCTION","district":"Ashburn","sqft":243984,"acres":17.82,"zoning":"IP","zoning_case":"ZMAP-2022-0021","parcel_id":"113167503000","policy_area":"Suburban","source":"Loudoun County GIS \u2014 Existing Data Center Parcels"}},{"type":"Feature","geometry":{"type":"Point","coordinates":[-77.445883,38.995074]},"properties":{"id":"lc-ex-124","name":"1501 Moran Road","operator":"1501 Moran Road Development Owner LLC","status":"under_construction","status_raw":"UNDER CONSTRUCTION","district":"Sterling","sqft":245801,"acres":7.42,"zoning":"IP","zoning_case":"ZRTD-2021-0008","parcel_id":"045465016000","policy_area":"Suburban","source":"Loudoun County GIS \u2014 Existing Data Center Parcels"}},{"type":"Feature","geometry":{"type":"Point","coordinates":[-77.416835,39.022633]},"properties":{"id":"lc-ex-125","name":"Tall Oaks","operator":"Maries Tech Park II LLC","status":"under_construction","status_raw":"UNDER CONSTRUCTION","district":"Sterling","sqft":218112,"acres":9.58,"zoning":"IP","zoning_case":"ZRTD-2017-0007","parcel_id":"030286764000","policy_area":"Suburban","source":"Loudoun County GIS \u2014 Existing Data Center Parcels"}},{"type":"Feature","geometry":{"type":"Point","coordinates":[-77.434241,38.992863]},"properties":{"id":"lc-ex-126","name":"Digital Sterling Premeire","operator":"Digital Gold Sterling LLC","status":"operational","status_raw":"BUILT","district":"Sterling","sqft":180355,"acres":12.89,"zoning":"IP","zoning_case":"ZRTD-2016-0003","parcel_id":"045399350000","policy_area":"Suburban","source":"Loudoun County GIS \u2014 Existing Data Center Parcels"}},{"type":"Feature","geometry":{"type":"Point","coordinates":[-77.535153,39.051221]},"properties":{"id":"lc-ex-127","name":"Project Aspen","operator":"Hayden Technologies LLC","status":"operational","status_raw":"BUILT","district":"Leesburg","sqft":920133,"acres":119.08,"zoning":"GI","zoning_case":"ZMAP-2008-0017","parcel_id":"194498227000","policy_area":"Transition","source":"Loudoun County GIS \u2014 Existing Data Center Parcels"}},{"type":"Feature","geometry":{"type":"Point","coordinates":[-77.460748,38.995585]},"properties":{"id":"lc-ex-128","name":"Project Nova","operator":"Sdc Ashburn I LLC","status":"under_construction","status_raw":"UNDER CONSTRUCTION","district":"Sterling","sqft":1063133,"acres":75.69,"zoning":"OP","zoning_case":null,"parcel_id":"063479549000","policy_area":"Urban","source":"Loudoun County GIS \u2014 Existing Data Center Parcels"}},{"type":"Feature","geometry":{"type":"Point","coordinates":[-77.484504,38.920898]},"properties":{"id":"lc-ex-129","name":"H&m Property","operator":"Amazon Data Services Inc","status":"under_construction","status_raw":"UNDER CONSTRUCTION","district":"Dulles","sqft":768211,"acres":82.19,"zoning":"GI","zoning_case":"ZMAP-2019-0017","parcel_id":"096183926000","policy_area":"Suburban","source":"Loudoun County GIS \u2014 Existing Data Center Parcels"}},{"type":"Feature","geometry":{"type":"Point","coordinates":[-77.454557,39.01237]},"properties":{"id":"lc-ex-130","name":"Beaumeade","operator":"Equinix LLC","status":"operational","status_raw":"BUILT","district":"Sterling","sqft":399216,"acres":19.89,"zoning":"IP","zoning_case":"ZRTD-2015-0005","parcel_id":"061200160000","policy_area":"Suburban","source":"Loudoun County GIS \u2014 Existing Data Center Parcels"}},{"type":"Feature","geometry":{"type":"Point","coordinates":[-77.471687,38.996244]},"properties":{"id":"lc-ex-131","name":"Project Nova","operator":"Sdc Ashburn Alpha I LLC","status":"operational","status_raw":"BUILT","district":"Sterling","sqft":531592,"acres":49.9,"zoning":"OP","zoning_case":"ZMAP-2019-0002","parcel_id":"062159785000","policy_area":"Urban","source":"Loudoun County GIS \u2014 Existing Data Center Parcels"}},{"type":"Feature","geometry":{"type":"Point","coordinates":[-77.463188,38.99947]},"properties":{"id":"lc-ex-132","name":"Project Nova","operator":"Stack Broad Run Holdings LLC","status":"under_construction","status_raw":"UNDER CONSTRUCTION","district":"Sterling","sqft":738961,"acres":81.91,"zoning":"OP","zoning_case":null,"parcel_id":"062275493000","policy_area":"Urban","source":"Loudoun County GIS \u2014 Existing Data Center Parcels"}},{"type":"Feature","geometry":{"type":"Point","coordinates":[-77.534639,38.957244]},"properties":{"id":"lc-ex-133","name":"Tech Park at Brambleton","operator":"Tech Park at Brambleton LLC","status":"under_construction","status_raw":"UNDER CONSTRUCTION","district":"Little River","sqft":858426,"acres":72.07,"zoning":"IP","zoning_case":null,"parcel_id":"161258590000","policy_area":"Suburban","source":"Loudoun County GIS \u2014 Existing Data Center Parcels"}},{"type":"Feature","geometry":{"type":"Point","coordinates":[-77.469692,39.001273]},"properties":{"id":"lc-ex-134","name":"Darab Ventures Two LLC","operator":"Darab Ventures Two LLC","status":"under_construction","status_raw":"UNDER CONSTRUCTION","district":"Sterling","sqft":517618,"acres":23.76,"zoning":"PDRDP","zoning_case":null,"parcel_id":"062257134000","policy_area":"Urban","source":"Loudoun County GIS \u2014 Existing Data Center Parcels"}},{"type":"Feature","geometry":{"type":"Point","coordinates":[-77.508942,39.074418]},"properties":{"id":"lc-ex-135","name":"Unnamed data center parcel","operator":null,"status":"under_construction","status_raw":"UNDER CONSTRUCTION","district":"Ashburn","sqft":243984,"acres":21.57,"zoning":"IP","zoning_case":null,"parcel_id":"113162785000","policy_area":"Suburban","source":"Loudoun County GIS \u2014 Existing Data Center Parcels"}},{"type":"Feature","geometry":{"type":"Point","coordinates":[-77.53957,39.051688]},"properties":{"id":"lc-ex-136","name":"Project Aspen","operator":"Hayden Technologies LLC","status":"operational","status_raw":"BUILT","district":"Leesburg","sqft":920133,"acres":119.08,"zoning":"IP","zoning_case":"ZMAP-2008-0017","parcel_id":"194498227000","policy_area":"Transition","source":"Loudoun County GIS \u2014 Existing Data Center Parcels"}},{"type":"Feature","geometry":{"type":"Point","coordinates":[-77.476236,39.00792]},"properties":{"id":"lc-ex-137","name":"Loudoun Metro","operator":"Condominium Common Element","status":"under_construction","status_raw":"UNDER CONSTRUCTION","district":"Broad Run","sqft":478908,"acres":63.02,"zoning":"OP","zoning_case":"ZMAP-1998-0003","parcel_id":"089496314000","policy_area":"Suburban","source":"Loudoun County GIS \u2014 Existing Data Center Parcels"}},{"type":"Feature","geometry":{"type":"Point","coordinates":[-77.473551,39.013057]},"properties":{"id":"lc-ex-138","name":"Aligned Energy","operator":"Aligned Energy","status":"operational","status_raw":"BUILT","district":"Broad Run","sqft":46600,"acres":3.15,"zoning":"OP","zoning_case":null,"parcel_id":"088205761000","policy_area":"Suburban","source":"Loudoun County GIS \u2014 Existing Data Center Parcels"}},{"type":"Feature","geometry":{"type":"Point","coordinates":[-77.472351,39.013362]},"properties":{"id":"lc-ex-139","name":"Aligned Energy","operator":"Aligned Energy","status":"operational","status_raw":"BUILT","district":"Broad Run","sqft":55900,"acres":3.0,"zoning":"OP","zoning_case":null,"parcel_id":"088209173000","policy_area":"Suburban","source":"Loudoun County GIS \u2014 Existing Data Center Parcels"}},{"type":"Feature","geometry":{"type":"Point","coordinates":[-77.453845,39.01438]},"properties":{"id":"lc-pl-140","name":"Beaumeade","operator":null,"status":"proposed","status_raw":"Approved","district":"Sterling","sqft":113000,"acres":null,"zoning":null,"zoning_case":"ZRTD-2015-0005","application":"EPLAN-2023-0083","source":"Loudoun County GIS \u2014 Data Center Pipeline Areas"}},{"type":"Feature","geometry":{"type":"Point","coordinates":[-77.548207,38.954524]},"properties":{"id":"lc-pl-141","name":"Evergreen Meadows","operator":null,"status":"proposed","status_raw":"Approved: Conditionally","district":"Little River","sqft":295000,"acres":12.39,"zoning":null,"zoning_case":"ZMAP-2018-0015","application":"EPLAN-2023-0104","source":"Loudoun County GIS \u2014 Data Center Pipeline Areas"}},{"type":"Feature","geometry":{"type":"Point","coordinates":[-77.540915,38.946124]},"properties":{"id":"lc-pl-142","name":"EPLAN-2023-0115","operator":null,"status":"proposed","status_raw":"Approved: Conditionally","district":"Dulles","sqft":184080,"acres":21.21,"zoning":null,"zoning_case":"ZMAP-2019-0016","application":"EPLAN-2023-0115","source":"Loudoun County GIS \u2014 Data Center Pipeline Areas"}},{"type":"Feature","geometry":{"type":"Point","coordinates":[-77.416041,38.986067]},"properties":{"id":"lc-pl-143","name":"EPLAN-2023-0119","operator":null,"status":"proposed","status_raw":"Approved: Conditionally","district":"Sterling","sqft":347600,"acres":13.24,"zoning":null,"zoning_case":"ZRTD-2022-0002","application":"EPLAN-2023-0119","source":"Loudoun County GIS \u2014 Data Center Pipeline Areas"}},{"type":"Feature","geometry":{"type":"Point","coordinates":[-77.543717,38.947845]},"properties":{"id":"lc-pl-144","name":"EPLAN-2023-0122","operator":null,"status":"proposed","status_raw":"Active","district":"Dulles","sqft":256121,"acres":33.62,"zoning":null,"zoning_case":"ZMAP-2019-0015","application":"EPLAN-2023-0122","source":"Loudoun County GIS \u2014 Data Center Pipeline Areas"}},{"type":"Feature","geometry":{"type":"Point","coordinates":[-77.545085,38.956189]},"properties":{"id":"lc-pl-145","name":"Evergreen Meadows","operator":null,"status":"proposed","status_raw":"Active","district":"Little River","sqft":1032500,"acres":48.53,"zoning":null,"zoning_case":"ZMAP-2005-0036","application":"EPLAN-2023-0130","source":"Loudoun County GIS \u2014 Data Center Pipeline Areas"}},{"type":"Feature","geometry":{"type":"Point","coordinates":[-77.495398,38.953317]},"properties":{"id":"lc-pl-146","name":"Prologis Exchange","operator":null,"status":"proposed","status_raw":"Active","district":"Dulles","sqft":697500,"acres":39.96,"zoning":null,"zoning_case":"ZMAP-1986-0500","application":"EPLAN-2024-0036","source":"Loudoun County GIS \u2014 Data Center Pipeline Areas"}},{"type":"Feature","geometry":{"type":"Point","coordinates":[-77.424055,39.026677]},"properties":{"id":"lc-pl-147","name":"EPLAN-2024-0058","operator":null,"status":"proposed","status_raw":"Active","district":"Sterling","sqft":256550,"acres":9.82,"zoning":null,"zoning_case":null,"application":"EPLAN-2024-0058","source":"Loudoun County GIS \u2014 Data Center Pipeline Areas"}},{"type":"Feature","geometry":{"type":"Point","coordinates":[-77.527652,39.084365]},"properties":{"id":"lc-pl-148","name":"Tuscarora Crossing LB1 PH1","operator":null,"status":"proposed","status_raw":"Approved: Conditionally","district":"Leesburg","sqft":520950,"acres":null,"zoning":null,"zoning_case":"ZMAP-2012-0011","application":"EPLAN-2024-0059","source":"Loudoun County GIS \u2014 Data Center Pipeline Areas"}},{"type":"Feature","geometry":{"type":"Point","coordinates":[-77.486674,38.958658]},"properties":{"id":"lc-pl-149","name":"Digital Dulles Land Condo","operator":null,"status":"proposed","status_raw":"Active","district":"Dulles","sqft":4355759,"acres":17.54,"zoning":null,"zoning_case":null,"application":"EPLAN-2024-0060","source":"Loudoun County GIS \u2014 Data Center Pipeline Areas"}},{"type":"Feature","geometry":{"type":"Point","coordinates":[-77.445985,39.025749]},"properties":{"id":"lc-pl-150","name":"Beaumeade","operator":null,"status":"proposed","status_raw":"Active","district":"Sterling","sqft":1176000,"acres":44.37,"zoning":null,"zoning_case":null,"application":"EPLAN-2024-0077","source":"Loudoun County GIS \u2014 Data Center Pipeline Areas"}},{"type":"Feature","geometry":{"type":"Point","coordinates":[-77.42785,39.019737]},"properties":{"id":"lc-pl-151","name":"Steeplechase","operator":null,"status":"proposed","status_raw":"Approved: Conditionally","district":"Sterling","sqft":244400,"acres":9.35,"zoning":null,"zoning_case":"ZRTD-2021-0009","application":"EPLAN-2024-0081","source":"Loudoun County GIS \u2014 Data Center Pipeline Areas"}},{"type":"Feature","geometry":{"type":"Point","coordinates":[-77.418694,38.985391]},"properties":{"id":"lc-pl-152","name":"Commonwealth Center","operator":null,"status":"proposed","status_raw":"Active","district":"Sterling","sqft":285322,"acres":11.79,"zoning":null,"zoning_case":null,"application":"EPLAN-2024-0105","source":"Loudoun County GIS \u2014 Data Center Pipeline Areas"}},{"type":"Feature","geometry":{"type":"Point","coordinates":[-77.427327,38.991849]},"properties":{"id":"lc-pl-153","name":"Mid Dulles Center","operator":null,"status":"proposed","status_raw":"Active","district":"Sterling","sqft":374670,"acres":18.03,"zoning":null,"zoning_case":"ZRTD-2018-0004","application":"EPLAN-2024-0154","source":"Loudoun County GIS \u2014 Data Center Pipeline Areas"}},{"type":"Feature","geometry":{"type":"Point","coordinates":[-77.446263,39.000146]},"properties":{"id":"lc-pl-154","name":"Broad Run Business Center","operator":null,"status":"proposed","status_raw":"Approved: Conditionally","district":"Sterling","sqft":600742,"acres":32.52,"zoning":null,"zoning_case":"ZRTD-2022-0006","application":"EPLAN-2024-0155","source":"Loudoun County GIS \u2014 Data Center Pipeline Areas"}},{"type":"Feature","geometry":{"type":"Point","coordinates":[-77.478245,38.985789]},"properties":{"id":"lc-pl-155","name":"Mercure Business Park","operator":null,"status":"proposed","status_raw":"Active","district":"Sterling","sqft":76020,"acres":5.49,"zoning":null,"zoning_case":null,"application":"EPLAN-2024-0161","source":"Loudoun County GIS \u2014 Data Center Pipeline Areas"}},{"type":"Feature","geometry":{"type":"Point","coordinates":[-77.479232,38.982996]},"properties":{"id":"lc-pl-156","name":"Mercure Business Park","operator":null,"status":"proposed","status_raw":"Active","district":"Sterling","sqft":178648,"acres":11.05,"zoning":null,"zoning_case":"ZMAP-0000-0322","application":"EPLAN-2024-0162","source":"Loudoun County GIS \u2014 Data Center Pipeline Areas"}},{"type":"Feature","geometry":{"type":"Point","coordinates":[-77.534738,38.954126]},"properties":{"id":"lc-pl-157","name":"EPLAN-2024-0163","operator":null,"status":"proposed","status_raw":"Active","district":"Little River","sqft":106332,"acres":19.57,"zoning":null,"zoning_case":"ZMAP-2004-0002","application":"EPLAN-2024-0163","source":"Loudoun County GIS \u2014 Data Center Pipeline Areas"}},{"type":"Feature","geometry":{"type":"Point","coordinates":[-77.431708,38.981174]},"properties":{"id":"lc-pl-158","name":"Gateway North","operator":null,"status":"proposed","status_raw":"Active","district":"Sterling","sqft":76275,"acres":6.32,"zoning":null,"zoning_case":"ZRTD-2021-0001","application":"EPLAN-2024-0178","source":"Loudoun County GIS \u2014 Data Center Pipeline Areas"}},{"type":"Feature","geometry":{"type":"Point","coordinates":[-77.482207,38.984676]},"properties":{"id":"lc-pl-159","name":"Mercure Business Park","operator":null,"status":"proposed","status_raw":"Active","district":"Sterling","sqft":101579,"acres":5.84,"zoning":null,"zoning_case":"ZMAP-0000-0322","application":"EPLAN-2024-0180","source":"Loudoun County GIS \u2014 Data Center Pipeline Areas"}},{"type":"Feature","geometry":{"type":"Point","coordinates":[-77.481966,38.983889]},"properties":{"id":"lc-pl-160","name":"Mercure Business Park","operator":null,"status":"proposed","status_raw":"Active","district":"Sterling","sqft":104556,"acres":5.79,"zoning":null,"zoning_case":"ZMAP-0000-0322","application":"EPLAN-2024-0181","source":"Loudoun County GIS \u2014 Data Center Pipeline Areas"}},{"type":"Feature","geometry":{"type":"Point","coordinates":[-77.42267,38.990963]},"properties":{"id":"lc-pl-161","name":"Sterling Park Ip","operator":null,"status":"proposed","status_raw":"Active","district":"Sterling","sqft":52744,"acres":3.28,"zoning":null,"zoning_case":"ZRTD-2019-0005","application":"EPLAN-2024-0182","source":"Loudoun County GIS \u2014 Data Center Pipeline Areas"}},{"type":"Feature","geometry":{"type":"Point","coordinates":[-77.51276,38.957325]},"properties":{"id":"lc-pl-162","name":"Farah Naples","operator":null,"status":"proposed","status_raw":"Active","district":"Little River","sqft":101092,"acres":43.98,"zoning":null,"zoning_case":null,"application":"EPLAN-2024-0184","source":"Loudoun County GIS \u2014 Data Center Pipeline Areas"}},{"type":"Feature","geometry":{"type":"Point","coordinates":[-77.454348,39.02543]},"properties":{"id":"lc-pl-163","name":"Beaumeade Parcel C2","operator":null,"status":"proposed","status_raw":"Approved","district":"Broad Run","sqft":161950,"acres":9.33,"zoning":null,"zoning_case":"ZRTD-2015-0003","application":"EPLAN-2024-0193","source":"Loudoun County GIS \u2014 Data Center Pipeline Areas"}},{"type":"Feature","geometry":{"type":"Point","coordinates":[-77.434804,39.016618]},"properties":{"id":"lc-pl-164","name":"Paragonpark","operator":null,"status":"proposed","status_raw":"Active","district":"Sterling","sqft":768255,"acres":34.26,"zoning":null,"zoning_case":"ZRTD-2016-0012","application":"EPLAN-2024-0200","source":"Loudoun County GIS \u2014 Data Center Pipeline Areas"}},{"type":"Feature","geometry":{"type":"Point","coordinates":[-77.501658,38.954807]},"properties":{"id":"lc-pl-165","name":"EPLAN-2024-0205","operator":null,"status":"proposed","status_raw":"Active","district":"Dulles","sqft":1239000,"acres":null,"zoning":null,"zoning_case":null,"application":"EPLAN-2024-0205","source":"Loudoun County GIS \u2014 Data Center Pipeline Areas"}},{"type":"Feature","geometry":{"type":"Point","coordinates":[-77.481646,38.982732]},"properties":{"id":"lc-pl-166","name":"Mercure Business Park","operator":null,"status":"proposed","status_raw":"Active","district":"Sterling","sqft":48120,"acres":null,"zoning":null,"zoning_case":null,"application":"EPLAN-2024-0210","source":"Loudoun County GIS \u2014 Data Center Pipeline Areas"}},{"type":"Feature","geometry":{"type":"Point","coordinates":[-77.528926,39.078819]},"properties":{"id":"lc-pl-167","name":"Crosstrail Industrl Land Condo","operator":null,"status":"proposed","status_raw":"Active","district":"Leesburg","sqft":304794,"acres":null,"zoning":null,"zoning_case":null,"application":"EPLAN-2024-0211","source":"Loudoun County GIS \u2014 Data Center Pipeline Areas"}},{"type":"Feature","geometry":{"type":"Point","coordinates":[-77.529878,38.939786]},"properties":{"id":"lc-pl-168","name":"EPLAN-2024-0212","operator":null,"status":"proposed","status_raw":"Active","district":"Dulles","sqft":401050,"acres":null,"zoning":null,"zoning_case":null,"application":"EPLAN-2024-0212","source":"Loudoun County GIS \u2014 Data Center Pipeline Areas"}},{"type":"Feature","geometry":{"type":"Point","coordinates":[-77.481161,38.921762]},"properties":{"id":"lc-pl-169","name":"Amazon Data Services","operator":null,"status":"proposed","status_raw":"Approved","district":"Dulles","sqft":550000,"acres":68.86,"zoning":null,"zoning_case":"ZMAP-2019-0017","application":"EPLAN-2025-0012","source":"Loudoun County GIS \u2014 Data Center Pipeline Areas"}},{"type":"Feature","geometry":{"type":"Point","coordinates":[-77.429218,38.995938]},"properties":{"id":"lc-pl-170","name":"Sterling Business Park","operator":null,"status":"proposed","status_raw":"Active","district":"Sterling","sqft":315582,"acres":null,"zoning":null,"zoning_case":null,"application":"EPLAN-2025-0027","source":"Loudoun County GIS \u2014 Data Center Pipeline Areas"}},{"type":"Feature","geometry":{"type":"Point","coordinates":[-77.457005,39.021049]},"properties":{"id":"lc-pl-171","name":"Beaumeade","operator":null,"status":"proposed","status_raw":"Active","district":"Broad Run","sqft":230530,"acres":null,"zoning":null,"zoning_case":null,"application":"EPLAN-2025-0028","source":"Loudoun County GIS \u2014 Data Center Pipeline Areas"}},{"type":"Feature","geometry":{"type":"Point","coordinates":[-77.473695,39.0643]},"properties":{"id":"lc-pl-172","name":"Ashburn Village Office Park","operator":null,"status":"proposed","status_raw":"Active","district":"Broad Run","sqft":469479,"acres":null,"zoning":null,"zoning_case":"ZMAP-1984-0007","application":"EPLAN-2025-0061","source":"Loudoun County GIS \u2014 Data Center Pipeline Areas"}},{"type":"Feature","geometry":{"type":"Point","coordinates":[-77.498109,38.958749]},"properties":{"id":"lc-pl-173","name":"Prologis Exchange","operator":null,"status":"proposed","status_raw":"Active","district":"Dulles","sqft":16049,"acres":6.29,"zoning":null,"zoning_case":null,"application":"EPLAN-2025-0102","source":"Loudoun County GIS \u2014 Data Center Pipeline Areas"}},{"type":"Feature","geometry":{"type":"Point","coordinates":[-77.552442,39.056529]},"properties":{"id":"lc-pl-174","name":"EPLAN-2025-0126","operator":null,"status":"proposed","status_raw":"Active","district":"Leesburg","sqft":1388880,"acres":167.44,"zoning":null,"zoning_case":"ZMAP-2022-0024","application":"EPLAN-2025-0126","source":"Loudoun County GIS \u2014 Data Center Pipeline Areas"}},{"type":"Feature","geometry":{"type":"Point","coordinates":[-77.461726,39.001875]},"properties":{"id":"lc-pl-175","name":"Stack Broad Run Land Condo","operator":null,"status":"proposed","status_raw":"Approved","district":"Sterling","sqft":376862,"acres":33.98,"zoning":null,"zoning_case":null,"application":"EPLAN-2025-0135","source":"Loudoun County GIS \u2014 Data Center Pipeline Areas"}},{"type":"Feature","geometry":{"type":"Point","coordinates":[-77.510186,39.071124]},"properties":{"id":"lc-pl-176","name":"EPLAN-2025-0195","operator":null,"status":"proposed","status_raw":"Active","district":"Ashburn","sqft":751902,"acres":113.92,"zoning":null,"zoning_case":"ZMAP-2022-0021","application":"EPLAN-2025-0195","source":"Loudoun County GIS \u2014 Data Center Pipeline Areas"}},{"type":"Feature","geometry":{"type":"Point","coordinates":[-77.509822,39.070809]},"properties":{"id":"lc-pl-177","name":"LEGI-2023-0048","operator":null,"status":"proposed","status_raw":"Approved","district":"Ashburn","sqft":67840,"acres":102.19,"zoning":null,"zoning_case":"ZMAP-2022-0021","application":"LEGI-2023-0048","source":"Loudoun County GIS \u2014 Data Center Pipeline Areas"}},{"type":"Feature","geometry":{"type":"Point","coordinates":[-77.557781,39.059402]},"properties":{"id":"lc-pl-178","name":"Haynes Waiver","operator":null,"status":"proposed","status_raw":"Approved","district":"Leesburg","sqft":null,"acres":23.36,"zoning":null,"zoning_case":null,"application":"LEGI-2023-0052","source":"Loudoun County GIS \u2014 Data Center Pipeline Areas"}},{"type":"Feature","geometry":{"type":"Point","coordinates":[-77.550461,39.062941]},"properties":{"id":"lc-pl-179","name":"LEGI-2023-0064","operator":null,"status":"proposed","status_raw":"Approved","district":"Leesburg","sqft":556746,"acres":22.38,"zoning":null,"zoning_case":null,"application":"LEGI-2023-0064","source":"Loudoun County GIS \u2014 Data Center Pipeline Areas"}},{"type":"Feature","geometry":{"type":"Point","coordinates":[-77.536,38.943658]},"properties":{"id":"lc-pl-180","name":"Arcola Grove","operator":null,"status":"proposed","status_raw":"Approved","district":"Dulles","sqft":614400,"acres":23.57,"zoning":null,"zoning_case":"ZMAP-2020-0010","application":"LEGI-2023-0071","source":"Loudoun County GIS \u2014 Data Center Pipeline Areas"}},{"type":"Feature","geometry":{"type":"Point","coordinates":[-77.471505,39.005046]},"properties":{"id":"lc-pl-181","name":"Mci/no VA Campus","operator":null,"status":"proposed","status_raw":"Approved","district":"Sterling","sqft":723779,"acres":53.28,"zoning":null,"zoning_case":"ZMAP-1998-0003","application":"LEGI-2023-0077","source":"Loudoun County GIS \u2014 Data Center Pipeline Areas"}},{"type":"Feature","geometry":{"type":"Point","coordinates":[-77.533275,39.055564]},"properties":{"id":"lc-pl-182","name":"Luck Stone Corporation","operator":null,"status":"proposed","status_raw":"Active","district":"Leesburg","sqft":1500000,"acres":116.35,"zoning":null,"zoning_case":"ZMAP-2009-0003","application":"LEGI-2023-0084","source":"Loudoun County GIS \u2014 Data Center Pipeline Areas"}},{"type":"Feature","geometry":{"type":"Point","coordinates":[-77.469655,39.010862]},"properties":{"id":"lc-pl-183","name":"Quantum Park","operator":null,"status":"proposed","status_raw":"Active","district":"Broad Run","sqft":525000,"acres":null,"zoning":null,"zoning_case":null,"application":"LEGI-2023-0097","source":"Loudoun County GIS \u2014 Data Center Pipeline Areas"}},{"type":"Feature","geometry":{"type":"Point","coordinates":[-77.443626,38.989987]},"properties":{"id":"lc-pl-184","name":"Concorde Industrial Park","operator":null,"status":"proposed","status_raw":"Active","district":"Sterling","sqft":449311,"acres":17.19,"zoning":null,"zoning_case":null,"application":"LEGI-2024-0002","source":"Loudoun County GIS \u2014 Data Center Pipeline Areas"}},{"type":"Feature","geometry":{"type":"Point","coordinates":[-77.416775,38.987416]},"properties":{"id":"lc-pl-185","name":"Uss Industrial Park","operator":null,"status":"proposed","status_raw":"Active","district":"Sterling","sqft":2275600,"acres":42.31,"zoning":null,"zoning_case":null,"application":"LEGI-2024-0003","source":"Loudoun County GIS \u2014 Data Center Pipeline Areas"}},{"type":"Feature","geometry":{"type":"Point","coordinates":[-77.438581,38.987368]},"properties":{"id":"lc-pl-186","name":"Prologis Park Gateway","operator":null,"status":"proposed","status_raw":"Active","district":"Sterling","sqft":1089044,"acres":10.58,"zoning":null,"zoning_case":"ZMAP-1988-0005","application":"LEGI-2024-0004","source":"Loudoun County GIS \u2014 Data Center Pipeline Areas"}},{"type":"Feature","geometry":{"type":"Point","coordinates":[-77.450356,38.991899]},"properties":{"id":"lc-pl-187","name":"Loudoun Business Park","operator":null,"status":"proposed","status_raw":"Active","district":"Sterling","sqft":666000,"acres":2.02,"zoning":null,"zoning_case":"ZRTD-2021-0007","application":"LEGI-2024-0030","source":"Loudoun County GIS \u2014 Data Center Pipeline Areas"}},{"type":"Feature","geometry":{"type":"Point","coordinates":[-77.514587,39.076832]},"properties":{"id":"lc-pl-188","name":"LEGI-2024-0037","operator":null,"status":"proposed","status_raw":"Active","district":"Leesburg","sqft":444307,"acres":17.52,"zoning":null,"zoning_case":null,"application":"LEGI-2024-0037","source":"Loudoun County GIS \u2014 Data Center Pipeline Areas"}},{"type":"Feature","geometry":{"type":"Point","coordinates":[-77.441272,38.980199]},"properties":{"id":"lc-pl-189","name":"LEGI-2024-0039","operator":null,"status":"proposed","status_raw":"Active","district":"Sterling","sqft":1359153,"acres":32.37,"zoning":null,"zoning_case":"ZMAP-1988-0013","application":"LEGI-2024-0039","source":"Loudoun County GIS \u2014 Data Center Pipeline Areas"}},{"type":"Feature","geometry":{"type":"Point","coordinates":[-77.437756,38.989312]},"properties":{"id":"lc-pl-190","name":"Downs Park","operator":null,"status":"proposed","status_raw":"Active","district":"Sterling","sqft":1751803,"acres":13.64,"zoning":null,"zoning_case":null,"application":"LEGI-2024-0041","source":"Loudoun County GIS \u2014 Data Center Pipeline Areas"}},{"type":"Feature","geometry":{"type":"Point","coordinates":[-77.498382,38.961259]},"properties":{"id":"lc-pl-191","name":"Dulles Trade Center 2","operator":null,"status":"proposed","status_raw":"Active","district":"Dulles","sqft":835330,"acres":16.85,"zoning":null,"zoning_case":null,"application":"LEGI-2024-0042","source":"Loudoun County GIS \u2014 Data Center Pipeline Areas"}},{"type":"Feature","geometry":{"type":"Point","coordinates":[-77.453952,39.013791]},"properties":{"id":"lc-pl-192","name":"Beaumeade","operator":null,"status":"proposed","status_raw":"Active","district":"Sterling","sqft":96842,"acres":null,"zoning":null,"zoning_case":"ZRTD-2015-0005","application":"LEGI-2024-0047","source":"Loudoun County GIS \u2014 Data Center Pipeline Areas"}},{"type":"Feature","geometry":{"type":"Point","coordinates":[-77.428072,38.986062]},"properties":{"id":"lc-pl-193","name":"Holiday Center","operator":null,"status":"proposed","status_raw":"Active","district":"Sterling","sqft":973305,"acres":36.35,"zoning":null,"zoning_case":null,"application":"LEGI-2024-0056","source":"Loudoun County GIS \u2014 Data Center Pipeline Areas"}},{"type":"Feature","geometry":{"type":"Point","coordinates":[-77.411703,39.026256]},"properties":{"id":"lc-pl-194","name":"Loudoun Tech Center","operator":null,"status":"proposed","status_raw":"Active","district":"Sterling","sqft":196138,"acres":11.05,"zoning":null,"zoning_case":"ZRTD-2021-0004","application":"LEGI-2024-0058","source":"Loudoun County GIS \u2014 Data Center Pipeline Areas"}},{"type":"Feature","geometry":{"type":"Point","coordinates":[-77.450601,38.988525]},"properties":{"id":"lc-pl-195","name":"Summit at Dulles","operator":null,"status":"proposed","status_raw":"Active","district":"Sterling","sqft":592772,"acres":9.28,"zoning":null,"zoning_case":"ZRTD-2021-0003","application":"LEGI-2024-0061","source":"Loudoun County GIS \u2014 Data Center Pipeline Areas"}},{"type":"Feature","geometry":{"type":"Point","coordinates":[-77.568261,39.005885]},"properties":{"id":"lc-pl-196","name":"Spring Valley Farms","operator":null,"status":"proposed","status_raw":"Active","district":"Ashburn","sqft":3250000,"acres":332.56,"zoning":null,"zoning_case":null,"application":"LEGI-2024-0074","source":"Loudoun County GIS \u2014 Data Center Pipeline Areas"}},{"type":"Feature","geometry":{"type":"Point","coordinates":[-77.470473,38.995241]},"properties":{"id":"lc-pl-197","name":"Sdc Ashburn","operator":null,"status":"proposed","status_raw":"Active","district":"Sterling","sqft":20000,"acres":1.18,"zoning":null,"zoning_case":"ZMAP-2019-0002","application":"LEGI-2025-0015","source":"Loudoun County GIS \u2014 Data Center Pipeline Areas"}},{"type":"Feature","geometry":{"type":"Point","coordinates":[-77.454348,39.02543]},"properties":{"id":"lc-pl-198","name":"Beaumeade Parcel C2","operator":null,"status":"proposed","status_raw":"Active","district":"Broad Run","sqft":183925,"acres":9.33,"zoning":null,"zoning_case":"ZRTD-2015-0003","application":"LEGI-2025-0027","source":"Loudoun County GIS \u2014 Data Center Pipeline Areas"}},{"type":"Feature","geometry":{"type":"Point","coordinates":[-77.437509,38.981302]},"properties":{"id":"lc-pl-199","name":"Gateway North","operator":null,"status":"proposed","status_raw":"Active","district":"Sterling","sqft":3161378,"acres":89.43,"zoning":null,"zoning_case":"ZRTD-2011-0001","application":"LEGI-2025-0034","source":"Loudoun County GIS \u2014 Data Center Pipeline Areas"}},{"type":"Feature","geometry":{"type":"Point","coordinates":[-77.546842,38.95312]},"properties":{"id":"lc-pl-200","name":"Evergreen Meadows","operator":null,"status":"proposed","status_raw":"Active","district":"Dulles","sqft":191000,"acres":11.19,"zoning":null,"zoning_case":null,"application":"LEGI-2025-0049","source":"Loudoun County GIS \u2014 Data Center Pipeline Areas"}},{"type":"Feature","geometry":{"type":"Point","coordinates":[-77.444325,38.981046]},"properties":{"id":"lc-pl-201","name":"Le Bourget Business Park","operator":null,"status":"proposed","status_raw":"Approved: Conditionally","district":"Sterling","sqft":144876,"acres":null,"zoning":null,"zoning_case":"ZMAP-1986-0015","application":"SPAM-2018-0039","source":"Loudoun County GIS \u2014 Data Center Pipeline Areas"}},{"type":"Feature","geometry":{"type":"Point","coordinates":[-77.463459,39.014974]},"properties":{"id":"lc-pl-202","name":"Catapult Ventures","operator":null,"status":"proposed","status_raw":"Active","district":"Broad Run","sqft":312943,"acres":9.1,"zoning":null,"zoning_case":"ZRTD-2017-0008","application":"STMP-2021-0015","source":"Loudoun County GIS \u2014 Data Center Pipeline Areas"}},{"type":"Feature","geometry":{"type":"Point","coordinates":[-77.506552,39.079795]},"properties":{"id":"lc-pl-203","name":"Vantage Data Centers VA31","operator":null,"status":"proposed","status_raw":"Approved","district":"Ashburn","sqft":1942050,"acres":104.95,"zoning":null,"zoning_case":null,"application":"STMP-2022-0016","source":"Loudoun County GIS \u2014 Data Center Pipeline Areas"}},{"type":"Feature","geometry":{"type":"Point","coordinates":[-77.532236,38.956393]},"properties":{"id":"lc-pl-204","name":"STMP-2022-0018","operator":null,"status":"proposed","status_raw":"Approved","district":"Little River","sqft":908382,"acres":25.02,"zoning":null,"zoning_case":"ZMAP-2020-0003","application":"STMP-2022-0018","source":"Loudoun County GIS \u2014 Data Center Pipeline Areas"}},{"type":"Feature","geometry":{"type":"Point","coordinates":[-77.463469,38.996198]},"properties":{"id":"lc-pl-205","name":"Sdc Ashburn","operator":null,"status":"proposed","status_raw":"Approved","district":"Sterling","sqft":621481,"acres":75.7,"zoning":null,"zoning_case":null,"application":"STMP-2022-0020","source":"Loudoun County GIS \u2014 Data Center Pipeline Areas"}},{"type":"Feature","geometry":{"type":"Point","coordinates":[-77.480839,39.005887]},"properties":{"id":"lc-pl-206","name":"Dulles Parkway Center","operator":null,"status":"proposed","status_raw":"Approved","district":"Broad Run","sqft":416209,"acres":27.74,"zoning":null,"zoning_case":"ZMAP-2000-0006","application":"STPL-2014-0024","source":"Loudoun County GIS \u2014 Data Center Pipeline Areas"}},{"type":"Feature","geometry":{"type":"Point","coordinates":[-77.546526,38.942018]},"properties":{"id":"lc-pl-207","name":"STPL-2018-0019","operator":null,"status":"proposed","status_raw":"Approved: Conditionally","district":"Dulles","sqft":216055,"acres":23.1,"zoning":null,"zoning_case":"ZMAP-1991-0006","application":"STPL-2018-0019","source":"Loudoun County GIS \u2014 Data Center Pipeline Areas"}},{"type":"Feature","geometry":{"type":"Point","coordinates":[-77.533912,39.077065]},"properties":{"id":"lc-pl-208","name":"Tuscarora Crossing South","operator":null,"status":"proposed","status_raw":"Approved: Conditionally","district":"Leesburg","sqft":625940,"acres":37.61,"zoning":null,"zoning_case":"ZMAP-2012-0011","application":"STPL-2020-0046","source":"Loudoun County GIS \u2014 Data Center Pipeline Areas"}},{"type":"Feature","geometry":{"type":"Point","coordinates":[-77.547203,38.945926]},"properties":{"id":"lc-pl-209","name":"Inova Health System Foundation","operator":null,"status":"proposed","status_raw":"Active","district":"Dulles","sqft":601193,"acres":33.63,"zoning":null,"zoning_case":"ZMAP-2005-0036","application":"STPL-2021-0049","source":"Loudoun County GIS \u2014 Data Center Pipeline Areas"}},{"type":"Feature","geometry":{"type":"Point","coordinates":[-77.43334,39.037634]},"properties":{"id":"lc-pl-210","name":"Na Dulles Real Estate","operator":null,"status":"proposed","status_raw":"Approved","district":"Broad Run","sqft":460000,"acres":23.83,"zoning":null,"zoning_case":"ZRTD-2020-0006","application":"STPL-2022-0012","source":"Loudoun County GIS \u2014 Data Center Pipeline Areas"}},{"type":"Feature","geometry":{"type":"Point","coordinates":[-77.519325,39.073612]},"properties":{"id":"lc-pl-211","name":"STPL-2022-0040","operator":null,"status":"proposed","status_raw":"Approved: Conditionally","district":"Leesburg","sqft":2406563,"acres":97.15,"zoning":null,"zoning_case":"ZMAP-2018-0009","application":"STPL-2022-0040","source":"Loudoun County GIS \u2014 Data Center Pipeline Areas"}},{"type":"Feature","geometry":{"type":"Point","coordinates":[-77.410033,39.024733]},"properties":{"id":"lc-pl-212","name":"Loudoun Tech Center H1","operator":null,"status":"proposed","status_raw":"Approved: Conditionally","district":"Sterling","sqft":268389,"acres":11.96,"zoning":null,"zoning_case":"ZRTD-2015-0001","application":"STPL-2022-0051","source":"Loudoun County GIS \u2014 Data Center Pipeline Areas"}},{"type":"Feature","geometry":{"type":"Point","coordinates":[-77.410107,39.022226]},"properties":{"id":"lc-pl-213","name":"Loudoun Tech Center","operator":null,"status":"proposed","status_raw":"Approved: Conditionally","district":"Sterling","sqft":227140,"acres":14.33,"zoning":null,"zoning_case":"ZRTD-2021-0005","application":"STPL-2022-0052","source":"Loudoun County GIS \u2014 Data Center Pipeline Areas"}},{"type":"Feature","geometry":{"type":"Point","coordinates":[-77.407795,39.023833]},"properties":{"id":"lc-pl-214","name":"Loudoun Tech Center","operator":null,"status":"proposed","status_raw":"Approved: Conditionally","district":"Sterling","sqft":309260,"acres":12.03,"zoning":null,"zoning_case":"ZRTD-2020-0002","application":"STPL-2022-0053","source":"Loudoun County GIS \u2014 Data Center Pipeline Areas"}},{"type":"Feature","geometry":{"type":"Point","coordinates":[-77.477559,39.004824]},"properties":{"id":"lc-pl-215","name":"Lot F2 Land Condo","operator":null,"status":"proposed","status_raw":"Approved","district":"Broad Run","sqft":481622,"acres":21.93,"zoning":null,"zoning_case":"ZMAP-1998-0003","application":"STPL-2023-0001","source":"Loudoun County GIS \u2014 Data Center Pipeline Areas"}},{"type":"Feature","geometry":{"type":"Point","coordinates":[-77.479002,39.067495]},"properties":{"id":"lc-pl-216","name":"Philips Electronics Na Corp","operator":null,"status":"proposed","status_raw":"Approved: Conditionally","district":"Broad Run","sqft":360000,"acres":25.24,"zoning":null,"zoning_case":null,"application":"STPL-2023-0007","source":"Loudoun County GIS \u2014 Data Center Pipeline Areas"}},{"type":"Feature","geometry":{"type":"Point","coordinates":[-77.411703,39.026256]},"properties":{"id":"lc-pl-217","name":"Loudoun Tech Center","operator":null,"status":"proposed","status_raw":"Approved: Conditionally","district":"Sterling","sqft":285200,"acres":11.05,"zoning":null,"zoning_case":"ZRTD-2021-0004","application":"STPL-2023-0008","source":"Loudoun County GIS \u2014 Data Center Pipeline Areas"}},{"type":"Feature","geometry":{"type":"Point","coordinates":[-77.495998,39.075604]},"properties":{"id":"lc-pl-218","name":"Belmont","operator":null,"status":"proposed","status_raw":"Approved: Conditionally","district":"Ashburn","sqft":1008000,"acres":215.84,"zoning":null,"zoning_case":"ZMAP-1996-0003","application":"STPL-2023-0025","source":"Loudoun County GIS \u2014 Data Center Pipeline Areas"}},{"type":"Feature","geometry":{"type":"Point","coordinates":[-77.517921,38.954195]},"properties":{"id":"lc-pl-219","name":"Brambleton Active Adult","operator":null,"status":"proposed","status_raw":"Active","district":"Little River","sqft":834954,"acres":48.29,"zoning":null,"zoning_case":"ZMAP-2012-0017","application":"STPL-2023-0028","source":"Loudoun County GIS \u2014 Data Center Pipeline Areas"}},{"type":"Feature","geometry":{"type":"Point","coordinates":[-77.528188,38.958745]},"properties":{"id":"lc-pl-220","name":"Bg South","operator":null,"status":"proposed","status_raw":"Approved: Conditionally","district":"Little River","sqft":1317531,"acres":188.81,"zoning":null,"zoning_case":"ZMAP-1993-0005","application":"STPL-2023-0029","source":"Loudoun County GIS \u2014 Data Center Pipeline Areas"}},{"type":"Feature","geometry":{"type":"Point","coordinates":[-77.523017,39.032406]},"properties":{"id":"lc-pl-221","name":"Broadlands","operator":null,"status":"proposed","status_raw":"Approved: Conditionally","district":"Ashburn","sqft":807825,"acres":45.71,"zoning":null,"zoning_case":"ZMAP-1999-0009","application":"STPL-2023-0041","source":"Loudoun County GIS \u2014 Data Center Pipeline Areas"}},{"type":"Feature","geometry":{"type":"Point","coordinates":[-77.534493,39.101954]},"properties":{"id":"lc-pl-222","name":"TLREZN2024-0003","operator":null,"status":"proposed","status_raw":"Active","district":"Leesburg","sqft":825500,"acres":101.92,"zoning":null,"zoning_case":null,"application":"TLREZN2024-0003","source":"Loudoun County GIS \u2014 Data Center Pipeline Areas"}},{"type":"Feature","geometry":{"type":"Point","coordinates":[-77.543412,39.097919]},"properties":{"id":"lc-pl-223","name":"Cardinal Industrial Park","operator":null,"status":"proposed","status_raw":"Active","district":"Leesburg","sqft":315000,"acres":8.17,"zoning":null,"zoning_case":null,"application":"TLSPEX2025-0003","source":"Loudoun County GIS \u2014 Data Center Pipeline Areas"}},{"type":"Feature","geometry":{"type":"Point","coordinates":[-77.472885,38.920613]},"properties":{"id":"lc-pl-224","name":"Firefox","operator":null,"status":"proposed","status_raw":"Approved","district":"Dulles","sqft":641451,"acres":null,"zoning":null,"zoning_case":"ZMAP-2021-0018","application":"ZMAP-2021-0018","source":"Loudoun County GIS \u2014 Data Center Pipeline Areas"}}]}
